code;name;id;registry_title;registry_title;email;phone;id2;url;pi_title;city;registry_sub_title;registry_name;id2;adress;zip_code;id3;country_code;continent;country_u;country
AFALGALG;Algiers;V;1;Tumour Registry of Algiers;doudjah7@gmail.com;+213 661 59 43 52;+213 21 91 27 37;NULL;Doudja Hammouda, responsible for Algiers cancer registry;Algiers;Département de contrôle des maladies;Institut National de Santé Publique;National Institute of Health;NULL;4, chemin Elbakr;El-Biar;16000;Africa;ALGERIA;Algeria
AFALGANN;Annaba;V;2;Annaba Cancer Registry;RegCancerAnnaba@gmail.com;21338400029;21338400037;;NULL;Annaba;Registre du cancer Annaba;CHU Annaba, Hopital Ibn Rochd;Centre de Lutte Contre le  Cancer d''Annaba;;02 Rue de Strasbourg ;;23000;Africa;ALGERIA;Algeria
AFALGBAT;Batna;V;3;Cancer Registry of the Wilaya of Batna;fbaichi@gmail.com;+213 33 30 84 07;+213 33 30 84 07;;larbi-bouhidel@yahoo.fr INVALID EMAIL;Batna;Service d'épidémiologie et de médecine préventive;CHU de Batna;;;;;5000;Africa;ALGERIA;Algeria
AFALGCON;Constantine;V;5;Cancer Registry of Constantine;mounira.ramy@yahoo.fr;NULL;NULL;NULL;djzougheilech@yahoo.fr - DOES NOT HAVE A YAHOO ACCOUNT / 2018: mounira.ramy@yahoo.fr (SECRÉTAIRE DU CHEF DE SERVICE Mlle Mounira Rami);Constantine;Service de Médecine Préventive et Epidémiologie;C.H.U. Benbadis;NULL;NULL;NULL;NULL;NULL;Africa;ALGERIA;Algeria
AFALGMAS;Mascara;V;6;Cancer Registry of the Mascara Region;NULL;NULL;NULL;NULL;NULL;NULL;Service d'Epidémiologie et de Médecine préventive du Secteur Sanitaire de Mascara;Département de Mascara;NULL;NULL;NULL;NULL;NULL;Africa;ALGERIA;Algeria
AFALGORA;Oran;V;9;Cancer Registry of Oran;NULL;(213) 41 412246;(213) 41 412226;NULL;NULL;Oran;Service d'Epidémiologie et de Médecine Préventive;Centre Hospitalier et Universitaire d'Oran;NULL;NULL;Place Roux;1, rue de Curie;31 000;Africa;ALGERIA;Algeria
AFALGSET;Sétif;V;11;Sétif Cancer Registry;cherifito@hotmail.fr;+213 36 616106;+213 36 616176;http://www.ennour-setif.org/registre_du_cancer_de_setif_.html;hamdicherifm @ennour .org - not available;Sétif;Service d’Épidémiologie et de Médicine préventive;Hospital University Center;NULL;NULL;Hôpital Mère-Enfant;CHU Setif;19000;Africa;ALGERIA;Algeria
AFALGSID;Sidi Bel Abbès;V;12;Cancer Registry of Sidi Bel Abbès;soulimane2@yahoo.fr;(213) 48 549924;(213) 48 549924;;asoulimane@yahoo.fr - invalid address;Sidi Bel Abbès;Service d''Epidémiologie et de Médecine Préventive;C.H.U. de Sidi Bel Abbès;;;;;22000;Africa;ALGERIA;Algeria
AFALGTIZ;Tizi Ouzou;V;1244;Tizi Ouzou Cancer Registry;mialoui_5@yahoo.fr;21326111465;21326111465;Algeria, Tizi Ouzou;NULL;Tizi Ouzou;Service d’épidémiologie et de médecine préventive;Centre Hospitalo-universitaire de Tizi Ouzou;Faculté de Médecine de Tizi-Ouzou;15000;Rue Lamali Ahmed, Tizi-Ouzou;Wilaya de Tizi Ouzou;15000;Africa;ALGERIA;Algeria
AFANG10;Angola;V;16;Oncology Registry of Angola;armandocno@yahoo.com.br;(244) 2 448009 / (244) 91 217710;NULL;NULL;kialamig@hotmail.com invalid email;Luanda;NULL;Departamento de Patologia;Hospital Americo Boavida;P.O. Box 12098;Avenida dos Massacre;NULL;NULL;Africa;ANGOLA;Angola
AFBOT10;Botswana;V;18;Botswana National Cancer Registry;botncr@gmail.com;2673632661 or3632662;+267 39 10 32 7 or +267 39 02 09 2;http://afcrn.org/membership/members/118-bncr;mpusoentsi@gov.bw second email;Gaborone;Departments of Public Health;Disease Control Division, Non-communicable Diseases Programme;Ministry of Health Headquarter;Private Bag 000269;NULL;NULL;NULL;Africa;BOTSWANA;Botswana
AFBUF10;Burkina Faso;V;19;Cancer Registry of Burkina Faso/Ouagadougou;NULL;(226) 362264;(226) 316190 / 312639;NULL;aubierge@caramail.com: invalid email address;Ouagadougou;NULL;Centre Syfed Ouagadougou;NULL;BP 4416;NULL;NULL;1;Africa;BURKINA_FASO;Burkina Faso
AFCAMYAO;Yaoundé;V;22;Yaoundé Cancer Registry;NULL;(237) 77716045;NULL;NULL;Not able to pay IACR fees in 2015;Yaoundé;Department of Pathology;Hôpital Général Yaoundé;NULL;B.P. 5408;Nlongkak;NULL;NULL;Africa;CAMEROON;Cameroon
AFCOOBRA;Brazzaville;V;25;Cancer Registry of Brazzaville;jfpecko@hotmail.fr;+242 (0)6 66 48 54 5;-811586;;NULL;Brazzaville;;CHU Brazzaville;Registre des Cancers de Brazzaville;B.P. 32;Service de Carcinologie et Radiothérapie;;;Africa;CONGO;Congo
AFCOTABI;Abidjan;V;27;Registre du Cancer d''Abidjan;;(+255) 08487095;(225) 21 252852 / 350627;;samuel158@caramail.com - Invalid email address - iadboubi@yahoo.com invalid;Abidjan;Centre Hospitalier Universitaire de Treichville;;;;01 B.P. V.3;;1;Africa;COTE_DIVOIRE;Côte d'Ivoire
AFEGYALE;Alexandria;V;29;Alexandria Regional Cancer Registry;ramezbedwani@hotmail.com;(20) 3 482 1299;(20) 3 483 4566;NULL;NULL;Alexandria;Medical Research Institute;NULL;NULL;NULL;165 Al-Horria Road;El Hadara;NULL;Africa;EGYPT;Egypt
AFEGYASW;Aswan;V;30;Aswan Cancer Registry;amirmbishara@yahoo.com;+20 97 23 03 37 4;+20 97 23 09 87 3;NULL;Beside El-Takhteet (location 2 removed - not in the July 2012 survey);Aswān;NULL;Aswan Oncology Center;NULL;NULL;Kornish el Nile Street;NULL;81111;Africa;EGYPT;Egypt
AFEGYELS;El-Salam;V;31;El-Salam Cancer Registry;NULL;(202) 279 7917;(202) 279 7928;NULL;NULL;Cairo;El-Salam Oncology Centre;Madinat Al-Salam;NULL;NULL;NULL;NULL;NULL;Africa;EGYPT;Egypt
AFEGYGHA;Gharbiah;V;32;Gharbiah Cancer Registry;gpbcr1@gmail.com;002040 -3413275;20403413276;;NULL;Ţanţā;;Gharbia Cancer Society;;P.O. Box 276;Dr. Nagati Street from Elgeish;;31111;Africa;EGYPT;Egypt
AFEGYMIN;Minia;V;33;Minia Cancer Registry;hafifi16@hotmail.com;+20 10 09 86 24 64;NULL;NULL;NULL;Al Minyā;NULL;Minia Cancer Registry;NULL;NULL;Minia Cancer Center;Dr Hasan Afifi;NULL;Africa;EGYPT;Egypt
AFESW10;Eswatini;V;81;Swaziland National Cancer Registry;swazicancerregistry@gmail.com;(268) 505 2126;(268) 505 6445;NULL;Country name changed from Swaziland in 2018;Manzini;Central Public Health Laboratory;Ministry of Health and Social Welfare;NULL;P.O. Box 54;NULL;NULL;NULL;Africa;ESWATINI;Eswatini
AFFRRREU;Reunion;V;35;Cancer Registry of the Reunion Island;registre.cancer@chu-reunion.fr;262905123;;http://afcrn.org/membership/members/130-registrereunion;NULL;Saint-Denis;Service Santé Publique et Soutien à la Recherche;CHU de la Réunion, site CH Félix Guyon;;;Allée des Topazes;CS11021;97400;Africa;FRANCE_REUNION;Réunion
AFGAM10;Gambia;V;37;Gambia National Cancer Registry;lbojang@mrc.gm;+220 4495442 / +220 7039468  Ext. 5004;2 204 495 919;www.mrc.gm;NULL;Banjul;Gambia National Cancer Registry;Medical Research Council Unit at London School of Hygiene and Tropical Medicine;Atlantic Boulevard;;;;;Africa;;Gambia
AFGUA10;Guinea;V;40;National Guinean Tumour Registry;NULL;(224) 228088;(224) 413990 / 455393/ 453670;NULL;moussakoulibaly@hotmail.com INVALID EMAIL Dr I Kabba passed away on Fri 29 Nov 2013;Conakry;Centre National d'Anatomie Pathologique;Faculté de Médecine/Pharmacie;Université de Conakry;B.P. 4152;NULL;NULL;NULL;Africa;GUINEA;Guinea
AFKENELD;Eldoret;V;41;The Eldoret Cancer Registry;eldoretcancerregistry@gmail.com;+254 73 37 87 71 0;;http://afcrn.org/membership/members/101-eldoret;Moi University, AMPATH, Oncology, AMPATH Building,  Research Room (Department, Institution and Location 2 removed further to July 2012 survey);Eldoret;Department of Hematology and Blood Transfusion;Moi University, College of Health Sciences;;P.O. Box 4606;School of Medicine;RM 145;30100;Africa;KENYA;Kenya
AFKENNAI;Nairobi;V;42;Nairobi Cancer Registry;cancerregistry@kemri.org;(254) (020) 2722541;(254)(020) 2720030;http://afcrn.org/membership/members/85-nairobi-kenya;NULL;Nairobi;Centre for Clinical Research;Kenya Medical Research Institute;NULL;P.O. Box 20778;Off Mbagathi Way;NULL;202;Africa;KENYA;Kenya
AFLIYBEN;Benghazi;V;43;Benghazi Cancer Registry;;(218) 925110193;(218) 61 22 38 350;www.cancerlibya.com;bcr@cancerlibya.com - mail bounces back;Benghazi;Medical School;Benghazi Medical University;;P.O. Box 3232;;;;Africa;LIBYA;Libya
AFMAIBLA;Blantyre;V;44;National Cancer Registry of Malawi;;(265) 1 824 279;;;NULL;Blantyre;Queen Elizabeth Central Hospital;;;P.O. Box 95;;;;Africa;MALAWI;Malawi
AFMALBAM;Bamako;V;46;Mali Cancer Registry;NULL;+223 20 22 50 02;+223 20 22 97 90;http://afcrn.org/membership/members/136-malicancerregistry;Service d''anatomie pathologique - Centre Hospitalier Universitaire du Point G: REMOVED from Department and Institution 1 (survey July 2012);Bamako;;CHU du Point G;;BPE 333;;;;Africa;MALI;Mali
AFMAU10;Mauritius;V;47;Mauritius National Cancer Registry;ncrmauritius@gmail.com;2 304 257 118;2 304 245 848;http://afcrn.org/membership/members/103-mauritius;NULL;Candos;NULL;Central Health Laboratory;Ministry of Health and Quality of Life;;Central Health Laboratory;;le-registre-du-cancer-de-la-somme;Africa;MAURITIUS;Mauritius
AFMORCAS;Casablanca;V;48;Casablanca Cancer Registry;beniderabdel54@gmail.com;;;;NULL;Casablanca;Centre Mohammed VI pour le traitement des cancers;Hopital Ibn Rochd;;;Rue Sebta, Quartier des hopitaux;;20000;Africa;MOROCCO;Morocco
AFMORRAB;Rabat;V;49;Rabat Cancer Registry;registre.rabat@gmail.com;+212 6 62 85 49 79;+212 5 37 71 49 82;;bendahhou.karima@gmail.com;Rabat;;;;BP 6213 RI;Avenue Allal Al Fassi;;10100;Africa;MOROCCO;Morocco
AFNIENIA;Niamey;V;54;National Cancer Registry of Niger;NULL;(227) 734726 / 27, ext 365;(227) 734731 / 733862;NULL;NULL;Niamey;Université de Niamey;Faculté des Sciences de la Santé;NULL;B.P. 10896;NULL;NULL;NULL;Africa;NIGER;Niger
AFNIGABE;Abeokuta;V;58;Abeokuta Cancer Registry;abeokutacanreg@yahoo.com;(234) 39 241020;NULL;NULL;NULL;Abeokuta;Medical Records Department;Federal Medical Centre;NULL;NULL;Idi-Aba;NULL;NULL;Africa;NIGERIA;Nigeria
AFNIGIBA;Ibadan;V;61;Ibadan Cancer Registry;ibadancancerregistryuch@yahoo.com;+234 90 30 47 39 04;+234 02 24 11 76 8;;NULL;Ibanda;PATHOLOGY;UNIVERSITY COLLEGE HOSPITAL;;;QUEEN ELIZABETH ROAD;ORITAMEFA;234-02;Africa;NIGERIA;Nigeria
AFNIGIFE;Ife-Ijesha;V;62;Ife-Ijesha Cancer Registry;NULL;(234) 36 230271;(234) 36 230141;NULL;NULL;Ile-Ife;NULL;Teaching Hospital;c/o Obafemo Awolowo University;NULL;PMB 5538;NULL;NULL;Africa;NIGERIA;Nigeria
AFNIGILO;Ilorin;V;63;Ilorin Cancer Registry;espafolayan@yahoo.com;(234) 8033848980 or 2348075010634;(234) 31 220020;NULL;NULL;Ilorin;U.I.T.H., 1459;NULL;NULL;NULL;NULL;NULL;NULL;Africa;NIGERIA;Nigeria
AFRWABUT;Butare;V;66;Cancer Registry of the Butaré prefecture;NULL;(250) 32012/3;(250) 32012/3;NULL;NULL;Butare;Faculté de Médecine;NULL;NULL;B.P. 30;NULL;NULL;NULL;Africa;RWANDA;Rwanda
AFSEN10;Senegal;V;69;Senegal Cancer Registry;NULL;(221) 839 9219;(221) 822 7052;NULL;REMOVE dangou@pasteur.sn - NOT VALID;Dakar;NULL;Laboratoire d'Anatomie et de Cytologie Pathologiques;Institut Pasteur;NULL;36 avenue Pasteur;NULL;B.P. 220;Africa;SENEGAL;Senegal
AFSEN7D;Dakar;V;70;Dakar Tumor Registry;drmdiop@hotmail.com;+221 33 82 32 65 8;NULL;NULL;NULL;Dakar;NULL;Dakar Cancer Center;NULL;NULL;30 Avenue Pasteur;BP 15647;NULL;Africa;SENEGAL;Senegal
AFSEY10;Seychelles;V;71;Seychelles National Cancer Registry;anne.finesse@gov.sc;2484388416;;http://afcrn.org/membership/membership-list/96-seychelles;Applied and granted IACR full voting membership status in 2017;Victoria;;Seychelles Hospital;;PO box 52;;Mahe Island, Seychelles;;Africa;SEYCHELLES;Seychelles
AFSOU10;South Africa;V;72;South African National Cancer Registry;ElviraS@nicd.ac.za;+27 11 55 50 45 8;+27 11 48 99 15 2;http://www.nicd.ac.za;;;;;;;;;;;;
AFSOUCAP;Cape Town;V;76;City of Cape Town Cancer Registry;debbie.bradshaw@mrc.ac.za;(27) 21 689 5347;(27) 21 685 7065;NULL;cancer register has been moved into the MRC Burden of Disease Research Unit which is directed by Prof Debbie Bradshaw;Cape Town;NULL;NULL;NULL;NULL;37A Main Road;Mowbray;7700;Africa;SOUTH_AFRICA;South Africa
AFSOUTRA;Transkei;V;77;Eastern Cape Cancer Registry;Nontuthuzelo.Somdyala@mrc.ac.za;+27 21 93 80 954;862113586;www.mrc.ac.za/bod/contact.htm;Cancer patterns in 4 districts of the Transkei Region of the Eastern Cape Province -  REMOVED from reg. Name: of Eastern Cape Province - REMOVED from Dpt: Burden of Disease Research Unit - REMOVED from Location 1: Francie Van Zijl Drive, Parowvalley;Cape Town;Burden of Disease Research Unit;South African Medical Research Council;Francie Van Zijl Drive, Parowvalley;PO Box 19070;;;7505;Africa;SOUTH_AFRICA;South Africa
AFSUDKHA;Khartoum;V;80;Khartoum Cancer Registry;NULL;(249) 11 799297;(249) 11 774780;NULL;radiationisotopecentre@hotmail.com, INVALID EMAIL - profhussein@hotmail.com, invalid email address/md - hyd2_irhsirhs@sancharnet.in, invalid email address/md;Khartoum;Central Public Health Laboratory;General Hospital;NULL;NULL;NULL;NULL;NULL;Africa;SUDAN;Sudan
AFTAN10;Tanzania;V;82;Tanzania Cancer Registry;NULL;(255) 51 151577;(255) 51 151577;NULL;path@ud.co.tz not valid any more (SA, 10/05/2016);Dar es Salaam;NULL;Muhimbili University College of Health Sciences;NULL;P.O. Box 65002;NULL;NULL;NULL;Africa;TANZANIA;Tanzania
AFTAN7D;Aga Khan Dar Es Salaam;V;1014;Aga Khan Health Services Tanzania (AKHST);NULL;;;;NULL;Dar es Salaam;Oncology Department;Aga Khan Hospital;;PO Box 2289;Barack Obama Avenue;;;Africa;TANZANIA;Tanzania
AFTUNNOR;North;V;89;Cancer Registry North Tunisia;mohamed.hsairi@rns.tn;+216 71 57 78 85 / +216 20211257;+216 71 57 47 25;;mansour.benabdallah@rns.tn (email address of Director removed);;;;;;;;;Africa;;
AFUGAKAM;Kyadondo;V;92;Kampala Cancer Registry;kampalacancerregistry@gmail.com;+256 41 45 31 73 0;+256 41 45 31 11 6;http://afcrn.org/membership/members/81-kampala-uganda;NULL;Kampala;Department of Pathology;Makerere University;College of Health  Sciences, School of Biomedical Sciences;P.O. Box 7072;Pathology Department;Mulago;256;Africa;UGANDA;Uganda
AFZAM10;Zambia;V;95;National Cancer Registry of Zambia;ncrzambia@yahoo.com;(260) 1 253947 / 4142;(260) 1 250 305;;NULL;Lusaka;Pathology and Microbiology Department;School of Medicine;;Private Bag RW 1X;;;;Africa;ZAMBIA;Zambia
AFZIMHAR;Harare;V;97;Zimbabwe National Cancer Registry;cancer@ecoweb.co.zw;-794186;-794186;www.zimcancerregistry.co.zw;NULL;Harare;;Zimbabwe National Cancer Registry;Parirenyatwa Group of Hospitals;P.O. Box A449;Mazowe Street;Avondale;;Africa;ZIMBABWE;Zimbabwe
ALARG20;Argentina_P;V;100;Argentinean Paediatric Oncology Hospital Registry;roha@inc.gob.ar;+54 11 52 39 05 64;+54 11 52 35 75 53;https://www.argentina.gob.ar/salud/instituto-nacional-del-cancer/institucional/roha;NULL;Buenos Aires;Vigilancia y Registro;Instituto Nacional del Cancer;Ministerio de Salud y Desarrollo Social de la Nación;;Av. Julio Roca 781 - floor 10;NULL;C1067ABC;America Latin;ARGENTINA;Argentina
ALARG3C;Cordoba_P;V;101;Cordoba Province Paediatric Cancer Registry;nicolasgraciela@gmail.com;(54) (0351) 4348787;(54) (0351) 4348787;NULL;NULL;Córdoba;Instituto Provincial de Oncologia;Hospital de Niños de la Santisima Trinidad;NULL;NULL;Bajada Pucara ;NULL;900;America Latin;ARGENTINA;Argentina
ALARG7A;Argentina_Hospital_P;V;102;Children Tumour Registry;NULL;(54) 21 535901/09;(54) 21 535930;NULL;INVALID mercer@cespivmz.unlp.edv.ar;La Plata;Servicio de Patologia;Hospital de Niños;NULL;NULL;Calle 14 y 65;NULL;1900;America Latin;ARGENTINA;Argentina
ALARGBAH;Bahia Blanca;V;107;Bahía Blanca Cancer Registry;recan@criba.edu.ar;;;;;;;;;;;;;;;
ALARGBUE;Buenos Aires;V;108;Buenos Aires Province Cancer Registry;NULL;(54) 221 4843723;(54) 221 4843723;www.ms.gba.gov.ar/RegistroCancer/rcpba.html;rcpba@ms.gba.gov.ar. Doesn't work anymore. Info Monica/md;La Plata;NULL;Hospital ZGA San Roque de Gonnet;NULL;NULL;Calle 508;e/18 y 19;CP1897;America Latin;ARGENTINA;Argentina
ALARGENT;Entre Rios;V;112;Entre Ríos Provincial Population Cancer Registry;miguelangelprince1937@gmail.com;(54) 345 421 4988;(54) 345 154246394;;lherrera@concordia.com.ar - email not valid Nov 2015;Concordia;Epidemiology Departament;Health Ministry Entre Ríos Province;NULL;P.O. Box 3200;Mendoza 60;25 de mayo 156;CP 3200;America Latin;ARGENTINA;Argentina
ALARGLPA;La Pampa;V;115;La Pampa Province Tumor Registry;registrodetumores@lapampa.gov.ar;(54) 2954 456707;;;NULL;Santa Rosa;;Dr Lucio Molas Hospital;Raul B. Diaz s/n;6300;25 de mayo 636;;6300;America Latin;ARGENTINA;Argentina
ALARGMEN;Mendoza;V;117;Provincial Registry of Tumors of Mendoza;rtumores@mendoza.gov.ar;+54 26 14 20 02 49;+54 26 14 20 02 49;NULL;Email received on 10/05/11 with updates;Mendoza;Coordinacion de Epidemiología;NULL;Ministerio de Salud, Desarrollo Social y Deportes de Mendoza;NULL;Av. España 1419/1425 - 3º piso;NULL;5500;America Latin;ARGENTINA;Argentina
ALARGNEU;Neuquen;V;118;Neuquén Cancer Registry;;+54 29 94 49 08 00 int 277;+54 29 94 49 08 00 int 277;;adrifeltri@yahoo.fr - invalid address;Neuquén;;Eduardo Castro Rendón Hospital;;;Talero 151 - 6to piso;;Q8300IEC;America Latin;ARGENTINA;Argentina
ALARGRNE;Río Negro;V;121;Provicial Cancer Registry of the Rio Negro;programacancer@salud.rionegro.gov.ar;(54) 2920 425607;(54) 2920 425607/424417;NULL;NULL;Viedma;NULL;NULL;NULL;NULL;Laprida N° 240, 2do Piso;NULL;Río Negro C.P. 8500;America Latin;ARGENTINA;Argentina
ALARGSNF;Santa Fe;V;125;Cancer Registry Santa Fe;silvinacc@gmail.com;+54 03 42 45 73 52 1;+54 03 42 45 73 52 1;;NULL;Santa Fe;SANTA FE;AGENCIA DE CONTROL DE CANCER;MINISTERIO DE SALUD ;;Bv Zavalla 3361 PB;;3000;America Latin;ARGENTINA;Argentina
ALARGTFU;Terra Fuego;V;127;Population Based Cancer Registry of the Province of Tierra del Fuego;registrocancertdf@yahoo.com.ar;+54 02 90 14 23 01 5;+54 02 90 14 23 01 5;;NULL;Ushuaia;;Sector operates within the Epidemiology Departement under the Ministry of Health;of the Province of Tierra del Fuego in the area of Unit Cancer Registry of TdF;;Leopold Lugones 1880-;;;America Latin;;
ALBAR10;Barbados;V;132;The Barbados National Registry for Chronic Non-communicable Diseases (BNR);bnr@cavehill.uwi.edu;+1246 25 64 26 7;+1246 22 80 36 0;www.bnr.org.bb;NULL;Bridgetown;NULL;The George Alleyne Chronic Disease Centre;University of the West Indies;NULL;'Avalon' Jemmott's Lane;St Michael;BB11115;America Latin;BARBADOS;Barbados
ALBOLLPA;La Paz;V;135;Cancer Registry of La Paz;sdenka_mf@yahoo.com;+591 22 44 57 82;+591 22 44 57 82;NULL;A closed registry;La Paz;NULL;Programa Nacional de ENT;Ministerio de Salud y Deportes Bolivia;NULL;Calle Fernando Guachalla n°2342;Edificio Victor, 4to piso;NULL;America Latin;BOLIVIA;Bolivia
ALBRA7C;Curitiba hospital-based;V;137;Hospital-based Cancer Registry of Curitiba;NULL;(55) 41 361 5183;(55) 41 361 5185;NULL;NULL;Curitiba;NULL;NULL;NULL;NULL;Rua Dr Ovande do Amaral, 201;Jardim das Américas;81520-060;America Latin;BRAZIL;Brazil
ALBRA7G;Goiânia hospital-based;V;138;Hospital-Based Cancer Registry of Goiânia;NULL;NULL;NULL;NULL;NULL;Goiânia;NULL;Setor Universitário;NULL;NULL;Rua 239, No. 188;NULL;NULL;America Latin;BRAZIL;Brazil
ALBRA7S;Sao Paulo;V;139;Hospital-based Cancer Registry of Sao Paulo State;rhc@hcancer.ng.br;(55) 11 3272 5047;NULL;NULL;quick contact email added as per M. Rebelo's information/md;São Paulo;Centro de Tratamento e Pezquiza;Hospital do Câncer A.C. Camargo;NULL;NULL;R. Prof. Antônio Brudente, 211;Liberdade;01509-010;America Latin;BRAZIL;Brazil
ALBRAARA;Aracaju;V;141;Cancer Registry of Aracaju;regcan.ara@gmail.com;+55 79 32 59 31 51;+55 79 32 59 31 51;;ca.lima01@gmail.com;;;;;;;;;;;
ALBRABAR;Barretos;V;1259;Population-based Cancer Registry of Barretos;mafra.allini@gmail.com;;;;;;;;;;;;;;;
ALBRABEL;Belem;V;142;Population-based Cancer Registry of Belem;oncologia_sespa@hotmail.com;+55 91 3265 6672;;;NULL;Belém;(Coordenação Estadual de Atenção Oncológica);Secretaria Estadual Saúde Pública do Pará;;;Av. Governador Magalhães Barata, 992 - 7º andar;São Braz;66063-240;America Latin;BRAZIL;Brazil
ALBRABHO;Belo Horizonte;V;143;Population-Based Cancer Registry of Belo Horizonte/MG/Brazil;pav.se@saude.mg.gov.br;+55 31 39 16 03 70;;;NULL;Belo Horizonte;State Secretariat of Health of Minas Gerais;Secretaria de Estado da Saúde de Minas Gerais;Viligância do Câncer Cidade Administrativa Presidente Tancredo Neves;;Rodovia Prefeito Américo Gianetti S/N - 13° andar;Ala par Estação n°13.340 -  Bairro Serra Verde;31630-901;America Latin;BRAZIL;Brazil
ALBRACAM;Campinas;V;145;Cancer Registry Based Population of Campinas;registrodecancercampinas@campinas.sp.gov.br;+55 19 35 21 78 85;+55 19 35 21 78 85;http://www.abrc.org.br/index.php/registros-de-base-populacional/;nazira@unicamp.br Invalid email address/md;Campinas;SP Universidade Estadual de Campinas -UNICAMP/FCM/DSC;Universidade Estadual de Campinas -UNICAMP;sl. 08 2.° andar Cidade Universitária Zeferino Vaz- Barão Geraldo;;Rua Vital Brasil, 100 Prédio do CIPOI;NULL;13083-970;America Latin;BRAZIL;Brazil
ALBRACUR;Curitiba;V;148;Population-Based Cancer Registry of Curitiba;claporte@sms.curitiba.pr.gov.br;;;;;;;;;;;;;;;
ALBRAESP;Espirito Santo;V;1258;Population Based Cancer Registry of State of Espirito Santo;rcbpsaudees@gmail.com;;;;;;;;;;;;;;;
ALBRAFOR;Fortaleza City;V;152;Fortaleza City Cancer Registry;registro@hospcancer-icc.org.br;+55 85 3101 5125;+55 85 3101 5125;NULL;mirenuribe@yahoo.com.br previously in quick contact e-mail/md // 2018: ediania@hotmail.com;;;;;;;;;;;
ALBRAGOI;Goiania;V;153;Cancer Registry of Goiânia;rcbpgo@gmail.com;+55 62 3243 7076;+55 62 3243 7076;;NULL;Goiânia;;Associaçao de Combate ao Câncer em Goiás;;;Setor Leste Universitário;Rua 239, No. 181;74605-070;America Latin;BRAZIL;Brazil
ALBRAJAU;Jau;V;154;Population-Based Cancer Registry of Jahu-SP;rcbp.donaldo@amaralcarvalho.org.br;+55 14 36 02 13 92 / +55 14 36 02 12 18;+55 14 36 02 13 40;http://www.amaralcarvalho.org.br;NULL;Jaú;Diretoria de Desenvolvimento em Saúde;Fundação Hospital Amaral Carvalho;;17.210-080;Rua Dona Silvéria, 150;;17210-080;America Latin;BRAZIL;Brazil
ALBRAJPE;João Pessoa;V;156;Cancer Registry of João Pessoa;dants.estadopb@gmail.com;+55 83 3218 7324;+55 82 3218 7473;www.inca.gov.br;Same as ALBRAJOA;João Pessoa;Nucleus of Diseases and Noncommunicable Diseases;Secretaria de Saúde do Estado da Paraiba;;;Avenida Dom Pedro II, 1826;Torre João Pessoa;(58040-440);America Latin;BRAZIL;Brazil
ALBRAMAN;Manaus;V;157;Population Based Cancer Registry of Manaus;dpcc@fcecon.am.gov.br;+55 92 36 55 46 02;+55 92 36 55 46 04;;naycmachado@gmail.com;;;;;;;;;;;
ALBRAPAL;Palmas;V;159;Population-Based Cancer Registry of Palmas;vigidant@saude.to.gov.br;+55 63 3218 3205;+55 63 3218 3244;NULL;pav@saude.to.gov.br added as 2nd email address as per M. Rebelo's information/md ;;;;;;;;;;;
ALBRAPER;Pernambuco;V;161;Cancer Registry of Pernambuco;NULL;(55) (81) 3355 2060;(55) (81) 3412 6366;NULL;THIS REGISTER DOES NO LONGER EXIST (18 Apr 2013 from I.Savage);Recife;NULL;NULL;NULL;NULL;Praça Oswaldo Cruz S/N;Boa Vista;50050-210;America Latin;BRAZIL;Brazil
ALBRAPOR;Porto Alegre;V;162;Population-Based Cancer Registry of Porto Alegre;nis@saude.rs.gov.br;;;;;;;;;;;;;;;
ALBRASAL;Salvador;V;165;Population-Based Cancer Registry of Salvador;rhc@aristidesmaltez.org.br;;;;;;;;;;;;;;;
ALBRASPC;Sao Paulo;V;166;Population-based Cancer Registry of São Paulo;rcancer@fsp.usp.br;;;;;;;;;;;;;;;
ALCHI20;Chile_P;V;1047;National Registry of Childhood Cancer (RENCI);nvergara@minsal.cl;-25740068;-27540451;http://epi.minsal.cl/registro-nacional-del-cancer-infantil/;Full IACR network membership applied and granted in 2017;Santiago;Departamento de Epidemiología, Vigilancia de enfermedades no transmisibles;Ministerio de Salud;Subsecretaría de Salud Pública;;Enrique Mac Iver 541 Oficina 401,;;;America Latin;CHILE;Chile
ALCHIANT;Antofagasta;V;170;Cancer Registry of the Region of Antofagasta;NULL;+56 (0)55 65 50 19;+56 (0)55 65 50 12;http://seremi2.redsalud.gob.cl/;Dr. Patricio Gayán Pérez - Director;;;;;;;;;;;
ALCHIBIO;Biobio;V;171;Population-Based Cancer Registry of the Province of Bío Bío;mariapaz.sandoval@redsalud.gov.cl;+56 43 2332737;;http://www.seremidesaludbiobio.cl/sd/web/;NULL;Los Angeles;;Oficina Provincial Biobio SEREMI Salud Región del Biobío;Ministerio de Salud;;Avenida Ricardo Vicuña 371;;;America Latin;CHILE;Chile
ALCHIVAL;Valdivia;V;173;Region de Los Rios Cancer Registry;solange.vargas@redsalud.gob.cl;+56 (0)63 226 51 63;+56 (0)63 2333038;www.seremisaludlosrios.cl;NULL;Valdivia;Dpto. de Salud Pública, Sección de Epidemiología;Secretaría Regional Ministerial de Salud, Región de Los Ríos;;;Chacabuco Nº 700;;5110422;America Latin;CHILE;Chile
ALCOL10;Colombia;V;174;National Cancer Institute of Colombia;cpardo@cancer.gov.co;(571) 3341111;NULL;https://cancer.gov.co/;NULL;Bogota;Vigilancia Epidemiológica del Cáncer;NULL;NULL;NULL;Calle 1a., No. 9-85, Apt. Aereo 17158;NULL;NULL;America Latin;COLOMBIA;Colombia
ALCOLANT;Antioquia;V;175;Cancer Registry of Antioquia;cronicas.dssa@antioquia.gov.co;+57 4 385 9613;NULL;NULL;registrodecancer@epm.net.co did not work (SA 24/05/2016);Medellín;Dirección Seccional de Salud de Antioquia;Centro Administrativo Departamental La Alpujarra, Piso 8;NULL;NULL;Calle 42B #52-106;NULL;NULL;America Latin;COLOMBIA;Colombia
ALCOLBUC;Bucaramanga;V;177;Cancer Registry of the Metropolitan Area of Bucaramanga;cancerbmanga@unab.edu.co;+57 76436111 ext 515;;http://www.unab.edu.co/content/registro-poblacional-de-cancer-area-metropolitana-de-bucaramanga;NULL;Bucaramanga;Centro de Investigación en Ciencias de la Salud y Psicosociales CICSP;Universidad Autónoma de Bucaramanga;Facultad de Ciencias de la Salud, Programa de Medicina;;Calle 157, Nº 19-55 Cañaveral Parque;;68001;America Latin;COLOMBIA;Colombia
ALCOLCAL;Cali;V;178;Cali Cancer Registry;registro.cancercali@correounivalle.edu.co;+57 25 18 56 23;+57 25 18 56 23;http://rpcc.univalle.edu.co;NULL;Cali;Department of Pathology;Universidad del Valle - Sede San Fernando;Faculty of Health Sciences;P.O. Box 25360;Calle 4B 36-00 Edificio 116 Oficina 4003;NULL;NULL;America Latin;COLOMBIA;Colombia
ALCOLMAN;Manizales;V;179;Population-based Cancer Registry of Manizales;nelson.arias@ucaldas.edu.co;5,73E+11;+57(6)8783060 Ext 31255;;NULL;Manizales;Instituto de Investigaciones en Salud;Universidad de Caldas;Facultad de Ciencias para la Salud;;Carrera 25 No 48-57;;17001000;America Latin;COLOMBIA;Colombia
ALCOLPAS;Pasto;V;180;Cancer Registry of Pasto;cesun@udenar.edu.co;+57 27 31 22 83;+57 27 31 22 83;http://rpcmp.udenar.edu.co/;NULL;Pasto;Centro de Estudios en Salud;Universidad de Nariño;NULL;NULL;Ciudad Universitaria Torobajo;Clle 18 Cr 50;520001;America Latin;COLOMBIA;Colombia
ALCOS10;Costa Rica;V;182;Costa Rica National Tumor Registry;;(506) 22216158;(506) 22335061;https://www.ministeriodesalud.go.cr;NULL;San José;Dirección Vigilancia de la Salud;Ministerio de Salud;;P.O. Box 10123-1000;st.16, av. 6-8;;;America Latin;COSTA_RICA;Costa Rica
ALCUB10;Cuba;V;183;Cuba National Cancer Registry;rncinor@infomed.sld.cu;+53 78 38 39 70;;http://www.rnc.sld.cu/;NULL;Havana;Registro Nacional de Cáncer;Calle 29 esquina con F, Vedado;Dirección de Registros Médicos y Estadística;;;;;America Latin;;
ALCUR10;Curacao;V;198;Cancer Registry of Curacao;corocar@hotmail.com;+599 98 64 87 35;;;REMOVE cordak@interneeds.net - Heelsumstraat 55 (address removed);Willemstad;Department of Pathology;Analytic Diagnostic Center (ADC);;;p/a Kaya Dakue 66;;;America Latin;CURACAO;Curacao
ALECUCUE;Cuenca;V;200;Cuenca Tumor Registry;rtumor@institutodelcancer.med.ec;(11593) 7 4096566;(11593) 7 4096562;http://www.estadisticas.med.ec/webpages/quienes_somos-cuenca.jsp;Registry Solca-Guayaquil: Coordinator = Rina Quinto rchospital@solca.med.ec;Cuenca;Registro de Tumores SOLCA - Cuenca;Sociedad de Lucha contra el Cáncer;Instituto del Cáncer SOLCA - Cuenca;;Agustin Landivar y Av. Del Paraiso;;10107;America Latin;ECUADOR;Ecuador
ALECUGUA;Guyaquil;V;967;Guayaquil SOLCA Cancer Registry;rtguayaquil@solca.med.ec;593-43718300 ext 2462 - 2464;;http://www.estadisticas.med.ec/webpages/quienes_somos-gye.jsp;NULL;Guayaquil;Department of Information Management and Productivity;SOLCA - Sociedad de Lucha Contra el Cáncer;;;Av. Pedro Menéndez Gilbert y;Av. Atahualpa Chávez;;America Latin;ECUADOR;Ecuador
ALECULOJ;Loja;V;201;Loja Cancer Registry;rtumores@solcaloja.med.ec;593 072 614 314;;;NULL;Loja;Hospital Oncológico Solca Loja/Loja;Sociedad De Lucha Contra El Cancer Loja;;NULL;Loja City: Av. Salvador Bustamante Celi;593072613752  EXT: 2501;11.01.256;America Latin;ECUADOR;Ecuador
ALECUMAN;Manabi;V;202;Manabí Cancer Registry;NULL;593 05 2580016;593 05 2580016;www.solcamanabi.org;NULL;Portoviejo;Registro de Tumores;Hospital Oncológico;NULL;P.O. Box 390;Autopista del Valle;NULL;EC130104;America Latin;ECUADOR;Ecuador
ALECUQUI;Quito;V;203;National Cancer Registry;patycuev@hotmail.com;+593 24 19 76 3;+593 24 19 76 3;http://www.solcaquito.org.ec;NULL;Quito;Sociedad de Lucha Contra el Cancer;SOLCA, Núcleo de Quito;;;Av. Eloy Alfaro 53-94 y Los Pinos;Casilla 1711 4965 CCI;;America Latin;ECUADOR;Ecuador
ALFRFGUY;Fr Guyana;V;204;French Guiana Cancer Registry;registre-guyane@wanadoo.fr;+(0)594 59 43 57 30 9;+(0)594 59 43 79 13 4;;NULL;Cayenne;;Union Régionale des Professionnels de Santé - Médecins de Guyane (U.R.P.S.);Regional Union of Health Care Professionals (URPS);;Villa Domus Medica;;;America Latin;;
ALFRGGUA;Guadeloupe;V;205;General Cancer Registry of Guadeloupe;jacqueline.deloumeaux@chu-guadeloupe.fr;(590)590891606 +590 590 891 609;(590)590891595;;Per 2016 IACR constitution: Pop-based registries = Voting members;Pointe-à-Pitre;;CHU de la Guadeloupe;Hôpital Ricou;B.P. 465;NULL;Route de Chauvel;97159;America Latin;FRANCE_GUADELOUPE;Guadeloupe
ALFRMMAR;Martinique;V;206;Martinique Cancer Registry;jonathan.macni@chu-martinique.fr;(596) 5 96 60 90 62;(596) 5 96 79 94 53;www.amrec.mq/;NULL;Fort-de-France;;University Hospital of Martinique - Oncology unit - UF 1441;;;Résidence les Jardins de la Mouina;127 route de Redoute;97200;America Latin;FRANCE_MARTINIQUE;Martinique
ALGUA10;Guatemala;V;208;National Cancer Registry of Guatemala;registrocancer_guate@yahoo.com;;;;;;;;;;;;;America Latin;;
ALGUY10;Guyana;V;209;Guyana Cancer Registry;;+592 22 38 32 0    +592 22 53 86 1;;;NULL;Georgetown;Chronic Diseases;Ministry of Public Health - Guyana;;;294 Ornoque Street;Queenstown;;America Latin;GUYANA;Guyana
ALHON10;Honduras;V;210;National Cancer Registry of Honduras;asistente_direccion2015@hotmail.com;;;;;;;;;;;;;America Latin;;
ALHON7S;San Felipe;V;211;Cancer Registry of the San Felipe Hospital;progcancerhn@yahoo.com;+504 22 38 36 62 / +504 94 78 60 92;+504 22 38 36 62;NULL;REMOVE pncchond@yahoo.com invlaid address;San Felipe;(Division de Epidemiologia);Hospital San Felipe;(Direccion General de Salud);NULL;(Tegucigalpa D.C.);NULL;NULL;America Latin;HONDURAS;Honduras
ALHON80;Honduras League;V;212;Honduras Cancer League;lgcancer@sulanet.net;(504) 550 6501 / 553 4650 / 550 0999;(504) 550 7622;www.ligacontracancerhonduras.org/lcc-site/;REMOVE lgcancer@sigmanet.hn -invalid address;San Pedro Sula;NULL;NULL;NULL;NULL;10-11 Ave., 8 calle;No. 51, Bo. Suyapa;NULL;America Latin;HONDURAS;Honduras
ALJAMKIN;Kingston;V;213;Jamaica Cancer Registry (Kingston and St. Andrew);tracey.gibson@uwimona.edu.jm;;;;NULL;Kingston;Department of Pathology;The University of the West Indies;;;;;Kingston 7;America Latin;JAMAICA;Jamaica
ALMEX10;Mexico;V;214;Mexican Cancer Registry;dpalami@gmail.com;;;;;;;;;;;;;America Latin;;
ALMEX7M;CMABC;V;217;CMABC CR;NULL;55 52 30 80 00;55 52 72.93.11;http://www.abchospital.com;Private Hospital;Mexico City;NULL;NULL;NULL;NULL;Sur 136#116;Las Americas;1120;America Latin;MEXICO;Mexico
ALMEXBAJ;Baja California;V;1475;BajaREG;patty.2127@hotmail.com;52-1665-1041373;;;IACR Membership confirmed 2017;Tijuana;;;;22010;Ave. Centenario 18051;Col. Zona Urbana Rio Tijuana;22010;America Latin;MEXICO;Mexico
ALMEXBCS;Baja California Sur;V;1478;Cancer Registry of Baja California Sur Mexico;adolfodpbarron@gmail.com;5 216 121 403 816;NULL;www.registrodecancerBCS.org;IACR membership approved 2018 02. Contact is Elena Moreno- elena@elenamoreno.com . Website curr under construction;La Paz;NULL;NULL;NULL;NULL;Calle Morelos 125 Col. Centro;NULL;23000;America Latin;MEXICO;Mexico
ALMEXJAL;Jalisco;V;218;Jalisco Cancer Registry;regcancerjal@hotmail.com;5,23E+11;;;Director is Alejandro Sanches (2019);Guadalajara;Departamento de Estadistica;Secretaria de Salut de Jalisco;;CP 44100;Calle Dr. Baeza Alzaga No. 107, Zona Centro;Guadalajara,;44100;America Latin;MEXICO;Mexico
ALMEXMER;Mérida;V;957;Cancer Registry of Merida;NULL;;;;NULL;Mérida;Unidad de Investigación Medica Yucatán-UMAE-IMSS;;;;Calle 34 #439 x 41 Colonia Industrial; (Ex-terrenos del Fénix, Hospital T1);C.P. 97150.;America Latin;MEXICO;Mexico
ALMEXOAX;Oaxaca;V;219;Cancer Registry of Oaxaca;NULL;NULL;NULL;NULL;NULL;Oaxaca;Departamento Anatomia Patologica;"Hospital General ""Dr Aurelio Valdivieso""";NULL;NULL;Calzada Porfirio Diaz 400;NULL;78050;America Latin;MEXICO;Mexico
ALNIC10;Nicaragua;V;220;Nicaragua National Cancer Registry-CNR;mendezguillenangelesteban@yahoo.fr;(505) 2653404;NULL;NULL;NULL;Managua;Instituto Nacional de Radioterapia y Oncologia;NULL;NULL;NULL;Costado Oeste C.C Nejapa 300 M al Sur;cerca del asentamiento Tierra Prometida;NULL;America Latin;NICARAGUA;Nicaragua
ALPAN10;Panama;V;222;Panama National Cancer Registry;mrodriguez@minsa.gob.pa;(507) 512 9233;(507) 512 9237;www.minsa.gob.pa/contenido/registro-nacional-del-cancer;REGISTRO NACIONAL DEL CANCER DE PANAMA has been reactivated under MOH Dra Reina Roa and Dr Oscar Gonzalez;Panama City;Departamento de Registros y Estadísticas de Salud;Dirección de Planificación;Ministerio de Salud de Panama;APARTADO POSTAL 0816;Avenida Gorgas, Edificio 261-Tercer Piso;;6812;America Latin;PANAMA;Panama
ALPAR10;Paraguay;V;223;Paraguay National Cancer Registry;hectordamipy@hotmail.com;(595) 971245121;;;NULL;Asunción;NULL;Facultad de Ciencias Medicas UNA, Paraguay;;;Mariscal lopez y Mision de la amistad San Lorenzo;NULL;;America Latin;PARAGUAY;Paraguay
ALPERARE;Arequipa;V;225;Population Based Cancer Registry of Arequipa, Peru;registrodecancer_arequipa@outlook.com;+51 54 200092;+51 54 200092;;registrodecancer_arequipa@outlook.com 2017 - Luis Medina Fernandez;Arequipa;Cancer Control Department;Departamento de Oncología y Radioterapia - Hospital Goyeneche;Centro Especializado de Enfermedades Neoplásicas;;Av. Parra 211 Arequipa, Perú;Av. Goyeneche s/n Arequipa, Perú;5154;America Latin;PERU;Peru
ALPERCAJ;Cajamarca;V;226;Cajamarca Population-based Cancer Registry;registro_cancer@yahoo.com;(51) 076 9608076;(51) 076 822414;;NULL;Cajamarca;;;;;Jr Bolivar 294;;;America Latin;PERU;Peru
ALPERLIM;Lima;V;227;Metropolitan Lima Cancer Registry;lima_canreg@inen.sld.pe;;;;;;;;;;;;;America Latin;;
ALPERTRU;Trujillo;V;228;Trujillo Cancer Registry;NULL;(51) 44 244377;NULL;NULL;CR has been taken over by MoH;Trujillo;NULL;NULL;NULL;NULL;Calle Guillermo Charún 279;Urb. San Andrés;NULL;America Latin;PERU;Peru
ALPUE10;Porto Rico;V;229;Puerto Rico Central Cancer Registry;peticiones@rcpr.org;(1) 787 772 8300, ext 1100 and 1110;(1) 787 522 3283;www.rcpr.org;Ms. Yadira Roman, CTR, Program Director to yroman@rcpr.org;San Juan;PMB 315;Comprehensive Cancer Center - UPR;;P.O. Box 70344;;;00936-8344;America Latin;PUERTO_RICO;Puerto Rico
ALSUR10;Surinam;V;234;Pathology-based Cancer Registry of Surinam;NULL;c/o PAHO (597) 471676;c/o PAHO (597) 471568;NULL;NULL;Paramaribo;Pathology Department;Academic Hospital;NULL;NULL;3 Flustraat;NULL;NULL;America Latin;SURINAM;Suriname
ALTAT10;Trinidad Tobago;V;235;National Cancer Registry of Trinidad & Tobago;secretary.canreg@ncrha.co.tt;;;;;;;;;;;;;America Latin;;
ALURU10;Uruguay;V;236;National Cancer Registry of Uruguay;rnc@urucan.org.uy;;598-2402-0810;http://www.comisioncancer.org.uy/Institucional/Registro-Nacional-de-Cancer-uc201;pve@urucan.org.uy (previous quick contact email address);Montevideo;;Comisión Honoraria de Lucha contra el Cáncer;;;Brandzen 1961/1201;;11200;America Latin;URUGUAY;Uruguay
ALVEN10;Venezuela;V;237;Venezuela Cancer Registry;psoncologia@gmail.com;(58) 416 625 3882;(58) 416 625 3882;NULL;NULL;Caracas;NULL;NULL;Oficina de Cooperación Tecnica y Relaciones Internacional – MPP Salud;;;;;America Latin;;
ANBER10;Bermuda;V;134;Bermuda National Tumour Registry;katura.horton-perinchief@bhb.bm;+1441 23 96 41 4;;http://bermudahospitals.bm/services-listing/outpatient-services/oncology/;Transferred from America Latin (ALBER10);;;;;;;;;America North;;
ANCAN10;Canada;V;238;Canadian Cancer Registry;;(1) 514-283-8300;(1) 613 951 0792;;Julie McAuley is not part of HS division. New contact: Jeff Latimer(Director);Ottawa;Centre for Population Health Data;NULL;;;RH Coats 12th floor;100 Tunney's Pasture Driveway;K1A 0T6;America North;CANADA;Canada
ANCAN7T;PM Hospital Toronto;V;969;Princess Margaret Cancer Centre Cancer Registry;Darlene.Dale@uhn.ca;4 169 462 841;;;Darlene.Dale@uhn.ca invalid;Toronto;PM Cancer Registry;University Health Network;;;700 University Ave.,;2 North;M5G 1A6;America North;CANADA;Canada
ANCANALB;Alberta;V;241;Alberta Cancer Registry;Cindy.Nikiforuk@ahs.ca;(1) 780 432 8662;(1) 780 432 8659;www.albertahealthservices.ca;NULL;Edmonton;Alberta Cancer Registry;Alberta Health Services - CancerControl Alberta;Cross Cancer Institute;P.O. Box T6G 1Z2;11560 University Avenue;NULL;AB T6G 1Z2;America North;CANADA;Canada
ANCANBCO;B Columbia;V;242;British Columbia Cancer Registry;registrydirector@bccrc.ca;(1) 604 675 8070;(1) 604 675 8180;www.bccancer.bc.ca;wrobb@bccancer.bc.ca: Wendy Robb is a staff - generic email changed to Director;Vancouver;British Columbia Cancer Research Centre;Cancer Control Research Program;;;2nd floor, Room 116;675 West 10th Avenue;BC V5Z 1L3;America North;CANADA;Canada
ANCANMAN;Manitoba;V;243;Manitoba Cancer Registry;dturner9@cancercare.mb.ca;(1) 204 787 2174;(1) 204 786 0628;https://www.cancercare.mb.ca/Research/epidemiology-cancer-registry;NULL;Winnipeg;Department of Epidemiology and Cancer Registry, CancerCare Manitoba;;;;Room 2114, 675 McDermot Ave.;;MB R3E OV9;America North;CANADA;Canada
ANCANNBR;N Brunswick;V;244;New Brunswick Provincial Cancer Registry;suzanne.leonfellner@gnb.ca;1-506-453-5521;1-506-453-5522;;NULL;Fredericton;NB Cancer Network;Department of health;;P.O. Box 5100;520 king street;;E3B 5G8;America North;CANADA;Canada
ANCANNFD;Newfoundland;V;245;Newfoundland and Labrador Cancer Registry;NULL;(1) 709 752 6716;(1) 709 752 6711;;NULL;St. John's;Cancer Care Program - Eastern Health ;Dr H. Bliss Murphy Cancer Centre;;;300 Prince Philip Drive;;A1B 3V6;America North;CANADA;Canada
ANCANNSC;N Scotia;V;246;Nova Scotia Cancer Registry;Gordon.Walsh@nshealth.ca;(1) 902 473 7258;(1) 902 473 4425;http://www.nshealth.ca/cancer-care;Email 2018: Maureen.MacIntyre@nshealth.ca>;;;;;;;;;America North;CANADA;Canada
ANCANNWT;NW Territories;V;248;Northwest Territories Cancer Registry;kami_kandola@gov.nt.ca;(1) 867 767-9066;(1) 867 873 0442;;PROBLEM WITH EMAIL MAY BE INVALID Lorne_Clearsky@gov.nt.ca;Yellowknife;Department of Health and Social Services;Government of the Northwest Territories;5022-49th Street;P.O. Box 1320;5th Floor New Government Building;;XIA 2L9;America North;CANADA;Canada
ANCANONT;Ontario;V;249;Ontario Cancer Registry;ocrquestions@cancercare.on.ca;(1) 416 971 9800;(1) 416 971 6888;https://www.cancercareontario.ca/en/cancer-care-ontario/programs/data-research/ontario-cancer-registry;NULL;Toronto;Surveillence and Cancer Registry;Cancer Care Ontario;;;620 University Avenue;;M5G 2L7;America North;CANADA;Canada
ANCANPEI;PEI;V;250;Prince Edward Island Cancer Registry;;(1) 902 894 2167;(1) 902 894 2187;;NULL;Charlottetown;Queen Elizabeth Hospital;;;P.O. Box 6000;;;PEI, C1A 8T5;America North;CANADA;Canada
ANCANQUE;Quebec;V;251;Quebec Cancer Registry;christine.bertrand@msss.gouv.qc.ca;(1) 418 266 6940;;;NULL;Quebec City;Direction Quebecois de cancérologie;Ministère de la Santé et des Services Sociaux du Québec;;;1075 Chemin Ste-Foy, 7e étage;;G1S 2M1;America North;CANADA;Canada
ANCANSAN;Saskatchewan;V;252;Saskatchewan Cancer Registry;heather.stuart-panko@saskcancer.ca;(1) 639 625-2045;(1) 639 625-2191;www.saskcancer.ca;NULL;Regina;NULL;Saskatchewan Cancer Agency;;;200 4545 Parliament Avenue;;S4W 0G3;America North;CANADA;Canada
ANUSA11;NPCR;V;254;National Program of Cancer Registries - United States (NPCR);dfo8@cdc.gov;(1) 770 488 3245;(1) 770 488 4760;www.cdc.gov/cancer/npcr/;Moffit Ca Ctr Bone Marrow registry: Christine A Gibson Christine.gibson@moffitt.org;;;;;;;;;America North;CANADA;Canada
ANUSA12;SEER;V;255;Surveillance Research Program (SEER);serban.negoita@nih.gov;(1)240 276 5409;(1)240 276 7921;http://seer.cancer.gov/;Includes: ANUSAALS, ANUSACAG, ANUSACAJ, ANUSACAL, ANUSACON, ANUSAGEA, ANUSAGEG, ANUSAGER, ANUSAIOW, ANUSAKEN, ANUSALAA, ANUSAMID, ANUSANEJ, ANUSANEM, ANUSASAF, ANUSAUTA, ANUSAWEW, OCUSAHAW;Bethesda;National Cancer Institute;;;;9609 Medical Center Drive;Room 4E338;MD  20892-9764;America North;USA;USA
ANUSA14;NCRA;V;257;National Cancer Registrars Association;info@ncra-usa.org;(1) 703 299 6640;(1) 703 299 6620;NULL;NULL;Alexandria;NULL;NULL;NULL;NULL;1330 Braddock Place, Suite 520;NULL;22314;America North;USA;USA
ANUSA17;NAACCR;V;256;North American Association of Central Cancer Registries (NAACCR);bkohler@naaccr.org;(1) 217 698 0800;(1) 217 698 0188;www.naaccr.org;NULL;Springfield;;;Betsy Kohler;62704;2050 W. Iles Ave;;;America North;USA;USA
ANUSA82;USA Cancer Society;V;267;American Cancer Society;omar.shafey@cancer.org;(1) 404 327 6554;(1) 404 329 7530;https://www.cancer.org/;NULL;Atlanta;Surveillance Research Department;American Cancer Society;NULL;NULL;1599 Clifton Rd, N.E.;NULL;30329-4251;America North;USA;USA
ANUSAALB;Alabama;V;274;Alabama Statewide Cancer Registry;justin.george@adph.state.al.us;(1) 334-206-3962;(1) 334-206-3757;www.adph.org/ASCR;NULL;Montgomery;NULL;Alabama Department of Public Health;;;The RSA Tower;201 Monroe Street, Suite 1490;36104;America North;USA;USA
ANUSAALS;Alaska;V;275;Alaska Cancer Registry;cancerregistry@alaska.gov;907-269-6936;907-269-5446;http://dhss.alaska.gov/dph/Chronic/Pages/Cancer/registry.aspx;Contact: Dr. David O'Brien;Anchorage;DHSS-DPH-HAVRS-Cancer Alaska Department of Health and Social Services;;;;3601 C Street, Suite 250;;99503;America North;USA;USA
ANUSAARI;Arizona;V;276;Arizona Cancer Registry;georgia.yee@azdhs.gov;(1) 602 542 7320;(1) 602 542 7362;https://www.azdhs.gov/preparedness/public-health-statistics/cancer-registry/index.php;NULL;Phoenix;Arizona Department of Health Services;;;;150 N. 18th Avenue, Suite 550;;85007-3248;America North;USA;USA
ANUSAARK;Arkansas;V;277;Arkansas Central Cancer Registry;Abby.Holt@arkansas.gov;(1) 501 661 2463;(1) 501 661 2891;http://www.healthy.arkansas.gov/programs-services/topics/arkansas-cancer-registry;NULL;Little Rock;Health Statistics Branch;Arkansas Department of Health;;;4815 West Markham;Slot #7;72205;America North;USA;USA
ANUSACAA;California;V;278;California Cancer Registry;NULL;(1) 916 552 9880;(1) 916 779 0264;www.ccrcal.org;Covers all ANUSACA* /// janet.bates@cdph.ca.gov - email is not valid (25/10/2018).;Sacramento;California Department of Public Health, Cancer Surveillance & Research Branch;MS 7205;NULL;P.O. Box 997377;NULL;NULL;95899-7377;America North;USA;USA
ANUSACAB;Greater Bay;V;279;Greater Bay Area Cancer Registry;sgomez@psg.ucsf.edu;(1) 510 608 5000;(1) 510 608 5095;https://cancerregistry.ucsf.edu/greater-bay-area-cancer-registry;Covered by ANUSACAC;;;;;;;;;America North;USA;USA
ANUSACAL;Los Angeles;V;284;Los Angeles Cancer Surveillance Program;ddeapen@usc.edu;(1) 323 442 1574;(1) 323 442 2301;https://keck.usc.edu/cancer-surveillance-program/;Covered by ANUSACAA;Los Angeles;;Keck School of Medicine;University of Southern California;;2001 N. Soto Street;Suite 305, MC 9238;90089-9238;America North;USA;USA
ANUSACAO;Orange County;V;285;Cancer Surveillance Program of Orange County;hantoncu@uci.edu;(1) 714 824 7401;(1) 714 824 4773;www.epi.uci.edu/index.cfm/go/cs.cs;Covered by ANUSACAC;Irvine;Department of Epidemiology;University of California, Irvine;NULL;NULL;Irwin Hall  224;NULL;92717-7550;America North;USA;USA
ANUSACAU;UCLA;V;287;UCLA Tumor Registry;zfzhang@ucla.edu;(1) 310 825 8418;(1) 310 206 6039;www.ph.ucla.edu/epi/faculty/zhang/tumorreg/tumorreg.htm;The UCLA Tumor Registry has been in existence for as long as the UCLA Medical Center, since 1955.;Los Angeles;University of California, Los Angeles;NULL;NULL;Box 951772;71-254 CHS;NULL;90095-1772;America North;USA;USA
ANUSACLN;N Carolina;V;288;North Carolina Central Cancer Registry;chandrika.rao@dhhs.nc.gov;(1) 919 792-5946;(1) 919 715-7294;http://www.schs.state.nc.us/units/ccr/;NULL;Raleigh;State Center for Health Statistics;Central Cancer Registry;;;1908 Mail Service Center;1908 Mail Service Center;27699-1908;America North;USA;USA
ANUSACLS;S Carolina;V;289;South Carolina Central Cancer Registry;cancer.registry@dhec.sc.gov;(803) 898-3001;(803) 898-0993;https://scdhec.gov/health/diseases-conditions/cancer/sc-cancer-statistics-and-reports/sc-central-cancer-registry;NULL;Columbia;NULL;Department of Health and Environmental Control;NULL;NULL;2600 Bull St.;NULL;29201;America North;USA;USA
ANUSACOL;Colorado;V;290;Colorado Central Cancer Registry;cdphe.pscaregistry@state.co.us;(1) 303 692 2540;(1) 303 691 7721;https://www.colorado.gov/pacific/cdphe/cancerregistry;NULL;Denver;Colorado Department of Public Health and Environment;Center for Health and Environmental Data;NULL;NULL;4300 Cherry Creek Drive South;CHED-CR-A5;80246-1530;America North;USA;USA
ANUSACON;Connecticut;V;291;Connecticut Tumor Registry;anna.legere@ct.gov;(+1) 860 509 7163;(+1) 860 509 7161;http://www.ct.gov/dph/tumorregistry;NULL;Hartford;;State of Connecticut Department of Public Health;;P.O. Box 340308;410 Capitol Avenue, MS# 13TMR;;06134-0308;America North;USA;USA
ANUSADAN;N Dakota;V;292;North Dakota Statewide Cancer Registry;yun.zheng@med.und.edu;(1) 701-777-0791;(1) 701-777-3108;https://ndcancer.org/;NULL;Grand Forks;Department of Pathology;School of Medicine & Health Sciences;University of North Dakota;;1301 N. Columbia Rd, stop 9037, RM W428;;ND 58203-9037;America North;USA;USA
ANUSADAS;S Dakota;V;293;South Dakota Cancer Registry;kay.dosch@state.sd.us;;605-773-5201;https://getscreened.sd.gov/registry/;kay.dosch@state.sd.us (CI5XI contact);Pierre;Health and Medical Services;South Dakota Department of Health;;;615 E 4th St;;57501;America North;USA;USA
ANUSADEL;Delaware;V;294;Delaware Cancer Registry;Heather.Brown@state.de.us;(1) 302 744-1061;(1) 302 739-2545;http://dhss.delaware.gov/dph/dcr/home.html;NULL;Dover;Comprehensive Cancer Control Program;Department of Chronic Disease;Delaware Division of Public Health;NULL;540 S. DuPont Hwy;Thomas Collins Bldg, Suite 11;19901;America North;USA;USA
ANUSADIC;DC;V;295;District of Columbia Cancer Registry;alfreda.woods@dc.gov;(1) 202 442-9216;(1) 202 442-9388;https://dchealth.dc.gov/service/cancer-registry-0;7/2017: Alfreda Woods, BS, CHES, CTR;;;;;;;;;America North;USA;USA
ANUSAFLO;Florida;V;296;Florida Cancer Data System;dlee@med.miami.edu;(1) 305 243 4600;(1) 305 243 4871;https://fcds.med.miami.edu/inc/welcome.shtml;NULL;Miami;Sylvester Comprehensive Cancer Center;University of Miami School of Medicine;;P.O. Box 016960 (D4-11);NULL;;33101;America North;USA;USA
ANUSAGAA;Georgia;V;297;Georgia Comprehensive Cancer Registry;;(1) 404-657-2617;(1) 404 463 0780;https://dph.georgia.gov/georgia-comprehensive-cancer-registry;Covers ANUSAGEA, GEG and GER. The Georgia Comprehensive Cancer Registry (GCCR) is a statewide population-based cancer registry collecting all cancer cases diagnosed among Georgia residents since January 1, 1995.;Atlanta;Georgia Department of Public Health;Health Protection;Epidemiology Section;;2 Peachtree Street, NW, 14th floor Suite 14-440;;30303-3142;America North;USA;USA
ANUSAIDA;Idaho;V;301;Cancer Data Registry of Idaho (CDRI);cjohnson@teamiha.org;(1) 208 489 1380;(1) 208 344 0180;https://www.idcancer.org/;NULL;Boise;;;;P.O. Box 1278;615 N. 7th St;;83701-1278;America North;USA;USA
ANUSAILL;Illinois;V;302;Illinois State Cancer Registry;lori.koch@Illinois.gov;217-785-7132;217-524-1770;http://dph.illinois.gov/data-statistics/epidemiology/cancer-registry;NULL;Springfield;Divsion of Epidemiologic Studies;Illinois Department of Public Health;;;535 W. Jefferson St., 3rd floor;;62761;America North;USA;USA
ANUSAIND;Indiana;V;303;Indiana State Cancer Registry;;(1) 317 233 7424;(1) 317 233 7722;https://www.in.gov/isdh/24968.htm;bstrong@isdh.in.gov  Invalid email address.;Indianapolis;Chronic Disease, Primary Care and Rural Health;Indiana State Department of Health;;;2 N. Meridian St., Section 6-B;;46204-3006;America North;USA;USA
ANUSAIOW;Iowa;V;304;Iowa Cancer Registry;charles-lynch@uiowa.edu;(1) 319 384 1558;(1) 319 384 4155;http://cph.uiowa.edu/shri/;NULL;Iowa City;Department of Epidemiology;University of Iowa;;;S447 CPHB, 145 N. Riverside Dr.;NULL;52242;America North;USA;USA
ANUSAKAN;Kansas;V;305;Kansas Cancer Registry;NULL;(1) 913 588 2744;(1) 913 588 2780;www.kumc.edu/kcr/;NULL;Kansas City;NULL;University of Kansas Medical Center;NULL;NULL;4004 Robinson MS 1008;NULL;661 600 000;America North;USA;USA
ANUSAKEN;Kentucky;V;306;Kentucky Cancer Registry;ericd@kcr.uky.edu;(1) 859 218-3179;(1) 859 257-4177;www.kcr.uky.edu;NULL;Lexington;Markey Cancer Center Cancer Control Program;;;;;;;America North;USA;USA
ANUSALAA;Louisiana;V;307;Louisiana Tumor Registry;xwu@lsuhsc.edu;(1) 504 568 5757;(1) 504 568 5800;https://sph.lsuhsc.edu/louisiana-tumor-registry/;Covers ANUSALS, ANUSALT. NPCR since 1994, SEER since 2001,;New Orleans;Epidemiology Program, School of Public Health;Louisiana State University Health Sciences Center;;;2020 Gravier Street;3rd Floor;70112-1272;America North;USA;USA
ANUSALAN;N Louisiana;V;308;North Louisiana Regional Tumor Registry;byargeon@ulm.edu;(1) 318 342 1840;(1) 318 342 1824;NULL;Covered by ANUSALAA;Monroe;NULL;University of Louisiana at Monroe;NULL;NULL;700 University Ave.;CNSB Room 226;71209;America North;USA;USA
ANUSAMAI;Maine;V;311;Maine Cancer Registry;NULL;(1) 207 287 5196;(1) 207 287-5470;http://www.maine.gov/dhhs/mecdc/public-health-systems/data-research/vital-records/mcr/;NULL;Augusta;Department of Health and Human Services;;;State House Station 11;Data, Research and Vital Statistics;220 Capitol Street;4333;America North;USA;USA
ANUSAMAR;Maryland;V;312;Maryland Cancer Registry;kimberly.stern@maryland.gov;(1) 410 767 5512;(1) 410 333 5218;https://phpa.health.maryland.gov/cancer/Pages/mcr_home.aspx;NULL;Baltimore;Department of Health ;Prevention and Health Promotion Administration;Center for Cancer Prevention and Control;;201 West Preston Street, room 400;;21201;America North;USA;USA
ANUSAMAS;Massachusetts;V;313;Massachusetts Cancer Registry;susan.gershman@state.ma.us;(1) 617 624 5646;(1) 617 624 5695;https://www.mass.gov/massachusetts-cancer-registry;Covers ANUSMG. The Massachusetts Cancer Registry (MCR) collects information on all newly diagnosed cases of cancer in the state. On web go to Home > Government > Departments and Divisions > Department of Public Health > Programs and Services K - S >;Boston;Office of Data Management and Outcome Assessment (ODMOA);Massachusetts Department of Public Health (DPH);;;250 Washington Street, 6th floor;;02108-4619;America North;USA;USA
ANUSAMIC;Michigan;V;314;Michigan Cancer Surveillance Program;NULL;(1) 517 335 8677;(1) 517 335 9513;https://www.michigan.gov/mdhhs/0,5885,7-339-71551_2945_5221-16586--,00.html;Covers ANUSAMID;Lansing;Michigan Dept of Community Health;Division for Vital Records and Health Statistics;Michigan Cancer Surveillance Program;P.O. Box 30691;201 Townsend Street;NULL;48913;America North;USA;USA
ANUSAMID;Detroit;V;315;Metropolitan Detroit Cancer Surveillance System (MDCSS);schwarta@med.wayne.edu;(1) 313 578 4201;(1) 313 578 4306;http://research1.karmanos.org/epid/;Covered by ANUSAMIC;Detroit;Epidemiology Section;Karmanos Cancer Institute;Wayne State University School of Medicine, Dept. of Oncology;NULL;4100 John R Street MM04EP;NULL;48201;America North;USA;USA
ANUSAMIN;Minnesota;V;316;Minnesota Cancer Surveillance System (MCSS);health.mcrs@state.mn.us;(1) 651 201 5900;(1) 651 201 5926;http://www.health.state.mn.us/divs/hpcd/cdee/mcss/;REMOVE sally.bushhouse@health.state.mn.us;St. Paul;Health Promotion and Chronic Disease;Minnesota Department of Health;;PO Box 64332;85 E 7th Place;;55164-0882;America North;USA;USA
ANUSAMIP;Mississippi;V;317;Mississippi Cancer Registry;dbrogers@umc.edu;(1) 601 815 5479;(1) 601 815 5483;http://mcr.umc.edu/index.html;NULL;Jackson;NULL;Cancer Research & Registry;University of Mississippi Medical Center;NULL;Room MK-1001;350 W. Woodrow Wilson Drive;39213;America North;USA;USA
ANUSAMIR;Missouri;V;318;Missouri Cancer Registry and Research Center;jacksonthompsonj@health.missouri.edu;(1) 573 882 7775;(1) 573 884 9655;http://mcr.umh.edu;NULL;Columbia;Department of Health Management & Informatics;School of Medicine;University of Missouri;NULL;401 Clark Hall;NULL;65211;America North;USA;USA
ANUSAMTA;Montana;V;319;Montana Cancer Control Programs;dlemons@mt.gov;(1) 406 444 6786;(1) 406 444 6557;www.cancer.mt.gov;NULL;Helena;Cancer Surveillance and Epidemiology Program;Department of Public Health and Human Services;NULL;P.O. Box 202952;1400 Broadway, Room C-317;NULL;59620-2952;America North;USA;USA
ANUSANBA;Nebraska;V;320;Nebraska Cancer Registry;DHHS.PublicHealthStatistics@nebraska.gov;(1) 402 471 2241;(1) 402 471 9728;;Lei.Zhang@nebraska.gov - email not valid Nov 2015;Lincoln;;Nebraska Department of Health and Human Services;;P.O. Box 95026;302 Centennial Nall South;;68509-5026;America North;USA;USA
ANUSANDA;Nevada;V;321;Nevada Central Cancer Registry;cpool@health.nv.gov;17 756 843 221;17 756 845 999;http://dpbh.nv.gov/Programs/NCCR/Nevada_Central_Cancer_Registry_(NCCR)_-Home/;NULL;Carson City;Division of Public and Behavioral Health, Office of Public Health Informatics and Epidemiology;Nevada Department of Health and Human Services;;;4126 Technology Way. Suite 200;;NV 8706;America North;USA;USA
ANUSANEH;New Hampshire;V;322;New Hampshire State Cancer Registry;Judith.R.Rees@dartmouth.edu;(1) 603 653 6630;(1) 603 653 6699;https://geiselmed.dartmouth.edu/nhscr/;NULL;Hanover;c/o Dartmouth College;NULL;NULL;P.O. Box 186;NULL;NULL;3755;America North;USA;USA
ANUSANEJ;New Jersey;V;323;New Jersey State Cancer Registry;lisa.paddock@doh.nj.gov;;;;;;;;;;;;;America North;USA;USA
ANUSANEM;New Mexico;V;324;New Mexico Tumor Registry;cwiggins@salud.unm.edu;;;;;;;;;;;;;America North;USA;USA
ANUSANEY;New York State;V;325;New York State Cancer Registry;NYSCR@health.state.ny.us;(1) 518 474 2255;(1) 518 473 6789;http://www.health.ny.gov/statistics/cancer/registry/;NULL;Albany;Bureau of Cancer Epidemiology;N.Y. State Department of Health;NULL;NULL;Riverview Center - Suite 361;150 Broadway;12204-2719;America North;USA;USA
ANUSAOHI;Ohio;V;327;Ohio Cancer Incidence Surveillance System;OCISS@odh.ohio.gov;NULL;NULL;https://odh.ohio.gov/wps/portal/gov/odh/know-our-programs/ohio-cancer-incidence-surveillance-system/welcome-to;OCISS@odh.ohio.gov;Columbus;OCISS;Ohio Department of Health;NULL;NULL;246 N. High Street;NULL;NULL;America North;USA;USA
ANUSAOKL;Oklahoma;V;328;Oklahoma Central Cancer Registry;NULL;(1) 405 271 6225;(1) 405 271 9061;https://www.ok.gov/health/Wellness/Chronic_Disease_Service/Cancer/Oklahoma_Central_Cancer_Registry/;NULL;Oklahoma City;NULL;Oklahoma State Department of Health;Center for Health Statistics;NULL;1000 NE 10th;NULL;73117;America North;USA;USA
ANUSAORE;Oregon;V;329;Oregon State Cancer Registry;oscar.ohd@state.or.us;;;;;;;;;;;;;America North;USA;USA
ANUSAPEN;Pennsylvania;V;330;Pennsylvania Cancer Registry;;(1) 717 783 2548;(1) 866 531 8238;https://www.health.pa.gov/topics/Reporting-Registries/Cancer-Registry/Pages/Cancer%20Registry.aspx;NULL;Harrisburg;;Pennsylvania Department of Health;;;6th Floor;555 Walnut Street;17101-1914;America North;USA;USA
ANUSARIS;Rhode Island;V;331;Rhode Island Cancer Registry;Junhie.Oh@health.ri.gov;(1) 401 222 4577;NULL;http://www.health.ri.gov/data/cancer/;Since March 2017, I have succeed John who retired from the State Cancer Administrator.  Junhie Oh, Rhode Island Cancer Registry, Administrator/Epidemiologist, Senior Public Health Epidemiologist;Providence;Rhode Island Department of Health;NULL;NULL;NULL;3 Capitol Hill, Room 201;NULL;02908-5097;America North;USA;USA
ANUSATNN;Tennessee;V;332;Tennessee Cancer Registry;TNCancer.Registry@tn.gov;800-547-3558;;https://www.tn.gov/health/health-program-areas/tcr.html;NULL;Nashville;Department of Health;State of Tennessee;;;Andrew Johnson Tower, 2nd Floor;710 James Robertson Parkway;37243;America North;USA;USA
ANUSATXS;Texas;V;333;Texas Cancer Registry;CancerData@dshs.texas.gov;512-776-3080;512-776-7681;http://www.dshs.texas.gov/tcr/;NULL;Austin;Cancer Epidemiology and Surveillance Branch MC 1928;Texas Department of State Health Services;;P.O. Box 149347;;;78714-9347;America North;USA;USA
ANUSAUTA;Utah;V;334;Utah Cancer Registry;Utah_SEER_PI@hsc.utah.edu;(1) 801 581 8407;(1) 801 581 4560;http://uofuhealth.utah.edu/utah-cancer-registry;Utah Cancer Registry moved as of 6/21/2018 (addressed updated)-Nan Stroup is the primary contact - Rosemary Dibble remains as the secondary contact;Salt Lake City;;University of Utah;;;250 East 200 South, Suite 1375;;84111;America North;USA;USA
ANUSAVER;Vermont;V;335;Vermont Cancer Registry;Alison.Johnson@vermont.gov;(1) 802 863 7644;(1) 802 652 4157;http://www.healthvermont.gov/health-statistics-vital-records/registries/cancer;NULL;Burlington;Vermont Department of Health;NULL;NULL;NULL;108 Cherry Street;NULL;5402;America North;USA;USA
ANUSAVIR;Virginia;V;336;Virginia Cancer Registry;Nikkia.Ray@vdh.virginia.gov;804-864-7249;(1) 804 864 7870;hhttp://www.vdh.virginia.gov/virginia-cancer-registry/;NULL;Richmond;Virginia Cancer Registry;Virginia Department of Health;;;109 Governor Street, 10th floor;;23219;America North;USA;USA
ANUSAVIW;W Virginia;V;337;West Virginia Cancer Registry;myra.n.fernatt@wv.gov;(304) 356-4953;(304) 558-4463;www.cancerregistry.wv.gov;NULL;Charleston;Department of Health and Human Resources;Bureau for Public Health;;;350 Capitol Street, Room 125;;25301-3715;America North;USA;USA
ANUSAWAS;Washington;V;338;Washington State Cancer Registry;Patti.MiglioreSantiago@doh.wa.gov;(1) 360 236 3685;(1) 360 586 2714;https://fortress.wa.gov/doh/wscr;Covers ANUSAWE Oct 2017: The name of the registry director is Patti Migliore Santiago.  David Harrelson is no longer our program manager for the Washington State Cancer Registry- Keitheri Cheteri, Mahesh  (DOH) <Mahesh.KeitheriCheteri@DOH.WA.GOV;Tumwater;Washington State Department of Health, Cancer Prevention and Control Unit;Washington State Department of Health;NULL;P.O. Box 47882;310 Israel RD SE;NULL;98504-7835;America North;USA;USA
ANUSAWEW;WW Seattle;V;340;Seattle-Puget Sound Registry;sschwart@fhcrc.org;(1) 206 667 4660;(1) 206 667 5948;https://seer.cancer.gov/registries/sps.html;Covered by ANUSAWA. 13 counties;;;;;;;;;America North;USA;USA
ANUSAWIS;Wisconsin;V;341;Wisconsin Cancer Reporting System;jeffrey.bond@dhs.wisconsin.gov;NULL;(1) 608 266 2431;http://www.dhs.wisconsin.gov/wcrs/index.htm;Jeff Bond transitioned into the data manager back in October and now assumes the lead role in managing the cancer registry’s data.;Madison;Department of Health Services;Wisconsin Division of Public Health;NULL;P.O. Box 2659;1 W Wilson St Room 118;NULL;53703;America North;USA;USA
ANUSAWYO;Wyoming;V;342;Wyoming Cancer Surveillance Program;;(1) 307 777 3477;(1) 307 777 3419;https://health.wyo.gov/publichealth/chronic-disease-and-maternal-child-health-epidemiology-unit/cancer-surveillance/;NULL;Cheyenne;;Wyoming Cancer Surveillance Program;;;6101 Yellowstone Rd., #510;Cheyenne;Wyoming;America North;USA;USA
ASAZE10;Azerbaijan;V;1242;Azerbaijan National Cancer Registry;internationalnoc@gmail.com;994 125 370 811;;www.mom.gov.az;NULL;Baku;National Oncology Center of Ministry of Health;;;;79B, H. Zardabi str.,;;AZ1011;Asia;AZERBAIJAN;Azerbaijan
ASBAH10;Bahrain;V;345;Bahrain Cancer Registry;NALi5@health.gov.bh;(973) 17286059;(973) 17286051;;NULL;Manama;Medical Review Office;Ministry of Health;;P.O. Box 12;;;;Asia;BAHRAIN;Bahrain
ASBRU10;Brunei;V;347;Brunei Darussalam Cancer Registry;sokking.ong@moh.gov.bn;;;;Update fr Dr Ong Sok King 2017 Sept;Bandar Seri Begawan;Public Health Epidemiology Division;Public Health Services;Ministry of Health Brunei Darussalam;;Commonwealth Drive;;BB 3910;Asia;BRUNEI;Brunei
ASCHI11;NCCR;V;349;Chinese Cancer Registry & Surveillance Committee;zhengrongshou@cicams.ac.cn;+86 10 6776 7652;+86 10 6771 8227;;/md;Beijing;National Office for Cancer Prevention and Control National Central Cancer Registry;Cancer Institute;Chinese Academy of Medical Sciences;;17 Pan-Jia-Yuan South Lance;Chaoyang District;100021;Asia;CHINA;China
ASCHIANS;Anshan;V;352;Anshan Cancer Registry;mbkzouqingchun@163.com;(86) 0412 5563148;(86) 0412 5546023;NULL;NULL;Anshan;NULL;NULL;NULL;NULL;The 58 Dongshan Avenue;Tiedong District;NULL;Asia;CHINA;China
ASCHIBAO;Baoding;V;1131;Baoding Cancer Registry;bdjkmbk@163.com;8 603 123 353 038;8 603 123 353 038;;Application for voting membership approved 2017;Baoding;Baoding Cancer Registry;Baoding Cancer Registry;;;No.750 Dongfeng Road Baoding County.Hebei Province;;71000;Asia;CHINA;China
ASCHIBEI;Beijing;V;353;Beijing Cancer Registry;careg@163.com;861 088 196 725;861 088 196 771;NULL;NULL;Beijing;Beijing Office for Cancer Prevention and Control;Beijing Cancer Hospital;Beijing Institute for Cancer Research;NULL;No.52 Fu-Cheng Road;Haidian District;1000142;Asia;CHINA;China
ASCHICAN;Cangwu;V;354;Tumor Registry of Cangwu;NULL;(86) 0774 268 2510;(86) 0774 268 2510;NULL;NULL;Wuzhou;NULL;NULL;NULL;NULL;FengLing Street, 21;LongXu Town;NULL;Asia;CHINA;China
ASCHICHO;Chongqing;V;356;Chongqing Municipal Center for Disease Control;NULL;(86) 23 6880 3852;(86) 23 6880 3303;NULL;NULL;Chongqing;NULL;Chongqing Municipal Center for Disease Control;NULL;NULL;No. 8 Road Chang Jiang 2;NULL;400042;Asia;CHINA;China
ASCHICHU;Chuzhou;V;357;Cancer Registry of Huaian District,Huaian City;suminglala@aliyun.com;(86) 0517 85988976;(86) 0517 85912070;;NULL;Huai’an;Office of Cancer Control and Prevention;Cancer Registry;;;84 Zhenhuailou Road (East),Huaian District, Huaian;;223200;Asia;CHINA;China
ASCHICIX;Cixian;V;358;Cixian County Cancer Registry;sghui2009@163.com;-2336139;NULL;NULL;NULL;Handan;Cixian County Cancer Institute;Cixian County Cancer Institute;NULL;NULL;No.15 Cizhou Road Cixian County.Hebei Province;NULL;56500;Asia;CHINA;China
ASCHIDAF;Dafeng;V;359;Dafeng Center for Disease Control and Prevention;dfcdc2011@163.com;(86) 0515 83285579;(86) 0515 83285577;;NULL;Nanjing;Department of Non-communicable Disease Control;Dafeng Center for Disease Control and Prevention;;;68 Xinfuxidajie,Dafeng District;;210009;Asia;CHINA;China
ASCHIDAL;Dalian;V;360;Dalian Cancer Registry;NULL;86-411-84335913;86-411-84335913;NULL;xiangxiang1996@yahoo.com.cn - email not valid;Dalian;NULL;NULL;NULL;NULL;Shahekou District;78 Taiyuan Street;NULL;Asia;CHINA;China
ASCHIFEI;Feicheng;V;361;Fei Cheng Cancer Registry;fczdl61@163.com;0086-0538-3210065;;;IACR Member 2016;Fei Cheng;;;;;;;;Asia;CHINA;China
ASCHIFUJ;Fujian;V;362;Fujian Provincial Office for Prevention & Treatment of Cancer (Changle);NULL;(86) 591 365 5043;(86) 591 392 8767;NULL;NULL;Fuzhou;Fujian Provincial Office for Prevention & Treatment of Cancer (Changle);Fujian Provincial Tumor Hospital;NULL;NULL;Fengban, Fuma Road;NULL;350014;Asia;CHINA;China
ASCHIGUA;Guangzhou;V;363;Guangzhou Cancer Registry;szk@gzcdc.org.cn;(86) 20 3605 5855;(86) 20 3605 5856;http://www.gzcdc.org.cn/Cancersearch/index.html;IACR Membership 2016;Guangzhou;Biostatistics and Cancer Registration Section;Guangzhou Center for Disease Control and Prevention;;;No.1, Qide Rd, Jiahe, Baiyun;;510440;Asia;CHINA;China
ASCHIHAE;Haimen;V;364;Haimen Cancer Registry;28989298@qq.com;(86) 513 822 58721;(86) 513 822 12032;;hzjw99@yahoo.com.cn - email not valid;Nantong;;;;;520, Ren Min Xi Road;;226100;Asia;CHINA;China
ASCHIHAG;Haining;V;365;Haining City Cancer Registry;hnzlyjs@126.com;;;;;;;;;;;;;Asia;;
ASCHIHAH;Hangzhou;V;366;Hangzhou Cancer Registry;176057528@qq.com;(86) 571 86908369;(86) 571 86908369;www.hzcdc.net;NULL;Hangzhou;Non-communicable chronic disease department;Hangzhou Center for Disease Control and Prevention;;;mingshi  Road;Jianggan county;310021;Asia;CHINA;China
ASCHIHEB;Hebei;V;1245;Hebei Provincial Cancer Registry;hytong69@yahoo.com;0311-86095613;0311-86095613;50011;NULL;Shijiazhuang;河北医科大学第四医院;Cancer Institute - Fourth Hospital of Hebei Medical University;;;No. 12 Jiankang Road;;;Asia;CHINA;China
ASCHIHKG;Hongkong;V;367;Hong Kong Cancer Registry;cancereg@ha.org.hk;(852) 3506 6021;(852) 3506 5559;www3.ha.org.hk/cancereg;NULL;Hong Kong;c/o Department of Clinical Oncology;Queen Elizabeth Hospital;;;30 Gascoigne Road;Kowloon;;Asia;CHINA;China
ASCHIJIS;Jiashan;V;369;Jiashan County Cancer Registry;lql642396@qq.com;(86) 573 84024016;(86) 573 84023280;;zls@ws.js.zj.cn invalid;Suzhou;;;;;345 Jiefang east road;;314100;Asia;CHINA;China
ASCHIJIX;Jiaxing;V;370;Jiaxing Cancer Registry;xqli04@163.com;(86) 573 8393 5316;(86) 573 8393 5302;NULL;NULL;Jiaxing;NULL;Jiaxing Center for Disease Control and Prevention;NULL;NULL;No. 486 Wen Qiao Road;NULL;314050;Asia;CHINA;China
ASCHILIZ;Linzhou;V;373;Linzhou Cancer Registry;lzzlfb@126.com;(86) 372 609 3021;(86) 372 687 8037;;NULL;Anyang;;Linzhou Cancer Hospital ;;;Chang An Zhong Road, Linzhou,China;;456550;Asia;CHINA;China
ASCHIMAC;Macao;V;374;Macao Cancer Registry;cdc@ssm.gov.mo;85 328 533 525;85 328 533 524;;NULL;Macau;Center for Disease Control and Prevention ;Health Bureau, Government of Macao SAR(China);;P.O. box 3002;;;;Asia;CHINA;China
ASCHINAN;Nangang;V;375;Epidemic Prevention Station of Nan Gang District;ngqmanbing@163.com;(86) 451 86243578;(86) 451 8622 1502;;NULL;Harbin;Chronic disease department;;;;;;;Asia;;
;Epidemic Prevention Station of Nan Gang District;;;Wen Chang Street 225;Nan Gang District;150040;Asia;CHINA;China;;;;;;;;;Asia;;
ASCHISHE;Shenzhen;V;378;Shenzhen Cancer Registry;szleilin@qq.com;(86) 755 2562 8979;(86) 755 2562 8979;;NULL;Shenzhen;;;;;2021 Buxin Road, Luohu;;518020;Asia;CHINA;China
ASCHISHX;Shexian;V;379;Shexian Cancer Registry;wshjw136@163.com;(86) 311 86095337;(86) 311 8607 7634;;NULL;Shijiazhuang;Epidemiology;4th hospital of Hebei medical university;Hebei Cancer Institute;50011;Jiankang Lu 12;;50011;Asia;CHINA;China
ASCHISIH;Sihui;V;380;Sihui Cancer Registry;gdshci@163.com;(86) 758 332 7195;(86) 758 333 7982;;NULL;Sihui;;;;526200;113 Zhong Shan Road;;526200;Asia;CHINA;China
ASCHITAW;Taiwan;V;382;Taiwan Cancer Registry;crs@cph.ntu.edu.tw;(886) 2 2351 2024;(886) 2 2351 1733;http://tcr.cph.ntu.edu.tw/main.php?Page=A1;Review the 'I' membership - ESF Sept 2011;Taipei;;;;84-310;;;;Asia;CHINA;China
ASCHITIA;Tianjin;V;383;Tianjin Cancer Registry;canregtjcdc@163.com;(86) 22 24333559;(86) 22 24333556;NULL;NULL;Tianjin;Non-Communicable Disease Surveillance and Vital Statistics;Tianjin Centers for Disease Control and Prevention;NULL;NULL;No.6 Hua-Yue Road;Hedong District;300011;Asia;CHINA;China
ASCHIWUH;Wuhan;V;384;Wuhan Cancer Registry;545655042@qq.com;(86) 27 8580 1798;;;whcdc@public.wh.hb.cn invalid;Wuhan;;Wuhan Centers for Disease Prevention and Control;;;24# Jiang Han North Road;;430015;Asia;CHINA;China
ASCHIYTI;Yanting;V;388;Yanting Cancer Registry;scytzlyjs@163.com;(86) 816 7220081;(86) 816 7222054;www.ytzlyy.com;NULL;Yunxi Town;Epidemiology laboratory;Yanting Cancer Institute;Yanting cancer prevention center &Cancer hospital;;31, hongshi Road;Yanting County;621600;Asia;CHINA;China
ASCHIZBBCF;China;V;389;Hong Kong Breast Cancer Registry;amychan@hkbcf.org;(852) 3143 7304;(852) 2525 6233;www.hkbcf.org;NULL;Hong Kong;NULL;Hong Kong Breast Cancer Foundation Limited (HKBCF);NULL;NULL;22/F Jupiter Tower;No. 9 Jupiter Street - North Point;NULL;Asia;CHINA;China
ASCHIZHO;Zhongshan;V;390;Zhongshan Cancer Registry;weikr@sina.com;8 676 088 822 698;8 676 088 822 698;;NULL;Zhongshan;;Zhongshan Cancer Registry;;;2#, East-Sun-Wen Road;Shi Qi District，Zhongshan City;528400;Asia;CHINA;China
ASGEO10;Georgia;V;391;Georgia National Cancer Centre;njokhadze@gmail.com;9,95E+11;9,95E+11;www.onc.org.ge;NULL;Tbilisi;National Cancer Center;Cancer Control Department;;;Lisi Lake;;177;Asia;GEORGIA;Georgia
ASIND11;India;V;392;National Cancer Registry Programme;ncdir@ncdirindia.org;919 449 033 748;+91 80 28467644;www.ncdirindia.org;RS: Covers Dindigul, Barshi, Bangalore, Bhopal, Kolkatta, Delhi, Chennai, Mumbai, Tripura and 2017 May: ncrp@ncrpindia.org: this email account will be discontinued soon. The emails to be sent to ncdir@ncdirindia.org;Bangalore;ICMR Complex, Bangalore-562110;National Centre for Disease Informatics and Research;Indian Council of Medical Research, Govt of India;NULL;II Floor of Nirmal Bhawan, ICMR Complex;"Poojanahalli Road, Off NH-7, 	Kannamangala Post,";562110;Asia;INDIA;India
ASIND80;ICMR;V;394;Indian Council for Medical Research (Unit of Regional Cancer Centre, Trivandrum);kaurt@icmr.org.in;(91) 11 69 66 181;(91) 11 69 66 181;NULL;Email received from Bela Sha: Dr Tanveer Kaur is now looking after this program;New Delhi;Unit of Regional Cancer Centre, Trivandrum;Indian Council for Medical Research;NULL;P.O. Box 4911;Ansari Nagar;NULL;110 029;Asia;INDIA;India
ASINDAHM;Ahmedabad;V;402;Rural Cancer Registry - Ahmedabad district;pbcrahmedabad@gmail.com;;;;;;;;;;;;;Asia;;
ASINDAUR;Aurangabad;V;404;Aurangabad Cancer Registry;NULL;(91) 22 2412 2351;(91) 22 2412 2351;NULL;bcrics@vsnl.com Invalid email address/md;Mumbai;c/o Mumbai Cancer Registry;NULL;NULL;NULL;74 Jerbai Wadia Rd;Parel;400 012;Asia;INDIA;India
ASINDBAN;Bangalore;V;405;Bangalore Population Based Cancer Registry;NULL;8026094022;8026560723;www.kmio.org;RS: in National vijuforstat@gmai.com Invalid email address/md;Bangalore;Department of Epidemiology and Biostatistics;Kidwai Memorial Institute of Oncology;NULL;Dr. MH Marigowda Road;NULL;NULL;560029;Asia;INDIA;India
ASINDBAR;Mumbai;V;406;Rural Cancer Registry Barshi;barshiexp_registry@rediff.com;9,12E+11;9,12E+11;www.ndmch.org;RS: in National;Barshi;;NARGIS DUTT MEMORIAL CANCER HOSPITAL BARSHI;;;AGAALGAON ROAD;;413401;Asia;INDIA;India
ASINDBHO;Bhopal;V;407;Population Cancer Registry Bhopal;deangmc_bpl@yahoo.co.in;;;;;;;;;;;;;Asia;;
ASINDCHE;Chennai;V;409;Madras Metropolitan Tumour Registry;registry@cancerinstitutewia.org;(91) 44 22350131 / 340;(91) 44 22354508;;RS: was Madras, in National;Chennai;Epidemiology, Biostatistics and Cancer Registry;Cancer Institute (W.I.A.);;;38, Sardar Patel Road;;600036;Asia;INDIA;India
ASINDDIN;DACR;V;412;Dindigul Ambilikkai Cancer Registry;dacr.cfchc@yahoo.co.in;914 553 249 072;914 553 249 413;;NULL;Ambilikkai;;Christian Fellowship Community Health Centre;Cancer Institute (WIA);;Dharapuram Road;Shanthi Nagar;624612;Asia;INDIA;India
ASINDDIR;Dindigul;V;413;Dindigul Rural Cancer Registry;rajcfchc@gmail.com;(91) 4553 40250 / 49064;(91) 4553 41255 / 40382 / 416 272354;https://canceratlasindia.org/centerMap.htm#centreMap;Now part of ASINDDIN;Ambillikai;NULL;Christian Fellowship Community Health Centre;NULL;NULL;Dindigul District;NULL;624 612;Asia;INDIA;India
ASINDKAR;Karunagappally;V;415;Karunagappaly Cancer Registry;nbrrkply@gmail.com;(91) 476 2671833;;;Years 1990-2005, expanded to ASINDKOM from 2006.;Neendakara, Karunagappally;Regional Cancer Centre, Thiruvananthapuram;Natural Background Radiation Registry (NBRR);NULL;;Puthenthura PO, Neendakara;Kollam District;691588;Asia;INDIA;India
ASINDMIZ;Mizoram;V;419;Mizoram Population-Based Cancer Registry;mizorampbcr@gmail.com;(91) 389 231 6570;(91) 389 230715;;NULL;Aizawl;Dept. of Pathology;Civil Hospital;Govt of Mizoram;;;;796 001;Asia;INDIA;India
ASINDMUM;Mumbai;V;420;Mumbai Cancer Registry;shravani@indiancancersociety.org;(91) 22 2412 2351;(91) 22 2412 2351;www.indiancancersociety.org;Jjoannie: in National;Mumbai;Indian Cancer Society;NULL;;;74 Jerbai Wadia Road;Parel;400012;Asia;INDIA;India
ASINDNAG;Nagpur;V;421;Nagpur Cancer Registry;shravani@indiancancersociety.org;(91) 22 2412 2351;;www.indiancancersociety.org;bcrics@vsnl.com Invalid e-mail address/md;Mumbai;Indian Cancer Society;;;;74 Jerbai Wadia Road;Parel;400012;Asia;INDIA;India
ASINDPOO;Poona;V;422;Poona Cancer Registry;NULL;(91) 22 2412 2351;(91) 22 2412 2351;www.indiancancersociety.org;bcrics@vsnl.com Invalid e-mail address/md;Mumbai;INDIAN CANCER SOCIETY;;;;75 Jerbai Wadia Rd;Parel;400 012;Asia;INDIA;India
ASINDTRI;Trivandrum;V;424;Trivandrum Cancer Registry;aleyammamathewrcc@gmail.com;(91) 471 2522249;(91) 471 2550782;http://www.rcctvm.gov.in/;RS: in National.;Thiruvananthapuram;Division of Cancer Registry, Regional Cancer Centre, Thiruvananthapuram, Kerala;Regional Cancer Centre;Trivandrum;P.O. Box 2417;Medial College;;695011;Asia;INDIA;India
ASINDWAR;Wardha;V;426;Wardha District Population-based Cancer Registry;nitingangane@rediffmail.com;(91) 71 5228 4955;NULL;NULL;NULL;Maharashtra;Dept. of Pathology;MGIMS;NULL;NULL;Dist. Wardha;NULL;442 102;Asia;INDIA;India
ASINE10;Indonesia;V;427;Indonesian National Cancer Registry;evlinass@gmail.com;(62) 24 413476, ext 388;(62) 24 311273;NULL;Ministry of Health assigned me as Head of  Indonesian National Cancer Registry - Dr Evlina Suzanna - 2018 07 27;Jakarta;Indonesian National Cancer Registry - NCC Indonesia;NULL;Dharmais National Cancer Hospital in Jakarta;NULL;JL. Dr. Sutomo 18;NULL;NULL;Asia;INDONESIA;Indonesia
ASINEYOG;Yogyakarta;V;430;Yogyakarta Cancer Registry;canreg.fkkmk@ugm.ac.id;;;https://canreg.fk.ugm.ac.id/;NULL;Yogyakarta;Faculty of Medicine, Public Health and Nursing;Universitas Gadjah Mada;;;;Jl.Farmako Sekip Utara;55281;Asia;INDONESIA;Indonesia
ASIRN10;Iran;V;431;Iranian National Population-based Cancer Registry (INPCR);grcgh@goums.ac.ir;;;;;;;;;;;;;Asia;;
ASIRN7M;Masih Daneshvari Hospital;V;433;Masih Daneshvari Hospital Cancer Registry;NULL;+98 21 27122029/+982127122054;+98 21 26109484;NULL;emamihabib@nritld.ac.ir Invalid email address/md;Tehran;NULL;Masih Daneshvari Hospital ;NULL;PO Box 19575/154;Shaheed Bahonar Ave.;NULL;19556;Asia;IRAN;Iran
ASIRN80;Bushehr University;V;434;Bushehr University of Medical Sciences and Health Services;mrfarzaneh@yahoo.com;(98) 771 2526189;(98) 771 2528500;NULL;NULL;Bandar-e Būshehr;NULL;NULL;NULL;NULL;Moalem Street;NULL;NULL;Asia;IRAN;Iran
ASIRNARD;Ardabil;V;437;Ardabil Province Cancer Registry;sadeghsmz@arums.ac.ir;045-33522175;;;NULL;Ardabil;Ardabil Province Health Center;Ardabil University of Medical Sciences;;;Daneshghah St.;;5618985991;Asia;IRAN;Iran
ASIRNEAZ;East Azerbaijan;V;1377;East Azerbaijan Population-Based Cancer Registry;dolatkhahr@tbzmed.ac.ir;3367984;984 133 361 358;http://www.eapbcr.tbzmed.ac.ir;2017 May. Voting member as of 2017. Name of person in charge of registry: Prof. Dr. Mohammad Hossein Somi;Tabriz;Liver and Gastrointestinal Diseases Research Center;Tabriz University of Medical Sciences;Imam Reza Hospital;;Golgasht Avenue;Imam Reza Hospital;5166614731;Asia;IRAN;Iran
ASIRNGOL;Golestan;V;439;Golestan Population-based Cancer Registry;grcgh@goums.ac.ir;(98) 911 3757327 ;;http://goums.ac.ir/page/2628/History;NULL;Gorgan;Golestan Research Center of Gastroenterology and Hepatology;Golestan University of Medical Sciences;;;Sayyad Shirazi Hospital;Sayyad Shirazi Bulevard;;Asia;IRAN;Iran
ASIRNGUI;Guilan;V;440;Guilan Cancer Registry Network (GCRN);NULL;(98) 131 5535116;(98) 131 5534951;NULL;Nov 27/2015: this email does not work and was deleted as the registry email address - gcrn@gums.ac.ir;Rasht;Gastrointestinal and Liver Diseases Research Center;Razi Hospital;NULL;NULL;Sardar Jangal Ave-Rasht;NULL;4168613387;Asia;IRAN;Iran
ASIRNKHR;Khorasan Razavi;V;1378;Cancer Registry of Khorasan Razavi;hamidheidarian@yahoo.com;989 127 992 064;NULL;NULL;IACR Voting membership on 03-2017;Mashhad;NULL;Mashhad University of Medical Sciences;NULL;91375-345;University St., Gharashy Building;NULL;NULL;Asia;IRAN;Iran
ASIRQKIR;Kirkuk;V;961;Kirkuk Cancer Registry;Majicshine1@yahoo.com;;;;NULL;;;;;;;;;Asia;IRAQ;Iraq
ASIRQKUR;Iraq-Kurdistan;V;1062;Iraq-Kurdistan-Sulaimani Cancer Registry;sulicancercotrol@gmail.com;7511664988;;;sulicancercotrol@gmail.com delivery failed 2019;;;Cancer Control section. Iraq-Kurdistan-Sulaimani;;;Qrga Square;;;Asia;IRAQ;Iraq
ASISR10;Israel;V;445;Israel National Cancer Registry;cancerregistry@moh.gov.il;(972) 3 7371520;(972) 2 6474893;https://www.health.gov.il/UnitsOffice/HD/ICDC/ICR/Pages/default.aspx;NULL;Tel HaShomer;Israel National Cancer Registry;Israel Disease Control Center;Israel Ministry of Health;;Gertner Institute;Sheba Medical Center;5265601;Asia;ISRAEL;Israel
ASJAP10;Japan;V;447;National Cancer Center;office_canreg@ml.res.ncc.go.jp;(81) 3 3542 2511 (ext 1639);;www.ncc.go.jp;NULL;Tokyo;Center for Cancer Registries;Center for Cancer Control and Information Services;National Cancer Center;;5-1-1 Tsukiji;Chuo-ku;104-0045;Asia;JAPAN;Japan
ASJAP11;Japan;V;446;The Japanese Association of Cancer Registries;office@jacr.info;;;;;;;;;;;;;Asia;;
ASJAPAIC;Aichi;V;448;Aichi Cancer Registry;;(81) 52 762 6111;(81) 52 763 5233;;NULL;Nagoya;Division of Epidemiology and Prevention;Aichi Cancer Center Research Institute;;;1-1 Kanokoden, Cikusa-ku;;464-8681;Asia;JAPAN;Japan
ASJAPFUI;Fukui;V;449;Fukui Cancer Registry;m-hattori-ax@pref.fukui.lg.jp;81776545151;81776572945;NULL;NULL;Fukui;NULL;Fukui Prefectural Hospital;NULL;NULL;2-8-1 Yotsui;NULL;910-8526;Asia;JAPAN;Japan
ASJAPFUO;Fukuoka;V;450;Fukuoka Cancer Registry;NULL;(81) 92 481 3979;(81) 92 471 1891;NULL;ESF 3/11/2011: move to contacts?;Fukuoka;NULL;Fukuoka Medical Association;NULL;NULL;2-9-30 Hakata-eki-Minami;Hakata-ku;812;Asia;JAPAN;Japan
ASJAPHIR;Hiroshima;V;451;Tumor and Tissue Registry Office, Hiroshima;sugi@rerf.or.jp;(81) 82 261 3131;(81) 82 262 9768;;NULL;Hiroshima;Department of Epidemiology;Radiation Effects Research Foundation;;;5-2 Hijiyama Park;Minami-ku;732-0815;Asia;JAPAN;Japan
ASJAPKAN;Kanagawa;V;453;Kanagawa Cancer Registry;kikaku@gancen.asahi.yokohama.jp;(81) 45 391 5761;(81) 45 366 3157;http://kcch.kanagawa-pho.jp/specialized/t_registration.html;NULL;Yokohama;Cancer Prevention and Control Division;Research Institute;Kanagawa Cancer Center;NULL;1-1-2, Nakao, Asahiku;NULL;241-0815;Asia;JAPAN;Japan
ASJAPMIY;Miyagi;V;455;Miyagi Prefectural Cancer Registry;registry@miyagi-pho.jp;(81) 22 796 3624;(81) 22 796 3634;;NULL;Natori-shi;Miyagi Prefectural Cancer Registry;Miyagi Cancer Center;;;47-1 Nodayama, Medeshima-Shiode;;981-1293;Asia;JAPAN;Japan
ASJAPNAG;Nagasaki;V;456;Tumor and Tissue Registry Office, Nagasaki;ozasa@rerf.or.jp;(81) 95 823 1125;(81) 95 825 7202;http://www.rerf.jp/dept/epidemi/index_e.html;NULL;Nagasaki;Department of Epidemiology;Radiation Effects Research Foundation (RERF);;;1-8-6 Nakagawa;;850-0013;Asia;JAPAN;Japan
ASJAPNII;Niigata;V;457;Niigata Cancer Registry;touroku@niigata-cc.jp;-4101;-4102;NULL;Niigata CR is now a IACR voting member;Niigata;NULL;Niigata Cancer Center Hospital;NULL;NULL;Kawagishi-Cho2;Chuo-Ko;951-8566;Asia;JAPAN;Japan
ASJAPOSA;Osaka;V;458;Osaka Cancer Registry;;(81) 6 6945 1181, ext 5505;(81) 6 6945 1909;http://www.mc.pref.osaka.jp/ocr/en/;NULL;Osaka;Cancer Control Center;Osaka International Cancer Institute;;;3-1-69 Otemae;Chuo-ku;541-8567;Asia;JAPAN;Japan
ASJAPSAG;Saga;V;459;Saga Prefectural Cancer Registry;maeda-ayako@koseikan.jp;(81) 952 242171;(81) 952 281369;;Saga cancer registy has moved to another institute since 2016;Saga;Saga-Ken Medical Centre Koseikan;;;;400, Nakabaru Kase-machi;;840-8571;Asia;JAPAN;Japan
ASJAPTOC;Tochigi;V;560;Tochigi Cancer Registry;i-oki@tochigi-cc.jp;+81 28 658 5151;+81 28 684 5756;http://www.pref.tochigi.lg.jp/e04/cancer/documents/canreg.html;Voting membership awarded 23/02/12;Utsunomiya;Department of Epidemiology;Tochigi Cancer Center ;;;4-9-13, Yohnan;;320-0834;Asia;JAPAN;Japan
ASJAPTOT;Tottori;V;461;Tottori Cancer Registry;mokamoto@med.tottori-u.ac.jp;(81) 859 34 8024;(81) 859 8138;;NULL;Yonago;Division of Environmental and Preventive Medicine, Department of Social Medicine;Tottori University School of Medicine;;;86 Nishi-machi;;683;Asia;JAPAN;Japan
ASJAPYAM;Yamagata;V;462;Yamagata Prefectural Cancer Registry;NULL;NULL;NULL;NULL;NULL;Yamagata;NULL;Yamagata Prefectural Medical Center for Cancer and Life-style Related Disease;NULL;NULL;1800 Aoyagi;NULL;990-2292;Asia;JAPAN;Japan
ASJOR10;Jordan;V;465;Jordan Cancer Registry;jcr@moh.gov.jo;(962) 6 5662067;(962) 6 5662067;www.moh.gov.jo;Contact details received on 16/02/11 (IACR);;;;;;;;;Asia;;
ASKAZ10;Kazakhstan;V;1061;Kazakhstan Cancer Registry;cancer_registr@mail.ru;+7 727 292 08 53;+7 727 292 77 55;;NULL;;;;;;91 Abay Ave.;;50022;Asia;KAZAKHSTAN;Kazakhstan
ASKON10;North Korea;V;1375;National Cancer Registry DPR of Korea;med.intl@star-co.net.kp;;;;NULL;;;Intitute of Oncology;;;;;;Asia;NORTH_KOREA;North Korea
ASKOS10;South Korea Institute of Oncology;V;1243;Korea Central Cancer Registry (KCCR);astra67@ncc.re.kr;NULL;NULL;http://ncc.re.kr/main.ncc?uri=manage02_1;ASKOS10 & ASKOS11 are the same, ASKOS10 is kept as IACR member. Dr. Young-Joo Won (Head of Div of Cancer Registration & Surveillance, NCC);Goyang;Cancer Registration & Statistics Branch;National Cancer Center Korea;National Cancer Center (NCC);NULL;323 Ilsan-ro,;Ilsandong-gu;NULL;Asia;KOREA_SOUTH;South Korea
ASKOSBUS;Busan;V;467;Busan Cancer Registry (BSCR);pnuhbscr@daum.net;(82) 51 240 7464;(82)51 240 7896;www.busancancercenter.or.kr;NULL;Busan;Regional Cancer Center;Pusan National University Hospital;NULL;NULL;179 Guduk- Ro;Seo-Gu;49241;Asia;KOREA_SOUTH;South Korea
ASKOSDAG;Daegu;V;468;Daegu Kyeongbuk Regional Cancer Registry;dgcc2005@hanmail.net;(82) 53 420 4866;(82) 53 425 2447;NULL;Email add of KIM EUNKYUNG;Daegu;Department of Preventive Medicine;School of Medicine;Kyungpook National University;NULL;101 Dongin 2;Jung-gu;700-422;Asia;KOREA_SOUTH;South Korea
ASKOSDAJ;Daejeon;V;469;Daejeon Cancer Registry;kgs0817@cnuh.co.kr;-8835;-8104;;NULL;Daejeon;;Daejeon Regional Cancer Center;;;282 Munhwa-ro;Jung-gu;35015;Asia;KOREA_SOUTH;South Korea
ASKOSGWA;Gwangju;V;471;Gwangju Cancer Registry;ujin0425@daum.net;(82)61 379 7720;(82) 61 379 7880;;ujin0425@paran.com;Hwasu-dong;Department of Cancer Registry and Public Health;Jeonnam Regional Cancer Center;Chonnam National University Hwasun Hospital;;Seyang-Ro 322;Hwasun-eup;58128;Asia;KOREA_SOUTH;South Korea
ASKOSINC;Incheon;V;473;Incheon Cancer Registry;cancer@inha.ac.kr;(82) 32 890 3070;(82) 32 890 3097;;NULL;Incheon;Department of Radiation Oncology;INHA University of Medical Colleges;;;7-206, 3-Ga, Shinheung-dong;Jung-gu;400-711;Asia;KOREA_SOUTH;South Korea
ASKOSJEJ;Jeju;V;474;Jeju Regional Cancer Registry;;(82) 64 717 1508;(82) 64 717 1508;;NULL;Jeju-si;;Jeju National University Hospital;Jeju Regional Cancer Registry;;#Aran 13gil 15 (Ara-1Dong);Jeju;63241;Asia;KOREA_SOUTH;South Korea
ASKOSSEO;Seoul;V;477;Seoul Cancer Registry;ara@ncc.re.kr;(82) 31 920 2175;(82) 31 920 2179;;NULL;Goyang;Division of Cancer Registration and Surveillance;National Cancer Center;;;323 Ilsandong-gu;;410-769;Asia;KOREA_SOUTH;South Korea
ASKOSULS;Ulsan;V;479;Ulsan Cancer Registry;ciyoo62@hanmail.net;(82) 52 250 7283 / 8819;(82) 52 250 7289;http://ucc.uuh.ulsan.kr;NULL;Ulsan;Department of Occupational & Environmental Medicine;Ulsan University Hospital;;NULL;877 Bangeojinsunhwando-ro;Dong-Gu;44033;Asia;KOREA_SOUTH;South Korea
ASKUW10;Kuwait;V;480;Kuwait Cancer Registry;kccccanreg@moh.gov.kw;(965)24812931;(965) 481 0007;NULL;Updated fr email 2018/5 Dr Elbasmi;Shuwaikh;Kuwait Cancer Registry (KCR);Kuwait Cancer Control Centre (KCCC);Ministry of Health;P.O. Box 42262;NULL;NULL;70653;Asia;KUWAIT;Kuwait
ASKYR10;Kyrgyzstan;V;481;Cancer Registry of Kyrgyz Republic;elena_spcpm@yahoo.com;(996) 312 544573;(996) 312 544573;;NULL;Bishkek;;National Centre of Oncology;Ministry of Health of the Kyrgyz Republic;;Akhunbajeva str. 92;;720064;Asia;KYRGYZSTAN;Kyrgyzstan
ASLEB10;Lebanon;V;484;National Cancer Registry;esumoh@moph.gov.lb;;;;;;;;;;;;;Asia;;
ASMAL10;Malaysia;V;485;Malaysia Cancer Registry;drazizah@nci.gov.my;(60) 3 888925555;(60)3 88925625;http://nci.moh.gov.my;NULL;Putrajaya;Malaysia Cancer Registry;National Cancer Institute, Ministry Of Health;;;No 4, Jalan P7, Presint 7;;62250;Asia;MALAYSIA;Malaysia
ASMALPEN;Penang;V;487;Penang Cancer Registry;a_drazizah @moh.gov.my;(60) 4 262 5533;(60) 4 262 3371;;NULL;George Town;Public Health Division;;;;;;;Asia;;
"Penang State Health Department""";;;;Level 37, KOMTAR;;10590;Asia;MALAYSIA;Malaysia;;;;;;;;;Asia;;
ASMALSAR;Sarawak;V;488;Sarawak Cancer Registry;ooichoohuck@yahoo.com;(60) 82 237466;(60) 82 254490;NULL;NULL;Kuching;NULL;Sarawak Health Department;NULL;NULL;Tun Abang Haji Openg Road;NULL;93590;Asia;MALAYSIA;Malaysia
ASMON10;Mongolia;V;490;National Cancer Center of Mongolia;;(976) 70101103;(976) 11 45 81 89;;NULL;Ulaanbaatar;Research, Training and Information Department;National Cancer Center of Mongolia;;;Nam Yan Ju street;Bayanzurkh district;210648;Asia;MONGOLIA;Mongolia
ASMYANPT;Nay Pyi Taw;V;1486;Nay Pyi Taw Cancer Registry;drkmshwe1977@gmail.com;;;;;;;;;;;;;Asia;;
ASMYAYAN;Yangon;V;491;Yangon Cancer Registry;NULL;(95) 1 80664;NULL;NULL;soeaungonco@mptmail.net.mm invalid;Yangon;Dept. of Oncology;Yangon General Hospital;NULL;NULL;NULL;NULL;NULL;Asia;MYANMAR;Myanmar
ASNEP10;Nepal;V;1485;Population Based Cancer Registry of Nepal;dranjanikj@gmail.com;;;;;;;;;;;;;Asia;;
ASOMA10;Oman;V;494;Oman National Cancer Registry;;(968) 24946378;(968) 24946379;;NULL;Muscat;Non-Communicable Diseases Surveillance & Control Dept.;DGHA (HQ);Ministry of Health;P.O. Box 393;;;AC 113;Asia;OMAN;Oman
ASPAK7A;Aga Khan University;V;496;Aga Khan University Pathology-Based Cancer Registry;NULL;(92) 21 493 0051, ext 1524;(92) 21 493 4294;NULL;NULL;Karachi;Department of Pathology;Aga Khan University;NULL;P.O. Box 3500;Stadium Road;NULL;74800;Asia;PAKISTAN;Pakistan
ASPAK7S;Shaukat Khanum;V;497;Shaukat Khanum Memorial Cancer Hospital Registry;dm@skm.org.pk;+92-42-35905000. Ext 4246;-35945156;www.shaukatkhanum.org.pk/home.html;NULL;Lahore;Cancer Registry and Clinical Data Management;Shaukat Khanum Memorial Cancer Hospital and Research Center;;;7-A Block R-3;M. A. Johar Town;54782;Asia;PAKISTAN;Pakistan
ASPAKKAR;Karachi;V;498;Karachi Cancer Registry;NULL;(92) 21 35342534;NULL;NULL;NULL;Karachi;Department of Pathology;Liaquat National Medical College;NULL;NULL;Stadium Road Karachi;NULL;NULL;Asia;PAKISTAN;Pakistan
ASPAKPUN;Punjab;V;499;Punjab Cancer Registry;farhana@skm.org.pk;+92-42-35905000. Ext. 4246;-35945156;http://punjabcancerregistry.org.pk/;Dr Farhana Badar - Secretary, Punjab CR;;;;;;;;;Asia;;
ASPALGAZ;Gaza;V;501;Gaza Cancer Registry;NULL;NULL;(972) 7 282 7701;NULL;NULL;Gaza;Shifa Hospital;NULL;NULL;NULL;Gaza Strip;NULL;NULL;Asia;PALESTINE;Palestine
ASPHICEB;Cebu;V;504;Metro Cebu Population-Based Cancer Registry;ronald.delos.reyes@rafi.org.ph;(63) 32 254 6351 / 256 3287;(63) 32 254 6351;;rreyes@rafi.org.pf - invalid email (Dec 1/2015);Cebu City;Eduardo J. Aboitiz Cancer Center;Ramon Aboitiz Foundation Inc.;;6000;2nd Floor, CWC Bldg, B. Rodriguez St., Cebu City;;6000;Asia;PHILIPPINES;Philippines
ASPHIMAN;Manila;V;506;Manila Cancer Registry;mcr_pcsi@yahoo.com;(63) 2 734 2126;(63) 2 734 2127;;ASPHIMAN covers the four major cities (Manila, Quezon, Pasay, Caloocan) of the National Capital Region (NCR);Manila;Philippine Cancer Society, Inc.;Manila Cancer Registry (PCS-MCR);NULL;;P.O. Box 3066;310 San Rafael St., San Miguel;1005;Asia;PHILIPPINES;Philippines
ASPHIRIZ;Rizal;V;507;Rizal Cancer Registry;doh_rcr@yahoo.com;(63) 2 8658400 LOCAL 210;(63) 2 671 9716 / 17;;NULL;Pasig City;Tumor clinic;DOH - Rizal Medical Center;;;Pasig Boulevard;;1600;Asia;PHILIPPINES;Philippines
ASQAT10;Qatar;V;508;Qatar National Cancer Registry;qncr@moph.gov.qa;97444070498;;www.ncp.qa;Applied for IACR membership in October 2011- Assoc mbship awarded 14/11/11;Doha;Policy Department, National Cancer Program;Ministry of Public Health;;P.O. Box 42;;;;Asia;QATAR;Qatar
ASSAU10;Saudi Arabia;V;510;Saudi Cancer Registry;h.almutlag@shc.gov.sa;(966) 11 4579320;(966) 11 4579360;http://www.shc.gov.sa/En/HealthRecords/CancerRegistry/Pages/CancerRegistry.aspx;Upgraded to voting member 14/11/11. Reapplied 2017 c/o Dr Hind Al-Mutlag;Riyadh;Saudi Cancer Registry;Saudi Health Council;;PO Box 3161;6293 Olayya RoadSahafah Area Unit No.(1);;13351;Asia;SAUDI_ARABIA;Saudi Arabia
ASSIN10;Singapore;V;513;Singapore Cancer Registry;hpb_servicenrdo@hpb.gov.sg;(65) 6435 3082;(65) 6536 6072;www.nrdo.gov.sg;NULL;Singapore;;Health Promotion Board;National Registry of Diseases Office;;Level 5;3 Second Hospital Avenue;168937;Asia;SINGAPORE;Singapore
ASSRI10;Sri Lanka;V;514;Sri Lanka Cancer Registry;NULL;(94) 602159227/773265365;(94) 11284 2051;NULL;Dr May Ariyaratne left NCCP (email rec'd 9/4/12);Colombo;National Cancer Control Programme;NULL;NULL;NULL;555 Elvitigala Mawatha;Narahenpita;5;Asia;SRI_LANKA;Sri Lanka
ASSRI7M;NCI Sri Lanka;V;515;National Cancer Institute;NULL;94 112 850 253;94 112 842 051;NULL;NULL;Maharagama;Statistical Review;NULL;NULL;NULL;NULL;NULL;NULL;Asia;SRI_LANKA;Sri Lanka
ASSYR10;Syria;V;516;Syrian National Cancer Registry;ahaljord@hotmail.com;(963) 11 44673200;(963) 11 44673201;NULL;NULL;Damascus;NULL;NULL;NULL;P.O. Box 5087;Nejmah Square ;NULL;NULL;Asia;SYRIA;Syria
ASTHA11;Thailand;V;517;Thailand National Cancer Registry;sulee@health.moph.go.th;(66) 2 202 6800;(66) 2 246 5145 / 247 9428;www.nci.go.th/;travel report 110 is not link to this registry;Bangkok;Research Division;National Cancer Institute;NULL;NULL;Rama VI Road;Ratchathewi;10400;Asia;THAILAND;Thailand
ASTHACHI;Chiang Mai;V;520;Chiang Mai Cancer Registry;cancer_unit@yahoo.com;(66) 53-935730;(66) 53 936584;;NULL;Meung;Maharaj Nakorn Chiang Mai Hospital;Faculty of Medicine;Chiang Mai University;;;;50200;Asia;THAILAND;Thailand
ASTHACHO;Chonburi;V;521;Chonburi Cancer Registry;canreg_cch@yahoo.com;66-3845-5059;66-3845-5059;http://web2.ccc.in.th;Manages 6 provinces in East Thailand, including Chanthaburi (ASTHACHA). Applied for IACR membership in October 2011Voting membership awarded 23/02/12;Muang;Cancer Registry Unit, Chonburi Cancer Hospital;Chonburi cancer registry;;;300 Moo 2 Samed;;20000;Asia;THAILAND;Thailand
ASTHAKHO;Khon Kaen;V;522;Khon Kaen Provincial Cancer Registry;patravoot@gmail.com, krisuw@kku.ac.th;+66 (0) 43 202485;+66 (0) 43 202485;http://kkcr.kku.ac.th/;NULL;Khon Kaen;Faculty of Medicine;Khon Kaen University;Province;NULL;Mittraparp Highway;NULL;40002;Asia;THAILAND;Thailand
ASTHALAM;Lampang;V;523;Lampang Cancer Registry;lampangregistry@gmail.com;(66) 5433 5262 ext 633;(66) 5433 5273;www.lpch.go.th;NULL;Muang District;Cancer Registry Unit;Lampang Cancer Hospital;;;199 Moo 12 Lampang-Chiang Rai Road;Pichai Sub-district;52000;Asia;THAILAND;Thailand
ASTHALOP;Lopburi;V;524;Lopburi Cancer Registry;;(36) 621800;;;NULL;Mueang District;;;;;11/1 Moo. 1 Prahonyothin rd;Tambon Thalachubson, Amphoe Muang;;Asia;THAILAND;Thailand
ASTHASON;Songkhla;V;525;Songkhla Cancer Registry;songkhla.registry@gmail.com;(66) 074-451474;(66) 074-455399;http://medinfo2.psu.ac.th/cancer/caregistry.php;NULL;Songkhla;Cancer Information Center, Faculty of Medicine;Prince of Songkla University;;;15 Kanchanavanit Road;Hat Yai;90110;Asia;THAILAND;Thailand
ASTHASUR;Suratthani;V;526;Surat Thani Cancer Hospital;NULL;(66) 77 211 6259, ext 1023;(66) 77 211368;http://www.suratcancer.go.th/cancerregistry;NULL;Suratthani;Cancer registry unit  of Surat Thani Cancer Hospital;;;;431 Moo. 5 Surat-Nasarn Road;Muang;84100;Asia;THAILAND;Thailand
ASTUR11;Turkey;V;528;Turkish MoH Cancer Registry ;kanserdb@thsk.gov.tr;(90) 312 5656001;(90) 312 5656092;www.kanser.gov.tr;NULL;Ankara;Ministry of Health Cancer Control Department;TC Saglik Bakanligi;Kanser Daire Baskanligi;;Ilkiz Sokak No: 4 Kat: 1-2;Sıhhiyye;6100;Asia;TURKEY;Turkey
ASTURBUR;Bursa;V;532;Bursa Cancer Registry;hsm16.kanser@saglik.gov.tr;9,02E+11;;;NULL;Osmangazi;Bursa Cancer Registry;Bursa Public Health Directorate;;;Ahmet paşa mah.1.selvi sk. No:8;;Bursa;Asia;TURKEY;Turkey
ASTURDOK;Dokuz Eylul;V;533;Dokuz Eylul Oncology Institute Cancer Registry;NULL;(90) 232 412 5801;(90) 232 278 9495;NULL;Nov 27/2015: email deleted from contact because undeliverable ozlem.ataman@deu.edu.tr;;;;;;;;;Asia;;
ASTUREGE;Ege;V;535;Ege University Cancer Registry;gul.kitapcioglu@ege.edu.tr ;(90) 232 388 8600 ;(90) 232 388 8600 ;;NULL;Izmir;;Ege University;Cancer Research Centre;;;;35100;Asia;TURKEY;Turkey
ASTURIZM;Izmir;V;538;Izmir Cancer Registry;kidem.izmir@gmail.com;5425162820;(90) 232 3830085;http://www.ism.gov.tr/kidem/index.html;NULL;Izmir;Kanser Kayit Merkezi;İzmir Saglik Müdürlüğü Kanser Şube;Izmir Provincial Health Directorate;;Sezer Doğan Sokak No:18 Selvili Is Merkezi Kat 1;Konak;35020;Asia;TURKEY;Turkey
ASTURNCY;N Cyprus;V;539;North Cyprus Cancer Registry;NULL;(90) 392 223 6916;(90) 392 225 2592;NULL;NULL;Nicosia;c/o Ministry of Health & Social Welfare;;;;Bedreddin Demirel Squire No. 142;;10 Mersin;Asia;TURKEY;Turkey
ASUAE10;UAE;V;542;United Arab Emirates Cancer Registry;Wael.Shelpai@moh.gov.ae;;;www.moh.gov.ae;www.cags.org.ae/cbc08ca.pdf;;;;;;;;;Asia;;
ASVIEHAN;Hanoi;V;546;Hanoi Cancer Registry;nguyenhuonggiang4590@gmail.com;(84) 4 825 2143 / 258 /3 934 4138;(84) 4 825 3757 / 934 8279;;From April 2019, we had tranfered all cancer registry activities in Hanoi Cancer Registry to Vietnam National Cancer Institute;Hanoi;International Collaboration and Research;National Cancer Hospital Cancer Registry;National Cancer Institute;;30 Cau Buou;Thanh Tri;;Asia;VIETNAM;Viet Nam
ASVIEHOC;HCMC;V;547;Ho Chi Minh City Cancer Registry;tungbuiduc@gmail.com;;;;Dr. Le Hoang Minh, Dir Ho Chi Minh City Cancer Registry retired 2018;Ho Chi Minh City;;;Ho Chi Minh City Oncology Hospital;;3 No Trang Long St.;Binh Thanh Dist.;;Asia;VIETNAM;Viet Nam
ASYEMADE;Aden;V;551;Aden Cancer Registry;hudabasaleem@gmail.com;+967 2 230734;+967 2 257339;;NULL;Aden;Faculty of Medicine and Health Sciences;University of Aden;;P.O. Box 11011;Madinat Al-Shaab, Villa 63 O2;;;Asia;YEMEN;Yemen
EUALB10;Albania;V;563;Albania National Cancer Registry;NULL;(355) 42 36873;(355) 42 36873;NULL;NULL;Tirana;NULL;Oncological Institute;University Hospital Centre;NULL;Rruga Brigade 370;NULL;NULL;Europe;ALBANIA;Albania
EUAUT10;Austria;V;564;Austrian National Cancer Registry;monika.hackl@statistik.gv.at;(43) 1 71128 7355;;http://www.statistik.at/;NULL;Vienna;Direktion Bevölkerung;Bundesanstalt Statistik Osterreich;;;Guglgasse 13;;1110;Europe;AUSTRIA;Austria
EUAUTCAR;Carinthia;V;566;Carinthian Cancer Registry;zorica.jukic@kabeg.at;(43) 463 53827730;(43) 463 53838909;http://www.klinikum-klagenfurt.at/;NULL;Klagenfurt;Institut für Strahlentherapie und Radioonkologie;Klinikum - Klagenfurt am Wörthersee;;;Feschnigstraße 11;;9020;Europe;AUSTRIA;Austria
EUAUTSAL;Salzburg;V;567;Landes Salzburg Tumor Registry;NULL;(43) 662 4482 2889;(43) 662 4482 4170;;NULL;Salzburg;;;;;Müllner Hauptstrasse 48;;5020;Europe;AUSTRIA;Austria
EUAUTTYR;Tyrol;V;568;Tyrol Cancer Registry;office@iet.at;(43) 512 504 22313;(43) 512 504 22315;www.iet.at;NULL;Innsbruck;;Tirol Kliniken GmbH;;;Anichstraße 35;;6020;Europe;AUSTRIA;Austria
EUAUTVOR;Vorarlberg;V;569;Vorarlberg Cancer Registry;krebsregister@aks.or.at;(43) 5574 202-1021;(43) 5574 202-9;www.aks.or.at;NULL;Bregenz;;aks gesundheit GmbH;;;Rheinstrasse 61;;6900;Europe;AUSTRIA;Austria
EUBEA10;Belarus;V;571;Belarusian Cancer Registry;oncobel@omr.med.by;(375) 17 287 9505;(375) 17 265 4704;NULL;NULL;Lesnoy;Department of cancer control;N.N. Alexandrov  National  Cancer Center of Belarus;NULL;NULL;Lesnoy-2;NULL;223040;Europe;BELARUS;Belarus
EUBEA20;Belarus_P;V;572;Childhood Cancer SubRegistry of Belarus;;(375) 17 265 4048;(375) 17 265 4222;www.oncology.by;NULL;Borovnica;Epidemiological Department;Belarusian Research Center for Paediatric Oncology, Haematology and Imunology;;;Frunzenskaya st.43;;223053;Europe;BELARUS;Belarus
EUBEL10;Belgium;V;574;Belgian Cancer Registry;info@registreducancer.org;+32(0) 2 250 10 10;+32(0) 2 250 10 11;www.kankerregister.org / www.registreducancer.org;NULL;Brussels;;;;;Koningstraat 215;Bus 7;1210;Europe;BELGIUM;Belgium
EUBELANT;Antwerp;V;581;Antwerp Cancer Registry;NULL;(32) 3 265 2653;(32) 3 265 2640;NULL;Closed in 2008;Antwerp;Dept. of Epidemiology and Community Health;University of Antwerp;;;Campus Drie Eiken;Universiteitsplein 1;2610;Europe;BELGIUM;Belgium
EUBELLIM;Limburg;V;583;Limburg Cancer Registry (LIKAR);NULL;(32) 11 230861;(32) 11 230859;NULL;NULL;Hasselt;NULL;NULL;NULL;NULL;Stadsomvaart 9;NULL;3500;Europe;BELGIUM;Belgium
EUBOS10;BH;V;584;Population-based Cancer Registry of the Federation of Bosnia & Herzegovina;NULL;(387) 33 663941;(387) 33 220548;;amayer@ipolisboa.mi-saude.pt bounced - Tanja Micic, Chief of IT department IPH;Sarajevo;Epidemiology Department;Institute of Public Health;;;M Tita 9;;71000;Europe;BOSNIA_HERZEGOVINA;Bosnia and Herzegovina
EUBOSSRP;BHS;V;585;Cancer Registry of Republic of Srpska;zgavric210@gmail.com;(387) 51 491607;(387) 51491600;;NULL;Banja Luka;Department of Social medicine;The Public Health Institute of Republika Srpska;Faculty of Medicine, Univesity of Banja Luka;;Jovan Ducic 1;;78000;Europe;BOSNIA_HERZEGOVINA;Bosnia and Herzegovina
EUBUL10;Bulgaria;V;586;Bulgarian National Cancer Registry;bncr.staff@gmail.com;+359 2 8076335;+359 2 8076335;www.sbaloncology.bg;BNCR_zdravka@netbg.com - invalid email;Sofia;BNCR;National Oncological Hospital;National Oncoligical Hospital;;6, Plovdivsko Pole Street;;1797;Europe;BULGARIA;Bulgaria
EUCRO10;Croatia;V;587;Croatian National Cancer Registry;;(385) 1 486 3280;(385) 1 486 3271;https://www.hzjz.hr/sluzba-epidemiologija-prevencija-nezaraznih-bolesti/odjel-za-maligne-bolesti/;NULL;Zagreb;Division for Epidemiology and Prevention of Noncommunicable Chronic Diseases;Croatian Institute of Public Health;;P.O. Box 684;Rockefellerova 7;;10 000;Europe;CROATIA;Croatia
EUCYP10;Cyprus;V;588;Cyprus Cancer Registry;cancer.registry@moh.gov.cy;35 722 605 624;35722605527;www.moh.gov.cy;2017/7: Dr. Pavlos Pavlou has retired fr the MOH in September 2016. Dr. Vasos Scoutellas is the new coordinator, Health Monitoring Unit;Nicosia;Heatlh Monitoring Unit;Ministry of Health;;;1 Prodromou Street & 17 Chilonos Street;;1448;Europe;CYPRUS;Cyprus
EUCZE10;Czech R;V;589;Czech National Cancer Registry;uzis@uzis.cz;(420) 2 2497 2708;(420) 2 2497 2647;http://www.svod.cz/;NULL;Prague;;Institute of Health Information and Statistics of the Czech Republic;;P.O. Box 60;Palackého nám. 4;;12801;Europe;CZECH_REPUBLIC;Czech Republic
EUCZEZD10;Czech R_Dig;V;593;Registry of Gastrointestinal Cancer;NULL;NULL;NULL;http://int4.lf1.cuni.cz/eng/ (?);NULL;Prague;NULL;First Medical Clinic;University Hospital;NULL;Vlasska 36;NULL;NULL;Europe;CZECH_REPUBLIC;Czech Republic
EUDEN10;Denmark;V;594;Danish Cancer Registry;shkr@sundhedsdata.dk;(45) 3268 33664;(45) 3268 3868;www.sundhedsdatastyrelsen.dk;NULL;Copenhagen;Health Documentation;Danish Health Data Authority;;;Ørestads Boulevard 5;;DK-2300;Europe;DENMARK;Denmark
EUDEN11;ANCR;V;595;Association of Nordic Cancer Registries (ANCR);NULL;(45) 3525 7000;(45) 3525 7706;NULL;NULL;Copenhagen;NORD CAN;Dept. of Cancer Prevention & Documentation;Danish Cancer Society;NULL;Strandboulevarden 49;NULL;2100;Europe;DENMARK;Denmark
EUEST10;Estonia;V;597;Estonian Cancer Registry;margit.magi@tai.ee;(372) 6 593 830;(372) 6 593 901;http://www.tai.ee/et/tegevused/registrid/vahiregister;NULL;Tallinn;;National Institute for Health Development;;;Hiiu 42;;11619;Europe;ESTONIA;Estonia
EUFIN10;Finland;V;598;Cancer Society of Finland / Finnish Cancer Registry;;(358) 9 135 331;;www.cancerregistry.fi;;;;;;;;;;Europe;;
EUFRA22;France_P_Solid;V;602;National Registry of Solid tumour of children;rntse@inserm.fr;;;;;;;;;;;;;Europe;;
EUFRACAL;Calvados;V;609;Calvados General Cancer Registry;;(33) 2 31 45 52 45;(33) 2 31 45 86 32;;NULL;Caen;U1086 INSERM UCN;Centre François Baclesse;;B.P. 5026;Avenue du Général Harris;;14021;Europe;FRANCE;France
EUFRADOU;Doubs;V;610;Doubs Cancer Registry;registre-cancers@chu-besancon.fr;(33) 3 81 21 83 10;(33) 3 81 21 83 11;www.chu-besancon.fr/registretumeursdoubs;NULL;Besançon;;CHRU Besançon;;;3 Bd Fleming;;25030;Europe;FRANCE;France
EUFRAESS;Essonne;V;611;Essonne Cancer Registry;NULL;(33) 1 64 90 88 88;(33) 1 64 90 76 10;NULL;NULL;Briis sous Forges;NULL;CMC de Bligny;NULL;B.P. 14;NULL;NULL;91640;Europe;FRANCE;France
EUFRAGIR;Gironde;V;612;Gironde Cancer Registry;NULL;(33) 5 57 57 95 31;(33) 5 57 57 47 84;http://etudes.isped.u-bordeaux2.fr/registres-cancers-aquitaine/Rg/R_Accueil.aspx;francoise.colombani@isped.u-bordeaux2.fr on maternity leave;Bordeaux;Université de Bordeaux;ISPED;NULL;NULL;146 rue Léo Saignat;NULL;33076;Europe;FRANCE;France
EUFRAHER;Herault;V;613;Herault Cancer Registry;registre-tumeur@wanadoo.fr;(33) 4 67 41 34 17 / 67 61 31 24;(33) 4 67 63 42 26;www.registre-tumeurs-herault.fr;NULL;Montpellier;;;;;Bâtiment Recherche - Parc Euromédecine;208 rue des Apothicaires;34298;Europe;FRANCE;France
EUFRAISE;Isere;V;615;Isere Cancer Registry;NULL;(33) 4 76 90 87 50 / 76 10;(33) 4 76 41 87 00;NULL;NULL;Grenoble;NULL;CHU - Pavillon E;NULL;B.P. 217;NULL;NULL;38043;Europe;FRANCE;France
EUFRALIM;Limousin;V;616;Limousin Cancer Registry;registre.cancer@chu-limoges.fr;33 555 056 173;33 555 058 721;http://www.registre-cancer-limousin.fr/;NULL;Limoges;;Hopital Dupuytren, CHU de Limoges;;;2, Avenue Martin Luther King ;;87042;Europe;FRANCE;France
EUFRALOI;Loire;V;617;Loire-Atlantique/Vendée Cancer Registry;registre4485@chu-nantes.fr;(33) 2 40 84 69 81;(33) 2 40 84 69 82;http://www.santepaysdelaloire.com/registre-des-cancers/;Merged with EUFRAVEN in January 2000, IS membership files 2012;Nantes;NULL;EPIC-PL;CHU NANTES;NULL;50 route de Saint-Sébastien;NULL;44093;Europe;FRANCE;France
EUFRAMAN;Manche;V;618;Manche Cancer Registry;secretariat.registre-des-cancers@ch-cotentin.fr;(33) 2 33 20 76 96;(33) 2 33 20 76 22;registrecancermanche.org;NULL;Cherbourg;MANCHE;Centre Hospitalier Public du Cotentin;;B.P. 208;46, rue du Val de Saire;;50102;Europe;FRANCE;France
EUFRARBA;Bas-Rhin;V;620;Bas-Rhin Cancer Registry;epidemio@unistra.fr;(33) 3 68 85 31 95;(33) 3 68 85 31 89;http://epidemio.unistra.fr/;NULL;Strasbourg;Laboratoire d’Épidémiologie et de Santé Publique;Université de Strasbourg;Faculté de Médecine;;4 rue Kirschleger;;67085;Europe;FRANCE;France
EUFRARHA;Haut-Rhin;V;621;Haut-Rhin Cancer Registry;arer68@ghrmsa.fr;(33) 3 89 64 62 51;(33) 3 89 64 62 52;http://www.arer68.org;NULL;Mulhouse;;ARER 68;;B.P. 1070;87 Avenue D Altkirch;;68051;Europe;FRANCE;France
EUFRASOM;Somme;V;622;Somme Cancer Registry;registre.80@chu-amiens.fr;(33) 3 22 66 82 26;(33) 3 22 66 82 25;http://www.chu-amiens.fr/chercheurs/le-registre-du-cancer-de-la-somme/;NULL;Amiens;NULL;CHU Amiens;AREREP;NULL;Bâtiment de Santé publique, 1er étage;place Victor Pauchet;80054;Europe;FRANCE;France
EUFRATAR;Tarn;V;623;Tarn Cancer Registry;registre81@orange.fr;(33) 5 63 47 59 51;;http://oncomip.org/fr/epidemiologie-registre-cancers-tarn.html;NULL;Albi;;;;B.P. 37;;;81001;Europe;FRANCE;France
EUFRAZDBUR;Burgundy_Dig;V;626;Burgundy Digestive Cancer Registry;anne-marie.bouvier@u-bourgogne.fr;(33) 3 80 39 33 38;(33) 3 80 66 82 51;;NULL;Dijon;;;;;7 boulevard Jeanne d'Arc;;21079;Europe;FRANCE;France
EUFRAZDCAL;Calvados_Dig;V;627;Calvados Registry of Digestive Tumours;NULL;(33) 2 31 06 51 20;(33) 2 31 53 08 52;NULL;NULL;Caen;Cancers et Populations ER13 INSERM;Faculté de Médecine;NULL;NULL;Avenue Côte de Nacre;NULL;14032;Europe;FRANCE;France
EUFRAZFCOT;Cote dOr_Fem;V;631;Côte d'Or Breast and Gynaecologic Cancer Registry;parveux@cgfl.fr;(33) 3 80 73 75 11;(33) 3 45 34 81 29;;NULL;Dijon;Unité de Recherche en Epidémiologie et Qualité de Vie;Centre Georges-François Leclerc;;;1, rue Pr Marion;;21000;Europe;FRANCE;France
EUFRAZHCOT;Cote dOr_HP;V;632;Cote d'Or Hemopathy Registry;NULL;(33) 3 80 39 34 14;(33) 3 80 29 33 93;NULL;NULL;Dijon;Equipe d'Accueil 4184;;;;;;;Europe;;
"INSERM/INVS/INCa""";Faculté de Médecine;;B.P. 87900;7 boulevard Jeanne d'Arc;;21079;Europe;FRANCE;France;;;;;;;;;Europe;;
EUGER11;GEKID;V;638;Association of German Cancer Registries;NULL;4,95E+11;4,95E+11;www.gekid.de;NULL;Lübeck;Institute of Cancer Epidemiology;;;;Ratzeburger Allee 160;;23562;Europe;GERMANY;Germany
EUGER12;Center for CR Data;V;968;German Center for Cancer Registry Data;krebsdaten@rki.de;49-30-187543170;49-30-187543342;www.krebsdaten.de;NULL;Berlin;;Robert Koch-Institute;;;General-Pape-Str. 64;;D-12101;Europe;GERMANY;Germany
EUGER20;Germany_P;V;640;German Childhood Cancer Registry (GCCR);info@kinderkrebsregister.de;(49) 6131 17 3111;(49) 6131 17 4462;www.kinderkrebsregister.de;NULL;Mainz;;Institute for Medical Biostatistics, Epidemiology and Informatics (IMBEI);University Medical Center Mainz, Germany;NULL;;;55101;Europe;GERMANY;Germany
EUGERBAD;Baden-Württemberg;V;644;Cancer Registry of Baden-Württemberg;ekr-bw@dkfz.de;-430392;;www.krebsregister-bw.de;New registry, built up in steps since 2009, only since October 2011 all physicians are obligated to register all cancer sites. IACR voting membership confirmed 2017;Heidelberg;;Deutsches Krebsforschungszentrum (DKFZ) Heidelberg;;;Im Neuenheimer Feld 581;;D-69120;Europe;GERMANY;Germany
EUGERBAV;Bavaria;V;645;Cancer Registry Bavaria;zkfr@lgl.bayern.de;(49) 9131 6808 2920;(49) 9131 6808 2905;www.krebsregister-bayern.de;NULL;Nuremberg;;Bayerisches Landesamt für Gesundheit und Lebensmittelsicherheit;;;Schweinauer Hauptstr. 80;;90441;Europe;GERMANY;Germany
EUGERBAY;Munich;V;646;Munich Cancer Registry;tumor@ibe.med.uni-muenchen.de;(49) 89 4400 7 4489 / 4752;(49) 89 4400 7 4753;www.tumorregister-muenchen.de/en;NULL;Munich;Klinikum Grosshadern;Ludwig Maximilian University of Munich (LMU);;;Marchioninistr. 15;;81377;Europe;GERMANY;Germany
EUGERBBE;Berlin;V;647;Common Cancer Registry of the Federal States Berlin, Brandenburg, Mecklenburg-Vorpommern, Sachsen-Anhalt and the Free States Saxony and Thuringia;registerstelle@gkr.berlin.de;(49) 30 565 81 410;(49) 30 565 81 444;http://www.statistik-berlin-brandenburg.de/;NULL;Berlin;Office of Registration;Common Cancer Registry;NULL;NULL;Brodauer Str. 16/22;NULL;12621;Europe;GERMANY;Germany
EUGERBRE;Bremen;V;650;Bremen Cancer Registry;krebsregister@leibniz-bips.de;(49) 421 218 56961;(49) 421 218 56941;www.krebsregister.bremen.de/en_index.php, www.bips.uni-bremen.de;NULL;Bremen;;Leibniz-Institute for Prevention Research and Epidemiology - BIPS GmbH;;;Achterstraße 30;;28359;Europe;GERMANY;Germany
EUGERHAM;Hamburg;V;654;Hamburg Cancer Registry;HamburgischesKrebsregister@bgv.hamburg.de;(49) 40 428 37 2211;(49) 40 427 31 0094;www.hamburg.de/krebsregister/;NULL;Hamburg;NULL;NULL;NULL;NULL;Billstraße 80;NULL;20539;Europe;GERMANY;Germany
EUGERRHP;Rhine-Pfalz;V;657;Cancer Registry of Rhineland-Palatinate;info@krebsregister-rlp.de;(49) 6131 97175-0;(49) 6131 97175-90;http://www.krebsregister-rheinland-pfalz.de/;NULL;Mainz;;;;;Große Bleiche 46;;55116;Europe;GERMANY;Germany
EUGERRNW;NRW;V;658;Cancer Registry North Rhine-Westphalia;info@krebsregister.nrw.de;(49) 251 8358571;(49) 251 8358577;www.krebsregister.nrw.de/;NULL;Münster;;Landeskrebsregister NRW gGmbH;;;Johann-Krane-Weg 27;;48149;Europe;GERMANY;Germany
EUGERSAA;Saarland;V;659;Saarland Cancer Registry;NULL;496 815 015 805;496 815 015 998;www.krebsregister.saarland.de;NULL;Saarbrücken;NULL;Krebsregister Saarland;NULL;NULL;Präsident Baltz-Straße 5;NULL;66119;Europe;GERMANY;Germany
EUGERSAL;L Saxony;V;661;Epidemiological Cancer Registry of Lower Saxony;registerstelle@krebsregister-niedersachsen.de;(49) 4 41 3610 56 0;(49) 4 41 3610 56 10;www.krebsregister-niedersachsen.de/;NULL;Oldenburg;Registerstelle;Offis Care GmbH;;;Industriestr. 9;;26121;Europe;GERMANY;Germany
EUGERSCH;Schleswig-Holstein;V;662;Schleswig-Holstein Cancer Registry;info@krebsregister-sh.de;(49) 451 500 52101;(49) 451 500 52104;www.krebsregister-sh.de/;NULL;Lübeck;;Institut für Krebsepidemiologie e.V.;;;Ratzeburger Allee 160;Haus 50;23538;Europe;GERMANY;Germany
EUGIB10;Gibraltar;V;663;Gibraltar Cancer Registry;Rachelle.Asquez@gha.gi;(350) 2007 9160;(350) 2005 9942;NULL;Dr Vijay Kumar- 30th September 2018 as the Director (retired) msg: Asquez, Rachelle;Gibraltar;NULL;Gibraltar Health Authority;St Bernard's Hospital;NULL;NULL;NULL;GX11 1AA;Europe;GIBRALTAR;Gibraltar
EUGRECRE;Crete;V;666;Cancer Registry of Crete;NULL;(30) 81 394613 / 394623;(30) 81 394606;NULL;NULL;Heraklion;Department of Social Medecine;University of Crete School of Health Sciences;NULL;P.O. Box 1393;Stavrakia;NULL;71200;Europe;GREECE;Greece
EUHUN10;Hungary;V;667;National Cancer Registry of Hungary;kenessey.istvan@oncol.hu;(36) 1 2248600/1450;;http://www.onkol.hu/hu/rakregiszter-statisztika;solyom.olimpia@oncol.hu - invalid email;;;;;;;;;Europe;;
EUHUN20;Hungary_P;V;668;Hungarian Childhood Cancer Registry;miklos.garami@gmail.com;;;;;;;;;;;;;Europe;;
Secretary;" Hungarian Pediatric Oncology Network""";Budapest;2nd Department of Pediatrics,;;;;;;;;;;;;;;;Europe;;
"Semmelweis University""";NULL;Magyar Gyermekonkológiai Hálózat;;Tüzoltó u. 7-9.;;1094;Europe;HUNGARY;Hungary;;;;;;;;;Europe;;
EUHUNVAS;Vas;V;670;Vas County Registry;NULL;(36) 95 11503;NULL;NULL;NULL;Szombathely;NULL;"Hospital ""Maarkusovsky""";NULL;NULL;Semmelweis u.2;NULL;9700;Europe;HUNGARY;Hungary
EUICE10;Iceland;V;671;Icelandic Cancer Registry;;(354) 540 1900;Fax number: (354) 540 1910;www.krabbameinsskra.is/indexen.jsp?id=b;NULL;Reykjavik;;;;P.O. Box 5420;Skógarhlíd 8;;125;Europe;ICELAND;Iceland
EUIRL10;Ireland;V;672;National Cancer Registry Ireland;  m.ocallaghan@ncri.ie  ;(353) 21 431 8014;(353) 21 431 8016;www.ncri.ie;NULL;Cork;Building 6800;;;;Cork Airport Business Park;Kinsale Road;;Europe;IRELAND;Ireland
EUITA11;AIRTUM;V;673;Italian Association of Cancer Registries (AIRTUM);segreteria.airtum@inferenze.it;;;;;;;;;;;;;Europe;;
EUITA3P;Piedmont_P;V;676;Childhood Cancer Registry of Piedmont;emanuela.ciliberto@unito.it;(39) 0116706500 / (39) 0116334306;(39) 0116334661;https://www.registri-tumori.it/cms/;Covers population of EUITABIE, EUITATUR;Turin;Centro di riferimento per l''epidemiologia e la prevenzione oncologica in Piemonte;SCDU Epidemiologia dei tumori;;;via Santena 7;;10126;Europe;ITALY;Italy
EUITAAOS;Vallee d’Aosta;V;678;Aosta Valley Cancer Registry;registrotumori@ausl.vda.it;(39) 0165 774626;;;Joannie: no trace of this registry, but of the Registro Tumori per il Piemonte e la Valle d'Aosta in Torino;Aosta;Dipartimento di Prevenzione;AUSL Valle d''Aosta;;;Loc. Amérique, 7/L ;;11020;Europe;ITALY;Italy
EUITABER;Bergamo;V;1282;Bergamo Cancer Registry;registro.tumori@ats-bg.it;39035385190;39035385245;http://www.ats-bg.it/servizi/Menu/dinamica.aspx?idSezione=16861&idArea=47370&idCat=36852&ID=36852&TipoElemento=categoria;IACR membership - Voting 2016;Bergamo;Epidemology Unit;Agency for Health Protection, Bergamo;;;Via Gallicciolli 4;;24121;Europe;ITALY;Italy
EUITABIE;Biella;V;679;Piedmont Cancer Registry, Province of Biella;stefano.rosso@cpo.it;39-011-6333701;39-011-6333576;www.cpo.it;Covered also by EUITA3P;Turin;Registro Tumori Piemonte;AOU Città della Salute e della Scienza di Torino;;;via Cavour 31;;10123;Europe;ITALY;Italy
EUITABRE;Brescia;V;680;Cancer Registry of Brescia;registrotumori@ats-brescia.it;(39) 030 3839334/8040/8009;;https://www.registri-tumori.it/cms/registri-tumori/Registro%20tumori%20della%20ATS%20Brescia;NULL;Brescia;Regione Lombardia - ATS di Brescia;UO Epidemiologia;Registro Tumori;;Via Duca degli Abruzzi n. 15;;25124;Europe;ITALY;Italy
EUITACAI;Catania;V;682;Integrated Cancer Registry of Catania-Messina-Siracusa-Enna;segreteria@registrotumoriintegrato.it;390 953 782 110;390 953 782 110;http://www.registro-tumori-integrato.it/;Applied for the IACR membership in March 2011 - associate mbsh awarded 14/11/11;Catania;Azienda Ospedaliero-Universitaria Policlinico Vittorio Emanuele, Catania;;;;;;;Europe;;
;;;;;;;;;;;;;;;;;;Europe;;
;;;;Via Santa Sofia;" 87""";;95123;Europe;ITALY;Italy;;;;;;;;Europe;;
EUITACAT;Catanzaro;V;683;Catanzaro Cancer Registry;epidemiologia@libero.it;(39)3299195639;(39) 0961 7033503;;www.registrotumoricatanzaro.it - website does not work (23/10/2018);Catanzaro;Unit Epidemiology;Azienda Sanitaria Provinciale;;;Via ACRI 24;Via Vinicio Cortese 25;88100;Europe;ITALY;Italy
EUITAEMI;Emilia;V;685;Reggio Emilia Cancer Registry;lucia.mangone@ausl.re.it;+39.0522.335303;+39.0522.335460;https://www.registri-tumori.it/cms/registri-tumori/Registro%20Tumori%20Reggiano;annamaria.pezzarossi@ausl.re.it;Reggio Emilia;Servizio di Epidemiologia;Azienda USL-IRCCS di Reggio Emilia;NULL;NULL;Via Amendola 2;NULL;42122;Europe;ITALY;Italy
EUITAFER;Ferrara;V;686;Ferrara Province Cancer Registry;frs@unife.it,  rtm@unife.it;(39) 0532 455513;(39) 0532 235375;https://www.registri-tumori.it/cms/registri-tumori/Registro%20tumori%20della%20Romagna%20-%20Sede%20di%20Ferrara;NULL;Ferrara;Dipartimento Sanità Pubblica;Azienda USL Ferrara;;;c.so Giovecca 203;;44121;Europe;ITALY;Italy
EUITAFVG;FVG;V;687;Friuli Venezia Giulia Cancer Registry;serrainod@cro.it;390 434 659 354;390 434 659 231;http://www.cro.sanita.fvg.it/it/azienda_informa/registro_tumori.html;dr D Serraino;;;;;;;;;Europe;;
Director;;;;;;;;;;;;;;;;;;Europe;;
"Friuli Venezia Giulia Cancer registry""";Aviano;Cancer Epidemiology unit;IRCCS Centro Riferimento Oncologico;;;Via Franco Gallini 2;;33081;Europe;ITALY;Italy;;;;;;;Europe;;
EUITAGEN;Genova;V;688;Liguria Region Tumor Registry;;(39) 010 5558502;(39) 010-5558302;www.registri-tumori.it/cms/?q=RTLiguria;NULL;Genoa;SC Epidemiologia Clinica;AOU S.Martino -IST Istituto nazionale per la ricerca sul cancro;;;Largo R. Benzi, 10;;16132;Europe;ITALY;Italy
EUITAJON;Jonico;V;689;Puglia Cancer Registry;registrotumoripuglia@arespuglia.it;(39) 0805555039;(39) 0805555008;;"Italian name updated to ""Registro Tumori della Regione Puglia"" on April 30 by request of the registry. (SDK)";Bari;U.O.C. Statistica ed Epidemiologia;Istituto Tumori Giovanni Paolo II;;;Viale Orazio Flacco, 65;;70124;Europe;ITALY;Italy
EUITALAT;Latina;V;690;Latina Province Cancer Registry;registrotumori@ausl.latina.it;(39) 0773 6556889;(39) 0773 6556894;www.registri-tumori.it/cms/?q=RTLatina;NULL;Latina;Azienda USL Latina Dipartimento di Prevenzione;Registro Tumori  Latina;;;viale Le Corbusier snc;;4100;Europe;ITALY;Italy
EUITALEC;Lecco;V;691;Lecco Cancer Registry;uo.epid@ats-brianza.it;;390 341 482 521;https://www.registri-tumori.it/cms/registri-tumori/Registro%20tumori%20ATS%20della%20Brianza;Has become Monza & Brianza CR - see EUITAMON;Lecco;Department Programmation, Purchase and Control;Unit of Epidemiology and Programmation;ASL della Provincia di Lecco;;Corso Carlo Alberto 120;;23800;Europe;ITALY;Italy
EUITAMAC;Macerata;V;693;Macerata Province Tumor Registry;NULL;(39) 0737 402403;(39) 0737 402403;www.registri-tumori.it/cms/?q=RTMacerata;Covered also by EUITA3M;Camerino (MC);Scuola di Scienze Mediche Veterinarie;Università di Camerino;;;Via Gentile III da Varano;;62032;Europe;ITALY;Italy
EUITAMIL;Milan;V;695;Cancer Registry of Metropolitan Area of Milan;Registro.Tumori@ats-milano.it;(39) 02 85 78 21 00;(39) 02 85 78 21 28;https://www.registri-tumori.it/cms/registri-tumori/Registro%20Tumori%20ATS%20della%20Citt%C3%A0%20Metropolitana%20di%20Milano;NULL;Milan;Epidemiology Unit;Agency for Health Protection of Metropolitan Area of Milan;;;Corso Italia 19;;20122;Europe;ITALY;Italy
EUITAMOD;Modena;V;696;Tumour Registry of Modena;rtmodena@ausl.mo.it;;;http://www.ausl.mo.it/dsp/rtmodena;NULL;Modena;;Azienda USL Modena;;;Strada martiniana 21;;41126;Europe;ITALY;Italy
EUITAMON;Monza e Brianza;V;1288;Brianza Cancer Registry;uo.epid@ats-brianza.it;392 384 068;NULL;www.ats-brianza.it;Started 2012;;;;;;;;;Europe;;
EUITANAP;Naples;V;697;Naples South Cancer Registry;registrotumori@aslnapoli3sud.it;;;;;;;;;;;;;Europe;;
EUITANUO;Nuoro;V;699;Nuoro Cancer Registry;epiprosal.nuoro@atssardegna.it;390 784 240 843;390 784 240 741;http://www.aslnuoro.it/;NULL;Nuoro;Servizio Igiene e Sanita'' Pubblica;ATS SARDEGNA/ASSL Nuoro;;;Via Trieste 80;;8100;Europe;ITALY;Italy
EUITAPAL;Palermo;V;700;Palermo Province Cancer Registry (PPCR);registrotumoripalermo@unipa.it;(39) 91 6553 687;(39) 91 6553 631;http://portale.unipa.it/Registro-Tumori-di-Palermo-e-Provincia-00002/;NULL;Palermo;Department of Sciences for the Health Promotion;Palermo University Hospital;Palermo District Health Agency;NULL;Via del Vespro 133;NULL;90127;Europe;ITALY;Italy
EUITAPAR;Parma;V;701;Parma Cancer Registry;NULL;NULL;(39) 0521 995448;https://www.registri-tumori.it/cms/registri-tumori/Registro%20tumori%20di%20Parma;NULL;Parma;Azienda Ospedaliera di Parma, Divisione di Oncologia;NULL;NULL;NULL;NULL;NULL;43100;Europe;ITALY;Italy
EUITARAG;Ragusa;V;702;Ragusa Cancer Registry extended to Caltanissetta Province;rosario.tumino@asp.rg.it;(39) 0932 600545; ;https://www.registri-tumori.it/cms/registri-tumori/Registro%20tumori%20ASP%20Ragusa%20esteso%20alla%20provincia%20di%20Caltanisetta;NULL;Ragusa;Dipartimento di  prevenzione medica;Azienda Sanitaria Provinciale (ASP) Ragusa;(IPA: a_088;;;;;Europe;;
EUITAROM;Romagna;V;703;Romagna Tumor Registry;rtromagna@irst.emr.it;;;;;;;;;;;;;Europe;;
EUITASAL;Salerno;V;704;Salerno ASL Tumor Registry;registrotumori@aslsalerno.it;(39) 081 9212056;(39) 081 9212056;www.aslsalerno.it;NULL;Nocera Inferiore;;;;;Via Federico Ricco n. 50;;84014;Europe;ITALY;Italy
EUITASAS;Sassari;V;705;Cancer Registry of Sassari;rosaria.cesaraccio@atssardegna.it;(39) 079 206 2446;;https://www.registri-tumori.it/cms/;NULL;Sassari;Servizio epidemiologia;Assl Sassari- ATS Sardegna;;;Via Rizzeddu 21;;7100;Europe;ITALY;Italy
EUITASIR;Siracusa;V;706;Syracuse Province Cancer Registry;rtp@asp.sr.it;(39) 0931 484341;(39) 0931 484383;https://www.registri-tumori.it/cms/;NULL;Siracusa;Registro Territoriale di Patologia;ASP di Siracusa;;;Corso Gelone, 17;;96100;Europe;ITALY;Italy
EUITASON;Sondrio;V;707;Sondrio Cancer Registry;ac.fanetti@ats-montagna.it;(39) 342 555882;(39) 342 555859;www.ats-montagna.it/registro_tumori/;NULL;Sondrio;NULL;Agenzia di tutela della salute della montagna;Dipartimento Programmazione Acquisto e Controllo- Osservatorio Epidemiologico;NULL;via Nazario Sauro, 38;NULL;23100;Europe;ITALY;Italy
EUITATRA;Trani;V;708;Trani City Tumor Registry;enzo.coviello@alice.it;(39) 0883 483311;NULL;NULL;New CR: Provincia Barletta Andria Trani, enzo.coviello@alice.it;Trani;Presidio Ospedaliero di Trani;A.U.S.L. BA/2;NULL;NULL;NULL;NULL;70059;Europe;ITALY;Italy
EUITATRP;Trapani;V;710;Trapani Cancer Registry;registro.tumori@asptrapani.it;;+039  0923/26363;https://www.registri-tumori.it/cms/;IACR Membership 2017 approved. Email did not work (SA 25/02/2014);Trapani;UOSD Registro Tumori, Dipartimento di Prevenzione;;;;via Amm. Staiti 95;;91100;Europe;ITALY;Italy
EUITATUR;Turin;V;711;Piedmont Cancer Registry;silvia.patriarca@cpo.it;390 116 333 968;390 116 333 576;https://www.cpo.it;;;;;;;;;;;;
10236 Torino ;;;;;;;;;;;;;;;;;;;;
Italy ;;;;;;;;;;;;;;;;;;;;
;;;;;;;;;;;;;;;;;;;;
;;;;;;;;;;;;;;;;;;;;
Azienda Ospedaliero Universitaria;;;;;;;;;;;;;;;;;;;;
San Giovanni Battista di Torino;;;;;;;;;;;;;;;;;;;;
Corso Bramante 88;;;;;;;;;;;;;;;;;;;;
"10126 Torino""";Turin;Registro Tumori Piemonte;AOU Città della Salute e della Scienza di Torino;;10123;Via Cavour 31;;10123;Europe;ITALY;Italy;;;;;;;;;
EUITATUS;Tuscany;V;712;Tuscany Region Tumor Registry;ispro@postacert.toscana.it;(39) 055 7972508;(39) 055 7972535;http://www.ispro.toscana.it:8282/rtrt/index.html;Dr Paci has retired from the registry;;;;;;;;;;;
ISPO - Via Cosimo il Vecchio 2 - ;;;;;;;;;;;;;;;;;;;;
50139 Florence ;;;;;;;;;;;;;;;;;;;;
Since 1985: Florence and Prato Provinces;;;;;;;;;;;;;;;;;;;;
"Since 2006 Tuscany Region""";Firenze;Istituto per lo studio e la prevenzione oncologica VAT number 05872050488;NULL;;;Via Cosimo il Vecchio, n. 2;;50139;Europe;ITALY;Italy;;;;;;;;;
EUITAUMB;Umbria;V;714;Umbrian Cancer Registry;fabrizio.stracci@unipg.it;390 755 858 033;390 755 858 420;http://www.rtup.unipg.it;NULL;Perugia;Dipartimento di Medicina Sperimentale;Università degli Studi di Perugia;sez. Sanità Pubblica;;Piazzale Lucio Severi, 1  ;Edificio D, Piano 0;6132;Europe;ITALY;Italy
EUITAVAR;Varese;V;715;Lombardy Cancer Registry, Varese Province;;(39) 02 2390 3538;(39) 02 2390 2762;https://www.registri-tumori.it/cms/registri-tumori/Registro%20tumori%20dell%27ATS%20dell%27Insubria;KV: Dr Giovanna Tagliabue (giovanna.tagliabue@istitutotumori.mi.it) new Director of the Lombardy Cancer Registry as of 01 Aug. 2013;Milan;Dipartimento di medicina predittiva e della prevenzione;SSD Registro Tumori;Fondazione IRCCS Istituto Nazionale Tumori;;Via Venezian 1;;20133;Europe;ITALY;Italy
EUITAVEN;Veneto;V;716;Veneto Tumor Registry;registro.tumori@azero.veneto.it;498778130;(39) 049 8778147;www.registrotumoriveneto.it;New Director: Prof. Massimo Rugge;Padova;Registro Tumori del Veneto;SER – Azienda Zero;;;Via Jacopo Avanzo, 35;;35132;Europe;ITALY;Italy
EULAT10;Latvia;V;721;Latvian Cancer Registry;;+371 67 387665;37 167 387 663;http://spkc.gov.lv;NULL;Riga;Registers Supervision Unit;The Centre for Disease Prevention and Control;;;Duntes street 22;;LV-1005;Europe;LATVIA;Latvia
EULIT10;Lithuania;V;722;Lithuanian Cancer Registry;registry@nvi.lt;(370) 5 219 0927;;http://www.nvi.lt/index.php?-1413089819;NULL;Vilnius;Cancer registry;National Cancer Institute;;;P.Baublio g. 3B;;LT-08406;Europe;LITHUANIA;Lithuania
EULUX10;Luxembourg;V;723;National Cancer Registry - Luxembourg;info@rnc.lu;;;www.rnc.lu;travel report 92, 93 is not linked to this registry particularly;Strassen;Department of Population Health;Luxembourg Institute of Health;;;1 a-b, rue Thomas Edison;;L-1445;Europe;LUXEMBOURG;Luxembourg
EULUX7L;Luxembourg;V;724;Morphologic tumour Registry in the Grand-Duchy of Luxembourg;rmt@lns.etat.lu;(352) 28100-397;(352) 28100-392;www.cancer-registry.lu/html/index2.html;Dissolution of registry in Feb 2013 (see letter by C Capesius dated 14 March 2013).;Dudelange;NULL;Laboratoire National de Santé E.P.;NULL;NULL;1, rue Louis Rech;NULL;L-3550;Europe;LUXEMBOURG;Luxembourg
EUMAL10;Malta;V;725;Malta National Cancer Registry;healthinfo@gov.mt;(356)2559900;(356)25599385;https://deputyprimeminister.gov.mt/en/dhir/Pages/Registries/cancers.aspx;NULL;Pieta;Malta National Cancer Registry;Department of Health Information and Research;;;95 Guardamangia Hill FGR2109;;PTA1313;Europe;MALTA;Malta
EUMOL10;National Cancer Registry of Moldova;V;726;Cancer National Registry of the Oncological Institute;cancerregistru@ms.md;37322852186;NULL;NULL;IACR Full - Voting Membership granted in 2017;Durleşti;Cancer National Registry of the Oncological Institute;NULL;NULL;NULL;str. N. Testemiţanu, 30;NULL;MD-2025;Europe;MOLDOVA;Moldova
EUNET10;Netherlands;V;728;Netherlands Cancer Registry;gegevensaanvraag@iknl.nl;(31) 88 234 60 00;(31) 88 234 60 01;www.iknl.nl;As of 01/01/2012, 8 CRs + VIKC merged into IKNL. EUNET10 and EUNETSTH are now the two Dutch registries (letter received on 07/03/2012).;Utrecht;Netherlands Comprehensive Cancer Organisation (IKNL);;;P.O. Box 19079;;;3501 DB;Europe;NETHERLANDS;Netherlands
EUNET20;Netherlands_P;V;964;Dutch Childhood Oncology Group (DCOG);info@skion.nl;(31) 70 367 4545 / 366 9830;(31) 70 367 0868;NULL;Formerly EUNETZH20;The Hague;NULL;NULL;NULL;P.O. Box 43515;NULL;NULL;2504 AM;Europe;NETHERLANDS;Netherlands
EUNETZH20;Netherlands_P_HP;V;738;Dutch Childhood Oncology Group (DCOG);info@skion.nl;(31) 70 367 4545 / 366 9830;(31) 70 367 0868;;Registry now collects information on all tumours: see EUNET20;The Hague;;;;P.O. Box 43515;;;2504 AM;Europe;NETHERLANDS;Netherlands
EUNOR10;Norway;V;741;Cancer Registry of Norway;kreftregisteret@kreftregisteret.no;(47) 22 451300;;www.kreftregisteret.no/en/;NULL;Oslo;Kreftregisteret;Institute of Population-Based Cancer Research;;P.O. Box 5313;Majorstuen;;N-0304;Europe;NORWAY;Norway
EUPOL10;Poland;V;742;Polish National Cancer Registry;krn@coi.waw.pl;;;;;;;;;;;;;Europe;;
EUPOLCRA;Cracow;V;744;Cracow City and District Cancer Registry;NULL;(48) 12 634 82 40;(48) 12 634 82 91;;NULL;Kraków;Department Epidemiology;Maria Sklodowska-Curie Memorial;;;;;;Europe;;
"Cancer Center and Institute of Oncology""";Maria Sklodowska-Curie Memorial;;;;;;;;;;;;;;;;;Europe;;
"Cancer Center and Institute of Oncology""";;Garncarska 11;;31-115;Europe;POLAND;Poland;;;;;;;;;;;Europe;;
EUPOLKIE;Kielce;V;746;Kielce Cancer Registry;epidemiologia@onkol.kielce.pl;(48) 41 36 74 276;+48 41 3456882;https://www.onkol.kielce.pl/centrum/zaklad-epidemiologii-i-walki-z-rakiem;https://www.onkol.kielce.pl/pl/centrum/zaklad-epidemiologii-i-walki-z-rakiem;Kielce;Department of Epidemiology and Cancer Control;Holycross Cancer Center;;;Artwinskiego 3;;25-734;Europe;POLAND;Poland
EUPOLLSI;L Silesia;V;747;Lower Silesian Cancer Registry;;(48) 71 3689554;(48) 71 3689555;https://www.dco.com.pl/zedrn/;NULL;Wroclaw;;Lower Silesian Oncology Center in Wroclaw;;;pI. Hirszfelda 12;;53-413;Europe;POLAND;Poland
EUPOLOPO;Opole;V;751;Opole Regional Cancer Registry;rejestr-nowotworow@onkologia.opole.pl;(48) 77 441 60 88;(48) 77 441 60 88;;NULL;Opole;;Regional Cancer Center;Opolskie Centrum Onkologii;;;;;Europe;;
;;ul. Katowicka 66a;;45-060;Europe;POLAND;Poland;;;;;;;;;;;Europe;;
EUPORNOP;Porto;V;762;North Region Cancer Registry of Portugal;roreno@ipoporto.min-saude.pt;(351) 22 508 4067;(351) 22 508 4004;www.roreno.com.pt;NULL;Porto;Servico de Epidemiologia;Instituto Português de Oncologia do Porto;;;Rua António Bernardino da Almeida;;4200-072;Europe;PORTUGAL;Portugal
EUPORSOL;Lisbon;V;763;Portugal South Region Cancer Registry;rorsul@ipolisboa.min-saude.pt;(351) 21 722 9852;;www.ror-sul.org.pt;ror-sul@ipolisboa.min-saude.pt - email bounced back 14/02/2017;Lisbon;Epidemiology And Cancer Registry;Instituto Português de Oncologia de Lisboa de Francisco Gentil;Centro Regional de Lisboa;;Rua Professor Lima Basto;;1099-023;Europe;PORTUGAL;Portugal
EUROM3B;Bucharest_P;V;766;Bucharest Childhood Cancer Registry;NULL;(40) 21 312 6418, (40) 21 3157949;(40) 21 3112928;NULL;NULL;Bucharest;;Centre for Health Statistics;;;9, George Vraca Street;;10146;Europe;ROMANIA;Romania
EUROMBIH;Bihor;V;767;Bihor County Cancer Registry;NULL;(40) 59 434729;(40) 59 434729;NULL;Covered by EUROMNWA;Oradea;NULL;Clinica de Oncologie;Spitalul Clinic Judetean Oradea;NULL;str. Republicii nr. 37;NULL;3700;Europe;ROMANIA;Romania
EUROMCLU;Cluj;V;768;Cluj Regional Cancer Registry;rcrcj@iocn.ro;(40) 264 590396;(40) 264 590396;http://www.iocn.ro;Covered by EUROMNWA;Cluj-Napoca;Dept. of Epidemiology & Medical Biostatistics;Oncological Institute ''Ion Chiricuta'';;;Republicii Street no. 34-36;;400015;Europe;ROMANIA;Romania
EUROMTIM;Timisoara;V;769;Timisoara Regional Cancer Registry;rrcvest@gmail.com;;;;;;;;;;;;;Europe;;
EURUS10;RUSSIA;V;1489;Russian State Cancer Registry;NULL;NULL;NULL;NULL;NULL;NULL;NULL;NULL;NULL;NULL;NULL;NULL;NULL;Europe;RUSSIA;Russia
EURUS3M;Moscow_P;V;771;Childhood Cfancer Registry of Moscow Region;;(7) 495 2876570;(7) 495 6647090;;NULL;Moscow;Institute of Management and Translational Medicine;;;;Samory Mashela, 1;;117997;Europe;RUSSIA;Russia
EURUSALT;Altai;V;773;Altai Territory Cancer Registry;atcr@mail.ru;(7) (385) 2363 931;(7) (385) 2632 620;NULL;NULL;Barnaul;Department of Altai;Altai Oncological Centre;NULL;NULL;77, Nikitina str.;NULL;656049;Europe;RUSSIA;Russia
EURUSCHE;Chelyabinsk;V;1299;Chelyabinsk Cancer Registry;2328033@mail.ru;+7 351 232 80 33;+7 351 232 80 33;;IACR Voting membership 03-2017;Chelyabinsk;Methodical and organizational department;Chelyabinsk Regional Clinical  Center of Oncology and Nuclear Medicine;;;Blucher, St. 42;;454087;Europe;RUSSIA;Russia
EURUSKAR;Karelia;V;1264;Population cancer registry of the Republic of Karelia;omkrod@mail.ru;-1012;-897;;NULL;Petrozavodsk;Republic of Karelia;Republican Oncology Dispansary;;;5, Lososinskoe shosse street.;;185007;Europe;RUSSIA;Russia
EURUSSAM;Samara;V;1225;Samara Population Cancer Registry;omo@samaraonko.ru;+7 846 994-45-42;+7 846 994-73-60;http://samaraonko.ru/;NULL;Samara;;Samara Regional Clinical Oncology Center;;;Solnechnaya Str. 50;;443031;Europe;RUSSIA;Russia
EURUSSPE;St Petersburg;V;774;St. Petersburg Population-Based Cancer Registry;mail@miac.zdrav.spb.ru;+7 812 576 22 22;+7 812 252 71 76;www.spbmiac.ru;NULL;St. Petersburg;Shkapina str. 30, 198095, St.Petersburg;Medical Information Analytical Center;Petrov Research Institute of Oncology;;Shkapina str. 30, 198095, St.Petersburg;Leningradskaya 68, Pesochny, 197758, St.Petersburg;198095/197758;Europe;RUSSIA;Russia
EUSAM10;San Marino;V;775;San Marino Cancer Registry;NULL;(39) 0549 994535;(39) 0549 903706;;NULL;Borgo Maggiore;Epidemiology Unit;Social Security Institute;;;Via Scialoja 20;;47031;Europe;SAN_MARINO;San Marino
EUSERCSE;C Serbia;V;776;Central Serbia Cancer Registry;;(381) 11 2684566;(381) 11 2684140;www.batut.org.rs;NULL;Belgrade;Departement for prevention and control of non communicable  diseases, CANCER Registry Unit;Institute of Public Health of Serbia;;;5, Dr Subotica St.;;11000;Europe;SERBIA;Serbia
EUSERVOJ;Vojvodina;V;777;Vojvodina Cancer Registry;NULL;(381) 21 4805517 or  +381 (0)21 480 5500;+381 (0)21 6613-741;www.onk.ns.ac.rs;NULL;Sremska Mitrovica;Department of Epidemiology;Institute of Oncology;NULL;NULL;Institutski put 4;NULL;21204;Europe;SERBIA;Serbia
EUSLK10;Slovakia;V;778;Slovak National Cancer Registry;diba@nczisk.sk;+421 2 57269 206;+421 2 52635 490;www.nczisk.sk;NULL;Bratislava;NULL;National Health Information Center (NCZI);NULL;NULL;Lazaretska 26;NULL;81109;Europe;SLOVAKIA;Slovakia
EUSLN10;Slovenia;V;780;Cancer Registry of Republic of Slovenia;register@onko-i.si;(386) 1 5879 451;(386) 1 5879 400;https://www.onko-i.si/eng/crs/;NULL;Ljubljana;Epidemiology and Cancer Registry;Institute of Oncology Ljubljana;;;Zaloska cesta 2;;1000;Europe;SLOVENIA;Slovenia
EUSPA20;Spain_P;V;783;Spanish Registry of Childhood Tumours (RETI-SEHOP), UVEG;rnti@uv.es;(34) 96 386 4951;;https://www.uv.es/rnti/;NULL;Valencia;ESQ4618001D;Universitat de València;Facultad de Medicina;;Avda. V. Blasco Ibañez, 15;;46010;Europe;SPAIN;Spain
EUSPA3V;Valencia_P;V;784;Childhood Cancer Registry of the Valencian Community. Cancer Information System of the Valencian Community;sabater_congre@gva.es;34 961 925 751;34 961 925 780;http://www.sp.san.gva.es/epidemiologia/cancer/;NULL;Valencia;Servicio de Estudios Epidemiológicos y Estadísticas Sanitarias;Dirección General de Salud Pública;Conselleria de Sanitat, Generalitat Valenciana;NULL;Avinguda de  Catalunya, 21;NULL;46020;Europe;SPAIN;Spain
EUSPAALB;Albacete;V;786;Albacete Cancer Registry. Castile-La Mancha;ide@jccm.es;(34) 967 557944;(34) 967 557964;http://redecan.org/es/page.cfm?id=92&title=registro-de-cancer-de-albacete;NULL;Albacete;Servicio de Epidemiología;Consejería de Sanidad;Junta Comunidades de Castilla-La Mancha;NULL;Avda de la Guardia Civil, 5;NULL;2005;Europe;SPAIN;Spain
EUSPAAST;Asturias;V;787;Asturias Cancer Registry;;(34) 985 10 63 79;;http://redecan.org/es/page.cfm?id=93&title=registro-de-tumores-del-principado-de-asturias;NULL;Oviedo;Sección de Información Sanitaria;Servicio de Evaluación de la Salud y Programas;Dirección General de Salud Pública;;Consejería de Sanidad;C/Ciriaco Miguel Vigil N° 9;33006;Europe;SPAIN;Spain
EUSPABAL;Balears;V;788;Mallorca Cancer Registry;pfranch@dgsanita.caib.es;(34) 971 177095;;http://redecan.org/es/page.cfm?id=100&title=registre-de-c%C3%A0ncer-de-mallorca;NULL;Palma;Coordinació de la Estratègia de Càncer de les Illes Balears;Conselleria de Salut ;Direcció General de Salut Pública i Participació;;Carrer de Jesus 40. Pavelló II, 1er;;7010;Europe;SPAIN;Spain
EUSPABAS;Basque;V;789;Basque Country Cancer Registry;arantza-lopez@euskadi.eus;34945019236;;http://www.euskadi.eus/informazioa/minbiziaren-erregistroak/web01-a3regepi/eu/;NULL;Vitoria-Gasteiz;Osasun Saila/Departamento De Salud;Gobierno Vasco/Eusko Jaurlaritza;;;C/Donostia-San Sebastian  1;;1010;Europe;SPAIN;Spain
EUSPACAN;Canary;V;790;Canary Islands Cancer Registry;registrodecancer.scs@gobiernodecanarias.org;(34) 922 474941 or 928 307531;(34) 922 474946;http://redecan.org/es/page.cfm?id=109&title=registro-poblacional-de-cancer-de-la-comunidad-autonoma-de-canarias;NULL;Santa Cruz de Tenerife;Servicio de Epidemiología y Prevención;Dirección General de Salud Pública;;;Rambla de Santa Cruz, 53;;38006;Europe;SPAIN;Spain
EUSPACAR;Cantabria;V;791;Cantabria Cancer Registry (R.T.C.);NULL;34 942 20 77 45;34 942 20 69 85;;NULL;Santander;Sección de Vigilancia Epidemiológica;Dirección General de Sanidad;Consejería de Sanidad-Gobierno de Cantabria;;C/Federico Vial 13;;39009;Europe;SPAIN;Spain
EUSPACUE;Cuenca;V;793;Cuenca Cancer Registry;epicuenca@jccm.es;(34) 969 176544;(34) 969 176389;http://redecan.org/es/page.cfm?id=96&title=registro-de-cancer-de-cuenca;NULL;Cuenca;Seccion de Epidemiología, ;;;;;;;Europe;;
"Dirección General de Salud Publica y Consumo""";Direccion Provincial de la Consejería de Sanidad en Cuenca;;;C/ Las Torres, 43;;16071;Europe;SPAIN;Spain;;;;;;;;;Europe;;
EUSPAGIR;Girona;V;794;Girona Cancer Registry;rcgirona@iconcologia.net;(34) 972 207406;(34) 972 206180;http://redecan.org/es/page.cfm?id=103&title=registro-de-cancer-de-girona;Since 1980 monographic registry for 0-19 years + for female breast & gynecological cancers (all ages). Since 1994 all cancers sites for all ages. RMG in charge.;Girona;;Pla Director d'Oncologia, Departament de Salut;Institut Català d’Oncologia;;Carrer del Sol, núm 15;;17004;Europe;SPAIN;Spain
EUSPAGRA;Granada;V;795;Granada Cancer Registry;NULL;(34) 958 027404;(34) 958 027503;http://www.cancergranada.org;NULL;Granada;NULL;Escuela Andaluza de Salud Pública;CIBER de Epidemiología y Salud Pública (CIBERESP);P.O. Box 2070;Campus Universitario de Cartuja, S/N;Cuesta del Observatorio, 4;18011;Europe;SPAIN;Spain
EUSPAMUR;Murcia;V;796;Murcia Cancer Registry;mdolores.chirlaque@carm.es;(34) 9 6836 2039;(34) 9 6836 6656;http://www.murciasalud.es/pagina.php?id=283163&idsec=1074;mdolores.chirlaque@carm.es - Carmen Navarro (carmenav@um.es) was retired on 31/12/2017 and from 01/01/2018 I the Director of the Murcia Cancer Registry is María Dolores Chirlaque López;Murcia;Servicio de Epidemiología;Consejería de Sanidad y Política Social;CIBERESP (CIBER Epidemiología y Salud Pública), Spain;NULL;Ronda de Levante, 11;NULL;E30008;Europe;SPAIN;Spain
EUSPANAV;Navarra;V;797;Navarra Cancer Registry;NULL;(34) 848 423464;(34) 848 423474;http://redecan.org/es/page.cfm?id=101&title=registro-de-cancer-de-navarra;NULL;Pamplona;Servicio de Epidemiología;Instituto de Salud Pública;NULL;NULL;C/ Leyre, 15;NULL;31003;Europe;SPAIN;Spain
EUSPARIO;La Rioja;V;798;La Rioja Cancer Registry;jperucha@riojasalud.es;941291100 ext35466;(34) 941 272418;;NULL;Logroño;Consejería de Salud ;Dirección General de Salud y Consumo;Servicio de Epidemiología y Prevención Sanitaria;;Vara de Rey 8,1ª planta;;26071;Europe;SPAIN;Spain
EUSPATAR;Tarragona;V;799;Tarragona Cancer Registry;jgalceran@grupsagessa.com;(34) 977 326530;;http://www.epicancer.cat;NULL;Tarragona;;Hospital Sant Joan de Reus;;;Av/Josep Laporte, 2;;43204;Europe;SPAIN;Spain
EUSPAZAR;Zaragoza;V;801;Zaragoza Cancer Registry;NULL;(34) 976 714485;(34) 976 714340;NULL;NULL;Zaragoza;Departamento de Salud, Consumo y Servicios Sociales - Gobierno de Aragón;Dirección General de Planificación y Aseguramiento;Servicio de Planificación;NULL;Edificio Pignatelli;Paseo Maria Agustín, 36;50004;Europe;SPAIN;Spain
EUSPAZH7S;Leukaemia;V;802;Hospital-based multicenter Spanish Registry of leukaemia;NULL;NULL;NULL;NULL;NULL;Madrid;NULL;Fundacion Leucemia/Linfoma;NULL;NULL;C/Concha Espina 55 1oA;NULL;28016;Europe;SPAIN;Spain
EUSWE10;Sweden;V;803;Swedish Cancer Registry;cancerregistret@socialstyrelsen.se;(46) 75 247 3000;;http://www.socialstyrelsen.se;NULL;Stockholm;Department of statistics and evaluation, Unit of statistics;National Board of Health and Welfare;;;Rålambsvägen 3;;106 30;Europe;SWEDEN;Sweden
EUSWEGOT;Gothenburg;V;805;Goteborg Cancer Registry;NULL;(46) 31 200550;(46) 31 209250;www.rccvast.se;mail@rccvast.se invalid;Gothenburg;;Regional Cancer Centre Western Sweden;Sahlgrenska University Hospital;;Medicinaregatan 18G;;413 45;Europe;SWEDEN;Sweden
EUSWENOR;N Sweden;V;806;Regional Cancer Registry for Northern Sweden;annalena.sunesson@vll.se;(46) 90 785 1552;(46) 90 127464;http://www.registercentrumnorr.vll.se/;NULL;Umeå;NULL;Oncology Center;Akademiska sjukhuset;NULL;NULL;NULL;901 85;Europe;SWEDEN;Sweden
EUSWESES;SE Sweden;V;807;South East Sweden Cancer Registry;rccsydost@regionostergotland.se;(46) 10 1030000;(46) 10 1032846;http://www.cancercentrum.se/sv/sydost/;NULL;Linköping;;Regional Cancer Center South East Sweden;University Hospital;;;;581 85;Europe;SWEDEN;Sweden
EUSWESOS;S Sweden;V;808;Southern Swedish Regional Tumour Registry;NULL;(46) 46 177550;(46) 46 188143;;NULL;Lund;;University Hospital;;;;;SE-221 85;Europe;SWEDEN;Sweden
EUSWESTO;Stockholm;V;809;Stockholm-Gotland Regional Tumour Registry;regionaltcancercentrum@sll.se;(46) 8 5177 5003;(46) 8 348640;www.karolinska.se/sv/Karolinska-University-Hospital/;onkologiskt.centrum@smd.sll.se - email not valid;Stockholm;NULL;Oncologic Centre;Karolinska University Hospital;NULL;Solna;NULL;171 176;Europe;SWEDEN;Sweden
EUSWEUPP;Uppsala;V;810;Uppsala Tumour Registry;NULL;(46) 18 15 19 10;(46) 18 71 14 45;www.roc.se/cancerreg/kontakt_cancerreg.asp;NULL;Uppsala;NULL;Regional Oncologic Centre;University Hospital;NULL;NULL;NULL;751 85;Europe;SWEDEN;Sweden
EUSWI20;Switzerland_P;V;814;Swiss Childhood Cancer Registry (SCCR);katharina.flandera@ispm.unibe.ch;(41) 31 631 3507;(41) 31 631 3520;http://childhoodcancerregistry.ch/;Research - Swiss Childhood Cancer Registry;Bern;Department of Social and Preventive Medicine;University of Bern;;;Mittelstr. 43;;3012;Europe;SWITZERLAND;Switzerland
EUSWIAAR;Aargau;V;1477;Foundation Cancer Registry Aargau;krebsregister-aargau@hin.ch;+41 62 825 27 00;NULL;http://krebsregister-aargau.ch;IACR voting membership approved 2017;Aarau;NULL;NULL;NULL;Postfach 4037;NULL;NULL;5001;Europe;SWITZERLAND;Switzerland
EUSWIBAS;Basel;V;817;Basel Cancer Registry;Katharina.Staehelin@bs.ch;(41) 61 267 49 23;(41) 61 267 49 21;www.medizinischedienste.bs.ch;Mrs. Dr. med. Katharina Staehelin (Katharina.Staehelin@bs.ch) will be my successor from 1. September 2017. M Mousavi;Basel;Medizinische Dienste Referenz: Katharina Staehelin;Gesundheitsdepartement Basel-Stadt;Zentraler Rechnungseingang;;Malzgasse 30;;4001;Europe;SWITZERLAND;Switzerland
EUSWIFRI;Fribourg;V;818;Fribourg Tumor Registry;rt@liguessante-fr.ch;(41) 26 425 5405;(41) 26 425 5401;https://fribourg.liguecancer.ch/;NULL;Fribourg;Ligue fribourgeoise contre le cancer;Ligues de santé Fribourg;;;Rte St-Nicolas-de-Flue 2;;1701;Europe;SWITZERLAND;Switzerland
EUSWIGEN;Geneva;V;819;Geneva Cancer Registry;;(41) 22 379 49 50;(41) 22 379 49 71;http://www.unige.ch/medecine/rgt/index.html;NULL;Geneva;Institute of Global Health;Faculty of Medicine, University of Geneva;;;Centre Médical Universitaire ;Rue Michel Servet 1;1211;Europe;SWITZERLAND;Switzerland
EUSWIGGL;Graubunden Glarus;V;820;Graubünden and Glarus Cancer Registry;;(41) 81 256 6556;(41) 81 256 6544;www.ksgr.ch;French for Graubünden is Grisons;Chur;;Institut für Pathologie und Rechtsmedizin;Kantonsspital Graubünden;;Loestraße 170;;7000;Europe;SWITZERLAND;Switzerland
EUSWINEU;Neuchâtel;V;822;Neuchatel and Jura Cancer Registry;rnjt@ne.ch;(41) 32 717 71 90;(41) 32 717 71 99;http://www.ne.ch/autorites/DFS/SCSP/prevention/Pages/Registre-des-tumeurs.aspx;Merged with EUSWIJUR 1/1/2016;Neuchatel;Public Health Department;;;;Rue du Plan 30;;2000;Europe;SWITZERLAND;Switzerland
EUSWISGA;St Gallen Appenzell;V;823;Cancer Registry East Switzerland ;mohsen.mousavi@krebsregister-ost.ch  ;(41)71 242 7012;(41) 71 242 7019;www.krebsregister.ch  ;2019 04: New name for the cancer registry of cantons St. Gallen, Appenzell Ausserrhoden, Appenzell Innerrhoden and Thurgau in Switzerland and the country Liechtenstein:;;;;;;;;;;;
"Cancer Registry East Switzerland (in Germany: Krebsregister Ostschweiz)""";St Gallen;;;;;Flurhofstr. 7;;9000;Europe;SWITZERLAND;Switzerland;;;;;;;;;
EUSWITIC;Ticino;V;825;Ticino Cancer Registry;;0041 91 8160851;0041 91 8160829;www.ti.ch/tumori;NULL;Locarno;;Istituto Cantonale di Patologia;;;Via in Selva 24;;6600;Europe;SWITZERLAND;Switzerland
EUSWIVAL;Valais;V;826;Valais Cancer Registry;rvst@hin.ch;(41) 27 603 4973;(41) 27 603 4974;https://www.ovs.ch/sante/registre-valaisan-tumeurs.html;registre@ovs.ch - email bounced back (25/10/2018);Sion;;Observatoire valaisan de la santé;;;Avenue Grand-Champsec 64;;1950;Europe;SWITZERLAND;Switzerland
EUSWIVAU;Vaud;V;827;Vaud Cancer Registry;rvt@chuv.ch;;;;;;;;;;;;;Europe;;
EUSWIZUR;Zurich;V;828;Cancer Registry Zurich and Zug;krebsregister-zh-zg@usz.ch;(41) 44 255 5635;(41) 44 255 5636;http://www.krebsregister.usz.ch/;NULL;Zurich;Referenz: Prof. Sabine Rohrmann;Epidemiology, Biostatistics and Prevention Institute (EBPI);Universitätsspital Zürich;;Rämistrasse 100;;8091;Europe;SWITZERLAND;Switzerland
EUUKA10;Ukraine;V;829;National Cancer Registry of Ukraine;ncr.ukraine@gmail.com;(380) 44 257 76 14;(380) 44 259 02 64;http://unci.org.ua/en/for-specialists/national-cancer-registry/;NULL;Kyiv;Department of Cancer Control with NCRU;National Cancer Institute of Ukraine;;;Lomonosova str. 33/43;;3022;Europe;UKRAINE;Ukraine
EUUKA3D;Donetsk_P;V;830;Childhood Cancer in the Donetsk Region;NULL;(380) 622 947089;(380) 622 553001;NULL;NULL;Donetsk;Department of Children Surgery;Donetsk Medical University;NULL;NULL;Ilyicha avenue, 16;NULL;340003;Europe;UKRAINE;Ukraine
EUUKM12;England;V;832;National Cancer Registration and Analysis Service (NCRAS);NCRASenquiries@phe.gov.uk;2 076 548 000;;https://www.gov.uk/government/organisations/public-health-england;www.lshtm.ac.uk/eph/index.htm;London;Chief Knowledge Officer;National Cancer Registration and Analysis Service (NCRAS);Public Health England (PHE);;Wellington House - 4th Floor;133-155 Waterloo Road;SE1 8UG;Europe;UNITED_KINGDOM;UK
EUUKM20;EW_P;V;833;Childhood Cancer Research Group;NULL;(44 ) 1865 617800;(44 ) 1865 617801;NULL;Registry closed in April 2014;Oxford;Richards Building;University of Oxford;NULL;NULL;Old Road Campus;Headington;OX3 7LG;Europe;UNITED_KINGDOM;UK
EUUKMEWM;W Midlands;V;850;West Midlands Cancer Intelligence Unit;wmciu@wmciu.nhs.uk;(44) 121 414 7711;(44) 121 414 7714;www.wmciu.nhs.uk ;Closed  - part of Public Health CR;Birmingham;West Midlands Cancer Intelligence Unit;The University of Birmingham;;;Public Health Building;Edgbaston;B15 2TT;Europe;UNITED_KINGDOM;UK
EUUKMM3W;W Midlands_P;V;836;The National Cancer Registration and Analysis Service (NCRAS) West Midlands and South Central;paul.davies@phe.gov.uk;(44) 0121 214 9146;NULL;www.gov.uk/phe;WMCIU closed in 2013.  NCRAS which is part of Public Health England , is responsible for cancer registration and intelligence in England;Birmingham;NCRAS West Midlands and South Central;Public Health England;;;1st Floor, 5 St Philips Place;;B3 2PW;Europe;UNITED_KINGDOM;UK
EUUKMNIR;N Ireland;V;852;Northern Ireland Cancer Registry;nicr@qub.ac.uk;(44) 28 9097 6038;;www.qub.ac.uk/nicr;NULL;Belfast;Centre for Public Health;Queen's University;;;Mulhouse Building;Grosvenor Road;BT12 6BJ;Europe;UNITED_KINGDOM;UK
EUUKMSCO;Scotland;V;853;Scottish Cancer Registry;nss.isdcancerstats@nhs.net;(44) 131 275 6092;NULL;www.isdscotland.org/cancer;NULL;Edinburgh;NULL;Public Health Intelligence;NHS National Services Scotland;NULL;NULL;1 South Gyle Crescent;EH12 9EB;Europe;UNITED_KINGDOM;UK
EUUKMWAL;Wales;V;854;Welsh Cancer Intelligence and Surveillance Unit;;(44) 29 2037 3500;;http://www.wales.nhs.uk/sites3/home.cfm?OrgID=242;25/7/12: Ceri White contact until J Steward is replaced.;Cardiff;Welsh Cancer Intelligence & Surveillance Unit (W.C.I.S.U.);Public Health Wales (NHS Trust);;;5th Floor, Capital Quarter 2;Tyndall Street;CF10 4BZ;Europe;UNITED_KINGDOM;UK
OCAUSACT;ACT;V;860;ACT Cancer Registry;cancerregistry@act.gov.au;(61) 2 6205 2610;(61) 2 6244 4138;www.stats.health.act.gov.au;www.health.act.gov.au/healthinfo (old);Canberra;Epidemiology Section;Preventive and Population Health;ACT Government;G.P.O. Box 825;Level 3, 2-6 Bowes St;Woden ACT 2606;2601;Oceania;AUSTRALIA;Australia
OCAUSNEW;NSW;V;861;New South Wales Cancer Registry;CINSW-DARenquiries@health.nsw.gov.au;(61) 2 8374 5600;02 02 8374 3648, 8374 3678;https://www.cancer.nsw.gov.au/;NULL;Eveleigh;Cancer Services and Information;Cancer Institute NSW;Level 9;NULL;8 Central Avenue;NULL;2015;Oceania;AUSTRALIA;Australia
OCAUSNOT;NT;V;862;Northern Territory Cancer Registry;NTCancerRegistry.DoH@nt.gov.au;(61) 8 8985 8074;(61) 8 8985 8075;https://health.nt.gov.au/professionals/health-gains/northern-territory-cancer-registry;K Dempsey will be working on Fridays only. Conctact Lindy Garling ,Dr Shu Li;Darwin;Innovation and Research Branch;NT Department of Health;;P.O. Box 40596;2nd floor Health House;87 Mitchell Street Darwin 0800;NT 0811;Oceania;AUSTRALIA;Australia
OCAUSQUE;Queensland;V;863;Queensland Cancer Register;CancerDataQld@health.qld.gov.au;(61) 7 3176 4400;;https://cancerallianceqld.health.qld.gov.au/;Email 2018/05: QCR merged with the Cancer Alliance Queensland, QCR’s office location and contact details have changed;Brisbane;;Cancer Alliance Queensland;Princess Alexandra Hospital;;Level 1 Burke Street Centre;199 Ipswich Road;QLD 4102;Oceania;AUSTRALIA;Australia
OCAUSSOA;S Australia;V;864;South Australian Cancer Registry;HealthEpidemiology@sa.gov.au;;;;;;;;;;;;;Oceania;;
OCAUSTAS;Tasmania;V;865;Tasmanian Cancer Registry;tcr@menzies.utas.edu.au;;;;;;;;;;;;;Oceania;;
OCAUSVIC;Victoria;V;866;Victorian Cancer Registry;vcr@cancervic.org.au;(61) 3 9514 6100;(61) 3 9514 6751;https://www.cancervic.org.au/research/registry-statistics;NULL;Melbourne;Victorian Cancer Registry;Cancer Council Victoria;;;615 St Kilda Road;;3004;Oceania;AUSTRALIA;Australia
OCAUSWES;W Australia;V;867;Western Australian Cancer Registry;wacanreg@health.wa.gov.au;(61) 8 9222 4022 / 4249;(61) 8 9222 4199;https://ww2.health.wa.gov.au/Articles/U_Z/Western-Australian-Cancer-Registry;NULL;Perth East;Purchasing and System Performance Division;Department of Health (Western Australia);;;1st floor C block;189 Royal St;6004;Oceania;AUSTRALIA;Australia
OCAUSZH20;Australian Childhood;V;1483;Australian Childhood Cancer Registry;JoanneAitken@cancerqld.org.au;+61 7 3634 5100;NULL;https://cancerqld.org.au/research/cancer-registries/australian-childhood-cancer-registry;IACR membership 09/2018;Spring Hill;NULL;Cancer Council Queensland;NULL;201;NULL;NULL;4004;Oceania;AUSTRALIA;Australia
OCFIJ10;Fiji;V;871;Fiji Cancer Registry;alisi.naiqero@health.gov.fj;(679) 330 6177;(679) 330 6163;NULL;sgovind@health.gov.fj - INVALID EMAIL / Dr Filipina Amosa-Lei Sam, Pathology Dept, Suva, Fiji;Suva;Ministry of Health;NULL;NULL;Box 2223;Government Buildings;NULL;NULL;Oceania;FIJI;Fiji
OCFRNNEC;New Caledonia;V;872;Cancer Registry of New Caledonia;registre.cancer@gouv.nc;(687) 24 37 15;(687) 24 37 02;;The registry was part of the Institut Pasteur but has moved to the Direction des affaires sanitaires et sociales (DASS) - 10/05/11;Nouméa;Service de santé publique;Direction des affaires sanitaires et sociales de la Nouvelle-Calédonie;;BP M2;7 avenue Paul Doumer;;98849;Oceania;FRANCE_NEW_CALEDONIA;New Caledonia
OCFRPPOL;French Polynesia;V;873;French Polynesia Cancer Registry;NULL;(689) 40 47 33 96;;;Laure YEN KAI SUN retired Feb 2019;Papeete; ;Direction de la santé Polynésie française;;P.O. Box 611;;;98713;Oceania;FRANCE_FRENCH_POLYNESIA;French Polynesia
OCGUA10;Guam;V;874;Guam Cancer Registry;NULL;(1) 671 735 7399 / 7171;(1) 671 734 5910;http://www.guamcrc.org/gcr/;rlhaddock@dphss.govguam.net: invalid email - removed;Hagåtña;Department of Public Health & Social Services;Office of Epidemiology and Research;NULL;P.O. Box 2816;NULL;NULL;96932;America North;USA;USA
OCNEZ10;New Zealand;V;875;New Zealand Cancer Registry;data-enquiries@health.govt.nz;(64) 4 816 2852;(64) 4 816 2897;https://www.health.govt.nz/nz-health-statistics/national-collections-and-surveys/collections/new-zealand-cancer-registry-nzcr;NULL;Wellington;Data and Digital Directorate;Ministry of Health;;P.O. Box 5013;133 Molesworth Street;Thorndon;6145;Oceania;NEW_ZEALAND;New Zealand
OCNEZ20;New Zealand_P;V;876;New Zealand Children's Cancer Registry;NZCCR@adhb.govt.nz;21 513 949;+64(0)33641240;childcancernetwork.org.nz;NULL;Auckland;;National Child Cancer Network;Starship Blood and Cancer Centre;Private Bag 92024;Level 5, ACS House 3 Ferncroft St;Grafton;1142;Oceania;NEW_ZEALAND;New Zealand
OCTON10;Tonga;V;880;Tonga Cancer Registry;sioapekupu@gmail.com;(676) 28233 / 27941;(676) 24291;NULL;sunia@dgl.to: Invalid email - removed;Nuku‘alofa;Research Unit;Ministry of Health;NULL;P.O. Box 59;NULL;NULL;NULL;Oceania;TONGA;Tonga
OCUSAHAW;Hawaii;V;881;Hawaii Tumour Registry;jdavis@cc.hawaii.edu;(1) 808 586 9750;(1) 808 587 0024;http://www.uhcancercenter.org/research/shared-resources/hawaii-tumor-registry;Michael Green is no longer with the Hawaii Tumor Registry: 2020 Jan;Honolulu;Hawai'I Tumor Registry;University of Hawaii Cancer Center;Department of Epidemiology;NULL;701 Ilalo St, 4th Floor;NULL;96813-5525;America North;USA;USA
OCUSAHWP;PRCCR;V;970;Pacific Regional Central Cancer Registry (PRCCR);pcregistry@gmail.com;808-692-0854;;http://www.pacificcancer.org/programs/pacific-regional-central-cancer-registry.html;NULL;Honolulu;Department of Family Medicine & Community Health;John A. Burns School of Medicine,;University of Hawaii;;677 Ala Moana Blvd;Suite 815;96813;America North;USA;USA
OCVAN10;Vanuatu;V;882;Vanuatu Cancer Registry;tagay@vanuatu.com.vu;(678) 22512;NULL;NULL;NULL;Port-Vila;NULL;Ministry of Health;NULL;NULL;Private Mail Bag;NULL;NULL;Oceania;VANUATU;Vanuatu